{"type":"FeatureCollection","features":[{"type":"Feature","geometry":{"type":"Point","coordinates":[121.3706606,24.9350765]},"properties":{"data_time":"2026-05-02 11:42:17","market_id":"6","name":"三峽公有市場","city":"新北市","city_code":"65000","district":"三峽區","district_code":"65000090","address":"新北市三峽區民生街186號","phone":"(02)86721664","type":"早市","lng":121.3706606,"lat":24.9350765,"geocode_query":"三峽公有市場, 三峽區, New Taipei, Taiwan","stall_total":180,"produce_stalls":15,"meat_stalls":21,"seafood_stalls":24,"poultry_stalls":17,"grain_stalls":11,"grocery_stalls":13,"flower_stalls":1,"food_stalls":16,"general_merchandise_stalls":25,"other_stalls":35,"vacant_stalls":2,"stall_data_year":2025}},{"type":"Feature","geometry":{"type":"Point","coordinates":[121.4430052,24.9750127]},"properties":{"data_time":"2026-05-02 11:42:24","market_id":"8","name":"土城公有零售市場","city":"新北市","city_code":"65000","district":"土城區","district_code":"65000130","address":"新北市土城區中正路18號","phone":"(02)29410176","type":"早市及黃昏市場","lng":121.4430052,"lat":24.9750127,"geocode_query":"土城公有零售市場, 土城區, New Taipei, Taiwan","stall_total":null,"produce_stalls":null,"meat_stalls":null,"seafood_stalls":null,"poultry_stalls":null,"grain_stalls":null,"grocery_stalls":null,"flower_stalls":null,"food_stalls":null,"general_merchandise_stalls":null,"other_stalls":null,"vacant_stalls":null,"stall_data_year":null}},{"type":"Feature","geometry":{"type":"Point","coordinates":[121.6297138,25.0684617]},"properties":{"data_time":"2026-05-02 11:42:48","market_id":"15","name":"金龍公有市場","city":"新北市","city_code":"65000","district":"汐止區","district_code":"65000110","address":"新北市汐止區中興路250號","phone":"(02)86933583","type":"早市","lng":121.6297138,"lat":25.0684617,"geocode_query":"金龍公有市場, 汐止區, New Taipei, Taiwan","stall_total":128,"produce_stalls":13,"meat_stalls":11,"seafood_stalls":7,"poultry_stalls":8,"grain_stalls":6,"grocery_stalls":10,"flower_stalls":3,"food_stalls":33,"general_merchandise_stalls":12,"other_stalls":25,"vacant_stalls":0,"stall_data_year":2025}},{"type":"Feature","geometry":{"type":"Point","coordinates":[121.3774562,25.0686947]},"properties":{"data_time":"2026-05-02 11:43:17","market_id":"24","name":"東勢公有市場","city":"新北市","city_code":"65000","district":"林口區","district_code":"65000170","address":"新北市林口區林口區麗園一街35號","phone":"(02)29004000","type":"早市","lng":121.3774562,"lat":25.0686947,"geocode_query":"東勢公有市場, 林口區, New Taipei, Taiwan","stall_total":46,"produce_stalls":9,"meat_stalls":4,"seafood_stalls":2,"poultry_stalls":3,"grain_stalls":0,"grocery_stalls":10,"flower_stalls":0,"food_stalls":11,"general_merchandise_stalls":4,"other_stalls":3,"vacant_stalls":0,"stall_data_year":2025}},{"type":"Feature","geometry":{"type":"Point","coordinates":[121.36776,25.06912]},"properties":{"data_time":"2026-05-02 11:43:25","market_id":"26","name":"麗林公有市場","city":"新北市","city_code":"65000","district":"林口區","district_code":"65000170","address":"新北市林口區公園路59號","phone":"None","type":"超市","lng":121.36776,"lat":25.06912,"geocode_query":"麗林公有市場, 林口區, New Taipei, Taiwan","stall_total":null,"produce_stalls":null,"meat_stalls":null,"seafood_stalls":null,"poultry_stalls":null,"grain_stalls":null,"grocery_stalls":null,"flower_stalls":null,"food_stalls":null,"general_merchandise_stalls":null,"other_stalls":null,"vacant_stalls":null,"stall_data_year":null}},{"type":"Feature","geometry":{"type":"Point","coordinates":[121.4336556,25.0561351]},"properties":{"data_time":"2026-05-02 11:43:33","market_id":"28","name":"泰山公有市場","city":"新北市","city_code":"65000","district":"泰山區","district_code":"65000160","address":"新北市泰山區全興路212號","phone":"(02)29004000","type":"早市","lng":121.4336556,"lat":25.0561351,"geocode_query":"泰山公有市場, 泰山區, New Taipei, Taiwan","stall_total":216,"produce_stalls":27,"meat_stalls":20,"seafood_stalls":9,"poultry_stalls":4,"grain_stalls":0,"grocery_stalls":42,"flower_stalls":1,"food_stalls":36,"general_merchandise_stalls":61,"other_stalls":12,"vacant_stalls":4,"stall_data_year":2025}},{"type":"Feature","geometry":{"type":"Point","coordinates":[121.8089418,25.1077298]},"properties":{"data_time":"2026-05-02 11:44:11","market_id":"38","name":"第一公有市場","city":"新北市","city_code":"65000","district":"瑞芳區","district_code":"65000120","address":"新北市瑞芳區明燈路三段2號","phone":"(02)84974251","type":"早市","lng":121.8089418,"lat":25.1077298,"geocode_query":"第一公有市場, 瑞芳區, New Taipei, Taiwan","stall_total":168,"produce_stalls":12,"meat_stalls":17,"seafood_stalls":6,"poultry_stalls":5,"grain_stalls":2,"grocery_stalls":63,"flower_stalls":4,"food_stalls":18,"general_merchandise_stalls":29,"other_stalls":6,"vacant_stalls":6,"stall_data_year":2025}},{"type":"Feature","geometry":{"type":"Point","coordinates":[121.8056926,25.1068043]},"properties":{"data_time":"2026-05-02 11:44:15","market_id":"39","name":"瑞芳美食廣場","city":"新北市","city_code":"65000","district":"瑞芳區","district_code":"65000120","address":"新北市瑞芳區民生街35巷2號","phone":"(02)24974251","type":"美食廣場","lng":121.8056926,"lat":25.1068043,"geocode_query":"瑞芳美食廣場, 瑞芳區, New Taipei, Taiwan","stall_total":41,"produce_stalls":0,"meat_stalls":0,"seafood_stalls":0,"poultry_stalls":0,"grain_stalls":0,"grocery_stalls":0,"flower_stalls":0,"food_stalls":41,"general_merchandise_stalls":0,"other_stalls":0,"vacant_stalls":0,"stall_data_year":2025}},{"type":"Feature","geometry":{"type":"Point","coordinates":[121.4286224,24.9936284]},"properties":{"data_time":"2026-05-02 11:44:27","market_id":"42","name":"保安攤販集中區","city":"新北市","city_code":"65000","district":"樹林區","district_code":"65000070","address":"新北市樹林區保安街一段14巷","phone":"(02)26846492","type":"早市","lng":121.4286224,"lat":24.9936284,"geocode_query":"新北市樹林區保安街一段14巷","stall_total":null,"produce_stalls":null,"meat_stalls":null,"seafood_stalls":null,"poultry_stalls":null,"grain_stalls":null,"grocery_stalls":null,"flower_stalls":null,"food_stalls":null,"general_merchandise_stalls":null,"other_stalls":null,"vacant_stalls":null,"stall_data_year":null}},{"type":"Feature","geometry":{"type":"Point","coordinates":[121.353182,24.9543894]},"properties":{"data_time":"2026-05-02 11:44:45","market_id":"47","name":"鶯歌公有市場","city":"新北市","city_code":"65000","district":"鶯歌區","district_code":"65000080","address":"新北市鶯歌區建國路108號1樓、B1樓","phone":"(02)26780352","type":"早市","lng":121.353182,"lat":24.9543894,"geocode_query":"鶯歌公有市場, 鶯歌區, New Taipei, Taiwan","stall_total":119,"produce_stalls":10,"meat_stalls":13,"seafood_stalls":21,"poultry_stalls":9,"grain_stalls":2,"grocery_stalls":36,"flower_stalls":1,"food_stalls":3,"general_merchandise_stalls":15,"other_stalls":1,"vacant_stalls":8,"stall_data_year":2025}},{"type":"Feature","geometry":{"type":"Point","coordinates":[121.3531048,24.9543655]},"properties":{"data_time":"2026-05-02 11:44:49","market_id":"48","name":"鶯歌美食廣場","city":"新北市","city_code":"65000","district":"鶯歌區","district_code":"65000080","address":"新北市鶯歌區建國路108號2樓","phone":"(02)26780352","type":"美食廣場","lng":121.3531048,"lat":24.9543655,"geocode_query":"鶯歌美食廣場, 鶯歌區, New Taipei, Taiwan","stall_total":null,"produce_stalls":null,"meat_stalls":null,"seafood_stalls":null,"poultry_stalls":null,"grain_stalls":null,"grocery_stalls":null,"flower_stalls":null,"food_stalls":null,"general_merchandise_stalls":null,"other_stalls":null,"vacant_stalls":null,"stall_data_year":null}},{"type":"Feature","geometry":{"type":"Point","coordinates":[121.3998651,25.1465824]},"properties":{"data_time":"2026-05-02 11:45:29","market_id":"1","name":"下庄公有市場","city":"新北市","city_code":"65000","district":"八里區","district_code":"65000230","address":"新北市八里區舊城路19號","phone":"(02)26101533","type":"早市","lng":121.3998651,"lat":25.1465824,"geocode_query":"{\"street\": \"19 舊城路\", \"city\": \"八里區\", \"county\": \"新北市\", \"format\": \"jsonv2\", \"limit\": 1, \"countrycodes\": \"tw\"}","stall_total":null,"produce_stalls":null,"meat_stalls":null,"seafood_stalls":null,"poultry_stalls":null,"grain_stalls":null,"grocery_stalls":null,"flower_stalls":null,"food_stalls":null,"general_merchandise_stalls":null,"other_stalls":null,"vacant_stalls":null,"stall_data_year":null}},{"type":"Feature","geometry":{"type":"Point","coordinates":[121.5006044,25.0643244]},"properties":{"data_time":"2026-05-02 11:45:31","market_id":"2","name":"中央公有市場","city":"新北市","city_code":"65000","district":"三重區","district_code":"65000020","address":"新北市三重區中央北路26號","phone":"(02)29754991","type":"早市","lng":121.5006044,"lat":25.0643244,"geocode_query":"{\"street\": \"26 中央北路\", \"city\": \"三重區\", \"county\": \"新北市\", \"format\": \"jsonv2\", \"limit\": 1, \"countrycodes\": \"tw\"}","stall_total":54,"produce_stalls":5,"meat_stalls":18,"seafood_stalls":3,"poultry_stalls":5,"grain_stalls":0,"grocery_stalls":0,"flower_stalls":1,"food_stalls":11,"general_merchandise_stalls":3,"other_stalls":5,"vacant_stalls":3,"stall_data_year":2025}},{"type":"Feature","geometry":{"type":"Point","coordinates":[121.492084,25.0567625]},"properties":{"data_time":"2026-05-02 11:45:34","market_id":"3","name":"光明公有市場","city":"新北市","city_code":"65000","district":"三重區","district_code":"65000020","address":"新北市三重區重安街70號","phone":"(02)29772735","type":"早市","lng":121.492084,"lat":25.0567625,"geocode_query":"{\"street\": \"70 重安街\", \"city\": \"三重區\", \"county\": \"新北市\", \"format\": \"jsonv2\", \"limit\": 1, \"countrycodes\": \"tw\"}","stall_total":86,"produce_stalls":10,"meat_stalls":5,"seafood_stalls":16,"poultry_stalls":0,"grain_stalls":0,"grocery_stalls":0,"flower_stalls":3,"food_stalls":3,"general_merchandise_stalls":3,"other_stalls":26,"vacant_stalls":20,"stall_data_year":2025}},{"type":"Feature","geometry":{"type":"Point","coordinates":[121.4851038,25.0615732]},"properties":{"data_time":"2026-05-02 11:45:36","market_id":"4","name":"重新公有市場","city":"新北市","city_code":"65000","district":"三重區","district_code":"65000020","address":"新北市三重區重新路87-6號","phone":"(02)29754991","type":"早市","lng":121.4851038,"lat":25.0615732,"geocode_query":"{\"street\": \"87-6 重新路\", \"city\": \"三重區\", \"county\": \"新北市\", \"format\": \"jsonv2\", \"limit\": 1, \"countrycodes\": \"tw\"}","stall_total":22,"produce_stalls":1,"meat_stalls":0,"seafood_stalls":0,"poultry_stalls":0,"grain_stalls":2,"grocery_stalls":0,"flower_stalls":0,"food_stalls":4,"general_merchandise_stalls":14,"other_stalls":1,"vacant_stalls":0,"stall_data_year":2025}},{"type":"Feature","geometry":{"type":"Point","coordinates":[121.492084,25.0567625]},"properties":{"data_time":"2026-05-02 11:45:37","market_id":"5","name":"光明公有市場2樓","city":"新北市","city_code":"65000","district":"三重區","district_code":"65000020","address":"新北市三重區重安街70號2樓","phone":"None","type":"超市","lng":121.492084,"lat":25.0567625,"geocode_query":"{\"street\": \"70 重安街\", \"city\": \"三重區\", \"county\": \"新北市\", \"format\": \"jsonv2\", \"limit\": 1, \"countrycodes\": \"tw\"}","stall_total":86,"produce_stalls":10,"meat_stalls":5,"seafood_stalls":16,"poultry_stalls":0,"grain_stalls":0,"grocery_stalls":0,"flower_stalls":3,"food_stalls":3,"general_merchandise_stalls":3,"other_stalls":26,"vacant_stalls":20,"stall_data_year":2025}},{"type":"Feature","geometry":{"type":"Point","coordinates":[121.3759965,24.9284547]},"properties":{"data_time":"2026-05-02 11:45:40","market_id":"7","name":"礁溪公有市場","city":"新北市","city_code":"65000","district":"三峽區","district_code":"65000090","address":"新北市三峽區光明路71號","phone":"None","type":"超市","lng":121.3759965,"lat":24.9284547,"geocode_query":"{\"street\": \"71 光明路\", \"city\": \"三峽區\", \"county\": \"新北市\", \"format\": \"jsonv2\", \"limit\": 1, \"countrycodes\": \"tw\"}","stall_total":null,"produce_stalls":null,"meat_stalls":null,"seafood_stalls":null,"poultry_stalls":null,"grain_stalls":null,"grocery_stalls":null,"flower_stalls":null,"food_stalls":null,"general_merchandise_stalls":null,"other_stalls":null,"vacant_stalls":null,"stall_data_year":null}},{"type":"Feature","geometry":{"type":"Point","coordinates":[121.4137971,24.9576705]},"properties":{"data_time":"2026-05-02 11:45:42","market_id":"9","name":"頂埔公有市場","city":"新北市","city_code":"65000","district":"土城區","district_code":"65000130","address":"新北市土城區中州路28巷30號","phone":"None","type":"超市","lng":121.4137971,"lat":24.9576705,"geocode_query":"{\"street\": \"28 中州路\", \"city\": \"土城區\", \"county\": \"新北市\", \"format\": \"jsonv2\", \"limit\": 1, \"countrycodes\": \"tw\"}","stall_total":null,"produce_stalls":null,"meat_stalls":null,"seafood_stalls":null,"poultry_stalls":null,"grain_stalls":null,"grocery_stalls":null,"flower_stalls":null,"food_stalls":null,"general_merchandise_stalls":null,"other_stalls":null,"vacant_stalls":null,"stall_data_year":null}},{"type":"Feature","geometry":{"type":"Point","coordinates":[121.4742788,25.0035551]},"properties":{"data_time":"2026-05-02 11:45:44","market_id":"10","name":"民享公有市場","city":"新北市","city_code":"65000","district":"中和區","district_code":"65000030","address":"新北市中和區民享街37號","phone":"(02)22492868","type":"早市及黃昏市場","lng":121.4742788,"lat":25.0035551,"geocode_query":"{\"street\": \"37 民享街\", \"city\": \"中和區\", \"county\": \"新北市\", \"format\": \"jsonv2\", \"limit\": 1, \"countrycodes\": \"tw\"}","stall_total":118,"produce_stalls":19,"meat_stalls":12,"seafood_stalls":10,"poultry_stalls":1,"grain_stalls":1,"grocery_stalls":11,"flower_stalls":1,"food_stalls":13,"general_merchandise_stalls":21,"other_stalls":15,"vacant_stalls":14,"stall_data_year":2025}},{"type":"Feature","geometry":{"type":"Point","coordinates":[121.5009611,25.0005767]},"properties":{"data_time":"2026-05-02 11:45:46","market_id":"11","name":"枋寮公有市場","city":"新北市","city_code":"65000","district":"中和區","district_code":"65000030","address":"新北市中和區中和路74號","phone":"(02)22492868","type":"早市","lng":121.5009611,"lat":25.0005767,"geocode_query":"{\"street\": \"74 中和路\", \"city\": \"中和區\", \"county\": \"新北市\", \"format\": \"jsonv2\", \"limit\": 1, \"countrycodes\": \"tw\"}","stall_total":113,"produce_stalls":17,"meat_stalls":10,"seafood_stalls":3,"poultry_stalls":3,"grain_stalls":3,"grocery_stalls":7,"flower_stalls":1,"food_stalls":12,"general_merchandise_stalls":36,"other_stalls":21,"vacant_stalls":0,"stall_data_year":2025}},{"type":"Feature","geometry":{"type":"Point","coordinates":[121.5050384,24.9921022]},"properties":{"data_time":"2026-05-02 11:45:48","market_id":"12","name":"和平街攤販集中區","city":"新北市","city_code":"65000","district":"中和區","district_code":"65000030","address":"新北市中和區和平街89號","phone":"(02)29410176","type":"黃昏市場","lng":121.5050384,"lat":24.9921022,"geocode_query":"{\"street\": \"89 和平街\", \"city\": \"中和區\", \"county\": \"新北市\", \"format\": \"jsonv2\", \"limit\": 1, \"countrycodes\": \"tw\"}","stall_total":null,"produce_stalls":null,"meat_stalls":null,"seafood_stalls":null,"poultry_stalls":null,"grain_stalls":null,"grocery_stalls":null,"flower_stalls":null,"food_stalls":null,"general_merchandise_stalls":null,"other_stalls":null,"vacant_stalls":null,"stall_data_year":null}},{"type":"Feature","geometry":{"type":"Point","coordinates":[121.514108,25.0046225]},"properties":{"data_time":"2026-05-02 11:45:50","market_id":"13","name":"永安公有市場","city":"新北市","city_code":"65000","district":"永和區","district_code":"65000040","address":"新北市永和區安樂路431號","phone":"(02)29256805","type":"早市","lng":121.514108,"lat":25.0046225,"geocode_query":"{\"street\": \"431 安樂路\", \"city\": \"永和區\", \"county\": \"新北市\", \"format\": \"jsonv2\", \"limit\": 1, \"countrycodes\": \"tw\"}","stall_total":155,"produce_stalls":17,"meat_stalls":21,"seafood_stalls":10,"poultry_stalls":8,"grain_stalls":7,"grocery_stalls":5,"flower_stalls":4,"food_stalls":27,"general_merchandise_stalls":19,"other_stalls":37,"vacant_stalls":0,"stall_data_year":2025}},{"type":"Feature","geometry":{"type":"Point","coordinates":[121.5165574,25.0134505]},"properties":{"data_time":"2026-05-02 11:45:52","market_id":"14","name":"溪洲公有市場","city":"新北市","city_code":"65000","district":"永和區","district_code":"65000040","address":"新北市永和區勵行街42-1號","phone":"(02)29256803","type":"早市","lng":121.5165574,"lat":25.0134505,"geocode_query":"{\"street\": \"42-1 勵行街\", \"city\": \"永和區\", \"county\": \"新北市\", \"format\": \"jsonv2\", \"limit\": 1, \"countrycodes\": \"tw\"}","stall_total":37,"produce_stalls":2,"meat_stalls":6,"seafood_stalls":2,"poultry_stalls":3,"grain_stalls":3,"grocery_stalls":1,"flower_stalls":0,"food_stalls":12,"general_merchandise_stalls":2,"other_stalls":5,"vacant_stalls":1,"stall_data_year":2025}},{"type":"Feature","geometry":{"type":"Point","coordinates":[121.642358,25.0665061]},"properties":{"data_time":"2026-05-02 11:46:00","market_id":"18","name":"忠厚公有市場","city":"新北市","city_code":"65000","district":"汐止區","district_code":"65000110","address":"新北市汐止區樟樹一路137巷26號","phone":"(02)86462231","type":"早市","lng":121.642358,"lat":25.0665061,"geocode_query":"{\"street\": \"137 樟樹一路\", \"city\": \"汐止區\", \"county\": \"新北市\", \"format\": \"jsonv2\", \"limit\": 1, \"countrycodes\": \"tw\"}","stall_total":102,"produce_stalls":5,"meat_stalls":8,"seafood_stalls":7,"poultry_stalls":3,"grain_stalls":6,"grocery_stalls":5,"flower_stalls":2,"food_stalls":25,"general_merchandise_stalls":20,"other_stalls":18,"vacant_stalls":3,"stall_data_year":2025}},{"type":"Feature","geometry":{"type":"Point","coordinates":[121.4556254,25.007493]},"properties":{"data_time":"2026-05-02 11:46:08","market_id":"21","name":"湳興公有市場","city":"新北市","city_code":"65000","district":"板橋區","district_code":"65000010","address":"新北市板橋區中興路63號","phone":"(02)29663624","type":"早市","lng":121.4556254,"lat":25.007493,"geocode_query":"{\"street\": \"63 中興路\", \"city\": \"板橋區\", \"county\": \"新北市\", \"format\": \"jsonv2\", \"limit\": 1, \"countrycodes\": \"tw\"}","stall_total":145,"produce_stalls":30,"meat_stalls":42,"seafood_stalls":28,"poultry_stalls":4,"grain_stalls":17,"grocery_stalls":16,"flower_stalls":0,"food_stalls":8,"general_merchandise_stalls":0,"other_stalls":0,"vacant_stalls":0,"stall_data_year":2025}},{"type":"Feature","geometry":{"type":"Point","coordinates":[121.4588725,25.006606]},"properties":{"data_time":"2026-05-02 11:46:10","market_id":"23","name":"後埔公有市場","city":"新北市","city_code":"65000","district":"板橋區","district_code":"65000010","address":"新北市板橋區大華街5號","phone":"(02)29663624","type":"早市","lng":121.4588725,"lat":25.006606,"geocode_query":"{\"street\": \"5 大華街\", \"city\": \"板橋區\", \"county\": \"新北市\", \"format\": \"jsonv2\", \"limit\": 1, \"countrycodes\": \"tw\"}","stall_total":24,"produce_stalls":5,"meat_stalls":2,"seafood_stalls":0,"poultry_stalls":0,"grain_stalls":3,"grocery_stalls":0,"flower_stalls":0,"food_stalls":0,"general_merchandise_stalls":0,"other_stalls":0,"vacant_stalls":14,"stall_data_year":2025}},{"type":"Feature","geometry":{"type":"Point","coordinates":[121.3914416,25.0778913]},"properties":{"data_time":"2026-05-02 11:46:13","market_id":"25","name":"林口公有市場","city":"新北市","city_code":"65000","district":"林口區","district_code":"65000170","address":"新北市林口區林口路15號","phone":"(02)26020082","type":"早市","lng":121.3914416,"lat":25.0778913,"geocode_query":"{\"street\": \"15 林口路\", \"city\": \"林口區\", \"county\": \"新北市\", \"format\": \"jsonv2\", \"limit\": 1, \"countrycodes\": \"tw\"}","stall_total":40,"produce_stalls":6,"meat_stalls":9,"seafood_stalls":4,"poultry_stalls":2,"grain_stalls":8,"grocery_stalls":0,"flower_stalls":0,"food_stalls":7,"general_merchandise_stalls":4,"other_stalls":0,"vacant_stalls":0,"stall_data_year":2025}},{"type":"Feature","geometry":{"type":"Point","coordinates":[121.6406757,25.2184644]},"properties":{"data_time":"2026-05-02 11:46:15","market_id":"27","name":"第一公有市場","city":"新北市","city_code":"65000","district":"金山區","district_code":"65000270","address":"新北市金山區中山路188號","phone":"(02)24926381","type":"早市","lng":121.6406757,"lat":25.2184644,"geocode_query":"{\"street\": \"188 中山路\", \"city\": \"金山區\", \"county\": \"新北市\", \"format\": \"jsonv2\", \"limit\": 1, \"countrycodes\": \"tw\"}","stall_total":138,"produce_stalls":19,"meat_stalls":17,"seafood_stalls":13,"poultry_stalls":4,"grain_stalls":23,"grocery_stalls":27,"flower_stalls":0,"food_stalls":35,"general_merchandise_stalls":0,"other_stalls":0,"vacant_stalls":0,"stall_data_year":2025}},{"type":"Feature","geometry":{"type":"Point","coordinates":[121.9268529,25.0547961]},"properties":{"data_time":"2026-05-02 11:46:16","market_id":"29","name":"澳底公有市場","city":"新北市","city_code":"65000","district":"貢寮區","district_code":"65000260","address":"新北市貢寮區仁愛路79號","phone":"(02)24930205","type":"早市","lng":121.9268529,"lat":25.0547961,"geocode_query":"{\"street\": \"79 仁愛路\", \"city\": \"貢寮區\", \"county\": \"新北市\", \"format\": \"jsonv2\", \"limit\": 1, \"countrycodes\": \"tw\"}","stall_total":17,"produce_stalls":2,"meat_stalls":2,"seafood_stalls":4,"poultry_stalls":1,"grain_stalls":0,"grocery_stalls":0,"flower_stalls":0,"food_stalls":0,"general_merchandise_stalls":0,"other_stalls":0,"vacant_stalls":8,"stall_data_year":2025}},{"type":"Feature","geometry":{"type":"Point","coordinates":[121.442646,25.1704197]},"properties":{"data_time":"2026-05-02 11:46:18","market_id":"30","name":"中山公有零售市場","city":"新北市","city_code":"65000","district":"淡水區","district_code":"65000100","address":"新北市淡水區中山路77號","phone":"(02)26219669","type":"早市","lng":121.442646,"lat":25.1704197,"geocode_query":"{\"street\": \"77 中山路\", \"city\": \"淡水區\", \"county\": \"新北市\", \"format\": \"jsonv2\", \"limit\": 1, \"countrycodes\": \"tw\"}","stall_total":27,"produce_stalls":2,"meat_stalls":2,"seafood_stalls":2,"poultry_stalls":1,"grain_stalls":0,"grocery_stalls":2,"flower_stalls":1,"food_stalls":15,"general_merchandise_stalls":2,"other_stalls":0,"vacant_stalls":0,"stall_data_year":2025}},{"type":"Feature","geometry":{"type":"Point","coordinates":[121.4397622,25.1698862]},"properties":{"data_time":"2026-05-02 11:46:20","market_id":"31","name":"中正美食廣場","city":"新北市","city_code":"65000","district":"淡水區","district_code":"65000100","address":"新北市淡水區中正路115號","phone":"(02)26219669","type":"美食廣場","lng":121.4397622,"lat":25.1698862,"geocode_query":"{\"street\": \"115 中正路\", \"city\": \"淡水區\", \"county\": \"新北市\", \"format\": \"jsonv2\", \"limit\": 1, \"countrycodes\": \"tw\"}","stall_total":27,"produce_stalls":0,"meat_stalls":0,"seafood_stalls":0,"poultry_stalls":0,"grain_stalls":0,"grocery_stalls":2,"flower_stalls":0,"food_stalls":24,"general_merchandise_stalls":0,"other_stalls":0,"vacant_stalls":1,"stall_data_year":2025}},{"type":"Feature","geometry":{"type":"Point","coordinates":[121.6156169,24.9990451]},"properties":{"data_time":"2026-05-02 11:46:22","market_id":"32","name":"深坑公有市場","city":"新北市","city_code":"65000","district":"深坑區","district_code":"65000180","address":"新北市深坑區平埔街22巷8號","phone":"None","type":"超市","lng":121.6156169,"lat":24.9990451,"geocode_query":"{\"street\": \"22 平埔街\", \"city\": \"深坑區\", \"county\": \"新北市\", \"format\": \"jsonv2\", \"limit\": 1, \"countrycodes\": \"tw\"}","stall_total":null,"produce_stalls":null,"meat_stalls":null,"seafood_stalls":null,"poultry_stalls":null,"grain_stalls":null,"grocery_stalls":null,"flower_stalls":null,"food_stalls":null,"general_merchandise_stalls":null,"other_stalls":null,"vacant_stalls":null,"stall_data_year":null}},{"type":"Feature","geometry":{"type":"Point","coordinates":[121.5275986,24.975296]},"properties":{"data_time":"2026-05-02 11:46:23","market_id":"33","name":"中央公有市場","city":"新北市","city_code":"65000","district":"新店區","district_code":"65000060","address":"新北市新店區中央五街60號","phone":"(02)22191865","type":"店家","lng":121.5275986,"lat":24.975296,"geocode_query":"{\"street\": \"60 中央五街\", \"city\": \"新店區\", \"county\": \"新北市\", \"format\": \"jsonv2\", \"limit\": 1, \"countrycodes\": \"tw\"}","stall_total":18,"produce_stalls":0,"meat_stalls":0,"seafood_stalls":0,"poultry_stalls":0,"grain_stalls":0,"grocery_stalls":1,"flower_stalls":0,"food_stalls":1,"general_merchandise_stalls":10,"other_stalls":6,"vacant_stalls":0,"stall_data_year":2025}},{"type":"Feature","geometry":{"type":"Point","coordinates":[121.5369757,24.9552476]},"properties":{"data_time":"2026-05-02 11:46:26","market_id":"34","name":"碧潭公有市場","city":"新北市","city_code":"65000","district":"新店區","district_code":"65000060","address":"新北市新店區新店路159號","phone":"(02)29143391","type":"早市","lng":121.5369757,"lat":24.9552476,"geocode_query":"{\"street\": \"159 新店路\", \"city\": \"新店區\", \"county\": \"新北市\", \"format\": \"jsonv2\", \"limit\": 1, \"countrycodes\": \"tw\"}","stall_total":12,"produce_stalls":3,"meat_stalls":4,"seafood_stalls":0,"poultry_stalls":1,"grain_stalls":0,"grocery_stalls":0,"flower_stalls":0,"food_stalls":0,"general_merchandise_stalls":0,"other_stalls":0,"vacant_stalls":4,"stall_data_year":2025}},{"type":"Feature","geometry":{"type":"Point","coordinates":[121.5128164,24.9628085]},"properties":{"data_time":"2026-05-02 11:46:28","market_id":"35","name":"安康公有市場","city":"新北市","city_code":"65000","district":"新店區","district_code":"65000060","address":"新北市新店區安康路二段120號","phone":"None","type":"超市","lng":121.5128164,"lat":24.9628085,"geocode_query":"{\"street\": \"120 安康路二段\", \"city\": \"新店區\", \"county\": \"新北市\", \"format\": \"jsonv2\", \"limit\": 1, \"countrycodes\": \"tw\"}","stall_total":null,"produce_stalls":null,"meat_stalls":null,"seafood_stalls":null,"poultry_stalls":null,"grain_stalls":null,"grocery_stalls":null,"flower_stalls":null,"food_stalls":null,"general_merchandise_stalls":null,"other_stalls":null,"vacant_stalls":null,"stall_data_year":null}},{"type":"Feature","geometry":{"type":"Point","coordinates":[121.5275986,24.975296]},"properties":{"data_time":"2026-05-02 11:46:29","market_id":"36","name":"中央公有市場","city":"新北市","city_code":"65000","district":"新店區","district_code":"65000060","address":"新北市新店區中央五街60號","phone":"None","type":"超市","lng":121.5275986,"lat":24.975296,"geocode_query":"{\"street\": \"60 中央五街\", \"city\": \"新店區\", \"county\": \"新北市\", \"format\": \"jsonv2\", \"limit\": 1, \"countrycodes\": \"tw\"}","stall_total":18,"produce_stalls":0,"meat_stalls":0,"seafood_stalls":0,"poultry_stalls":0,"grain_stalls":0,"grocery_stalls":1,"flower_stalls":0,"food_stalls":1,"general_merchandise_stalls":10,"other_stalls":6,"vacant_stalls":0,"stall_data_year":2025}},{"type":"Feature","geometry":{"type":"Point","coordinates":[121.4479615,25.0333275]},"properties":{"data_time":"2026-05-02 11:46:31","market_id":"37","name":"第一公有市場","city":"新北市","city_code":"65000","district":"新莊區","district_code":"65000050","address":"新北市新莊區新莊路315號","phone":"(02)29926228","type":"早市","lng":121.4479615,"lat":25.0333275,"geocode_query":"{\"street\": \"315 新莊路\", \"city\": \"新莊區\", \"county\": \"新北市\", \"format\": \"jsonv2\", \"limit\": 1, \"countrycodes\": \"tw\"}","stall_total":301,"produce_stalls":98,"meat_stalls":44,"seafood_stalls":39,"poultry_stalls":31,"grain_stalls":4,"grocery_stalls":43,"flower_stalls":1,"food_stalls":19,"general_merchandise_stalls":5,"other_stalls":1,"vacant_stalls":16,"stall_data_year":2025}},{"type":"Feature","geometry":{"type":"Point","coordinates":[121.6894891,25.1794468]},"properties":{"data_time":"2026-05-02 11:46:37","market_id":"41","name":"萬里公有市場","city":"新北市","city_code":"65000","district":"萬里區","district_code":"65000280","address":"新北市萬里區瑪鋉路261號","phone":"(02)24926381","type":"早市","lng":121.6894891,"lat":25.1794468,"geocode_query":"{\"street\": \"261 瑪鋉路\", \"city\": \"萬里區\", \"county\": \"新北市\", \"format\": \"jsonv2\", \"limit\": 1, \"countrycodes\": \"tw\"}","stall_total":33,"produce_stalls":6,"meat_stalls":6,"seafood_stalls":3,"poultry_stalls":2,"grain_stalls":0,"grocery_stalls":1,"flower_stalls":0,"food_stalls":0,"general_merchandise_stalls":0,"other_stalls":0,"vacant_stalls":15,"stall_data_year":2025}},{"type":"Feature","geometry":{"type":"Point","coordinates":[121.864729,25.0352778]},"properties":{"data_time":"2026-05-02 11:46:39","market_id":"43","name":"雙溪公有市場","city":"新北市","city_code":"65000","district":"雙溪區","district_code":"65000250","address":"新北市雙溪區太平路50號","phone":"(02)24930205","type":"早市","lng":121.864729,"lat":25.0352778,"geocode_query":"{\"street\": \"50 太平路\", \"city\": \"雙溪區\", \"county\": \"新北市\", \"format\": \"jsonv2\", \"limit\": 1, \"countrycodes\": \"tw\"}","stall_total":32,"produce_stalls":2,"meat_stalls":8,"seafood_stalls":0,"poultry_stalls":0,"grain_stalls":1,"grocery_stalls":0,"flower_stalls":0,"food_stalls":18,"general_merchandise_stalls":3,"other_stalls":0,"vacant_stalls":0,"stall_data_year":2025}},{"type":"Feature","geometry":{"type":"Point","coordinates":[121.4715501,25.0834873]},"properties":{"data_time":"2026-05-02 11:46:41","market_id":"44","name":"蘆洲公有市場","city":"新北市","city_code":"65000","district":"蘆洲區","district_code":"65000140","address":"新北市蘆洲區成功路160號","phone":"(02)22817273","type":"美食廣場","lng":121.4715501,"lat":25.0834873,"geocode_query":"{\"street\": \"160 成功路\", \"city\": \"蘆洲區\", \"county\": \"新北市\", \"format\": \"jsonv2\", \"limit\": 1, \"countrycodes\": \"tw\"}","stall_total":21,"produce_stalls":2,"meat_stalls":0,"seafood_stalls":0,"poultry_stalls":3,"grain_stalls":0,"grocery_stalls":0,"flower_stalls":0,"food_stalls":11,"general_merchandise_stalls":0,"other_stalls":0,"vacant_stalls":5,"stall_data_year":2025}},{"type":"Feature","geometry":{"type":"Point","coordinates":[121.4581183,25.0913395]},"properties":{"data_time":"2026-05-02 11:46:42","market_id":"45","name":"永平公有市場","city":"新北市","city_code":"65000","district":"蘆洲區","district_code":"65000140","address":"新北市蘆洲區永平街1號","phone":"(02)22817273","type":"早市","lng":121.4581183,"lat":25.0913395,"geocode_query":"{\"street\": \"1 永平街\", \"city\": \"蘆洲區\", \"county\": \"新北市\", \"format\": \"jsonv2\", \"limit\": 1, \"countrycodes\": \"tw\"}","stall_total":38,"produce_stalls":7,"meat_stalls":3,"seafood_stalls":1,"poultry_stalls":2,"grain_stalls":0,"grocery_stalls":1,"flower_stalls":1,"food_stalls":16,"general_merchandise_stalls":0,"other_stalls":7,"vacant_stalls":0,"stall_data_year":2025}},{"type":"Feature","geometry":{"type":"Point","coordinates":[121.4619,25.0807]},"properties":{"data_time":"2026-05-02 11:46:44","market_id":"46","name":"長安公有市場","city":"新北市","city_code":"65000","district":"蘆洲區","district_code":"65000140","address":"新北市蘆洲區長安街96號","phone":"None","type":"超市","lng":121.4619,"lat":25.0807,"geocode_query":"{\"street\": \"96 長安街\", \"city\": \"蘆洲區\", \"county\": \"新北市\", \"format\": \"jsonv2\", \"limit\": 1, \"countrycodes\": \"tw\"}","stall_total":null,"produce_stalls":null,"meat_stalls":null,"seafood_stalls":null,"poultry_stalls":null,"grain_stalls":null,"grocery_stalls":null,"flower_stalls":null,"food_stalls":null,"general_merchandise_stalls":null,"other_stalls":null,"vacant_stalls":null,"stall_data_year":null}},{"type":"Feature","geometry":{"type":"Point","coordinates":[121.4392136,25.0829188]},"properties":{"data_time":"2026-05-02 11:46:46","market_id":"49","name":"五股公有零售市場","city":"新北市","city_code":"65000","district":"五股區","district_code":"65000150","address":"新北市五股區工商路3號","phone":"None","type":"早、午市","lng":121.4392136,"lat":25.0829188,"geocode_query":"{\"street\": \"3 工商路\", \"city\": \"五股區\", \"county\": \"新北市\", \"format\": \"jsonv2\", \"limit\": 1, \"countrycodes\": \"tw\"}","stall_total":null,"produce_stalls":null,"meat_stalls":null,"seafood_stalls":null,"poultry_stalls":null,"grain_stalls":null,"grocery_stalls":null,"flower_stalls":null,"food_stalls":null,"general_merchandise_stalls":null,"other_stalls":null,"vacant_stalls":null,"stall_data_year":null}}]}