{"type":"FeatureCollection","features":[{"type":"Feature","geometry":{"type":"Point","coordinates":[121.5269056,25.0348929]},"properties":{"data_time":"2026-03-18 10:29:16.357812","market_id":"1","city":"臺北市","district":"中正區","name":"東門市場","type":"公有零售市場","address":"","stall_total":61,"vegetable_stalls":3,"fruit_stalls":2,"meat_stalls":18,"seafood_stalls":10,"poultry_stalls":2,"grain_stalls":0,"flower_stalls":0,"grocery_stalls":13,"general_merchandise_stalls":2,"food_stalls":10,"other_stalls":1,"lng":121.5269056,"lat":25.0348929,"geocode_query":"東門市場, 中正區, Taipei, Taiwan"}},{"type":"Feature","geometry":{"type":"Point","coordinates":[121.5248143,25.0441636]},"properties":{"data_time":"2026-03-18 10:29:16.364326","market_id":"2","city":"臺北市","district":"中正區","name":"華山市場","type":"公有零售市場","address":"","stall_total":35,"vegetable_stalls":1,"fruit_stalls":2,"meat_stalls":2,"seafood_stalls":0,"poultry_stalls":2,"grain_stalls":0,"flower_stalls":1,"grocery_stalls":4,"general_merchandise_stalls":8,"food_stalls":14,"other_stalls":1,"lng":121.5248143,"lat":25.0441636,"geocode_query":"華山市場, 中正區, Taipei, Taiwan"}},{"type":"Feature","geometry":{"type":"Point","coordinates":[121.5321563,25.0452433]},"properties":{"data_time":"2026-03-18 10:29:16.364870","market_id":"3","city":"臺北市","district":"中正區","name":"光華數位新天地(110)","type":"公有零售市場","address":"","stall_total":377,"vegetable_stalls":0,"fruit_stalls":0,"meat_stalls":0,"seafood_stalls":0,"poultry_stalls":0,"grain_stalls":0,"flower_stalls":0,"grocery_stalls":0,"general_merchandise_stalls":377,"food_stalls":0,"other_stalls":0,"lng":121.5321563,"lat":25.0452433,"geocode_query":"光華數位新天地, 中正區, Taipei, Taiwan"}},{"type":"Feature","geometry":{"type":"Point","coordinates":[121.5324515,25.0367352]},"properties":{"data_time":"2026-03-18 10:29:16.365366","market_id":"4","city":"臺北市","district":"中正區","name":"新生市場","type":"公有零售市場","address":"","stall_total":27,"vegetable_stalls":0,"fruit_stalls":2,"meat_stalls":4,"seafood_stalls":0,"poultry_stalls":0,"grain_stalls":0,"flower_stalls":0,"grocery_stalls":1,"general_merchandise_stalls":1,"food_stalls":7,"other_stalls":12,"lng":121.5324515,"lat":25.0367352,"geocode_query":"新生市場, 中正區, Taipei, Taiwan"}},{"type":"Feature","geometry":{"type":"Point","coordinates":[121.5308502,25.0403072]},"properties":{"data_time":"2026-03-18 10:29:16.365853","market_id":"5","city":"臺北市","district":"中正區","name":"幸安市場","type":"公有零售市場","address":"","stall_total":51,"vegetable_stalls":3,"fruit_stalls":0,"meat_stalls":1,"seafood_stalls":0,"poultry_stalls":0,"grain_stalls":0,"flower_stalls":0,"grocery_stalls":10,"general_merchandise_stalls":32,"food_stalls":0,"other_stalls":5,"lng":121.5308502,"lat":25.0403072,"geocode_query":"幸安市場, 中正區, Taipei, Taiwan"}},{"type":"Feature","geometry":{"type":"Point","coordinates":[121.5350587,25.0135307]},"properties":{"data_time":"2026-03-18 10:29:16.366437","market_id":"6","city":"臺北市","district":"中正區","name":"水源市場","type":"公有零售市場","address":"","stall_total":212,"vegetable_stalls":6,"fruit_stalls":27,"meat_stalls":13,"seafood_stalls":11,"poultry_stalls":8,"grain_stalls":1,"flower_stalls":1,"grocery_stalls":21,"general_merchandise_stalls":63,"food_stalls":45,"other_stalls":16,"lng":121.5350587,"lat":25.0135307,"geocode_query":"水源市場, 中正區, Taipei, Taiwan"}},{"type":"Feature","geometry":{"type":"Point","coordinates":[121.5165516,25.0568775]},"properties":{"data_time":"2026-03-18 10:29:16.366925","market_id":"7","city":"臺北市","district":"大同區","name":"雙連市場","type":"公有零售市場","address":"","stall_total":145,"vegetable_stalls":40,"fruit_stalls":1,"meat_stalls":16,"seafood_stalls":17,"poultry_stalls":12,"grain_stalls":0,"flower_stalls":1,"grocery_stalls":12,"general_merchandise_stalls":3,"food_stalls":16,"other_stalls":27,"lng":121.5165516,"lat":25.0568775,"geocode_query":"雙連市場, 大同區, Taipei, Taiwan"}},{"type":"Feature","geometry":{"type":"Point","coordinates":[121.5142501,25.0749798]},"properties":{"data_time":"2026-03-18 10:29:16.367392","market_id":"8","city":"臺北市","district":"大同區","name":"大龍市場(108)","type":"公有零售市場","address":"","stall_total":82,"vegetable_stalls":6,"fruit_stalls":1,"meat_stalls":12,"seafood_stalls":5,"poultry_stalls":2,"grain_stalls":0,"flower_stalls":2,"grocery_stalls":20,"general_merchandise_stalls":17,"food_stalls":9,"other_stalls":8,"lng":121.5142501,"lat":25.0749798,"geocode_query":"大龍市場, 大同區, Taipei, Taiwan"}},{"type":"Feature","geometry":{"type":"Point","coordinates":[121.5105511,25.0548691]},"properties":{"data_time":"2026-03-18 10:29:16.368323","market_id":"10","city":"臺北市","district":"大同區","name":"永樂市場","type":"公有零售市場","address":"","stall_total":212,"vegetable_stalls":0,"fruit_stalls":0,"meat_stalls":0,"seafood_stalls":0,"poultry_stalls":0,"grain_stalls":0,"flower_stalls":0,"grocery_stalls":0,"general_merchandise_stalls":212,"food_stalls":0,"other_stalls":0,"lng":121.5105511,"lat":25.0548691,"geocode_query":"永樂市場, 大同區, Taipei, Taiwan"}},{"type":"Feature","geometry":{"type":"Point","coordinates":[121.5105511,25.0548691]},"properties":{"data_time":"2026-03-18 10:29:16.368773","market_id":"11","city":"臺北市","district":"大同區","name":"永樂市場(1樓)","type":"公有零售市場","address":"","stall_total":182,"vegetable_stalls":0,"fruit_stalls":11,"meat_stalls":7,"seafood_stalls":11,"poultry_stalls":2,"grain_stalls":0,"flower_stalls":0,"grocery_stalls":55,"general_merchandise_stalls":56,"food_stalls":3,"other_stalls":37,"lng":121.5105511,"lat":25.0548691,"geocode_query":"永樂市場, 大同區, Taipei, Taiwan"}},{"type":"Feature","geometry":{"type":"Point","coordinates":[121.5453352,25.0787253]},"properties":{"data_time":"2026-03-18 10:29:16.369228","market_id":"12","city":"臺北市","district":"中山區","name":"大直市場","type":"公有零售市場","address":"","stall_total":82,"vegetable_stalls":25,"fruit_stalls":1,"meat_stalls":11,"seafood_stalls":12,"poultry_stalls":9,"grain_stalls":0,"flower_stalls":0,"grocery_stalls":14,"general_merchandise_stalls":2,"food_stalls":8,"other_stalls":0,"lng":121.5453352,"lat":25.0787253,"geocode_query":"大直市場, 中山區, Taipei, Taiwan"}},{"type":"Feature","geometry":{"type":"Point","coordinates":[121.5436895,25.0523331]},"properties":{"data_time":"2026-03-18 10:29:16.369675","market_id":"13","city":"臺北市","district":"中山區","name":"中山大樓","type":"公有零售市場","address":"","stall_total":75,"vegetable_stalls":1,"fruit_stalls":1,"meat_stalls":0,"seafood_stalls":3,"poultry_stalls":0,"grain_stalls":2,"flower_stalls":0,"grocery_stalls":30,"general_merchandise_stalls":14,"food_stalls":5,"other_stalls":19,"lng":121.5436895,"lat":25.0523331,"geocode_query":"中山大樓, 中山區, Taipei, Taiwan"}},{"type":"Feature","geometry":{"type":"Point","coordinates":[121.5423796,25.0548598]},"properties":{"data_time":"2026-03-18 10:29:16.370576","market_id":"15","city":"臺北市","district":"中山區","name":"長春市場","type":"公有零售市場","address":"","stall_total":116,"vegetable_stalls":10,"fruit_stalls":13,"meat_stalls":18,"seafood_stalls":32,"poultry_stalls":9,"grain_stalls":0,"flower_stalls":1,"grocery_stalls":23,"general_merchandise_stalls":2,"food_stalls":5,"other_stalls":3,"lng":121.5423796,"lat":25.0548598,"geocode_query":"長春市場, 中山區, Taipei, Taiwan"}},{"type":"Feature","geometry":{"type":"Point","coordinates":[121.5345362,25.0534139]},"properties":{"data_time":"2026-03-18 10:29:16.371042","market_id":"16","city":"臺北市","district":"中山區","name":"建國市場","type":"公有零售市場","address":"","stall_total":133,"vegetable_stalls":15,"fruit_stalls":6,"meat_stalls":15,"seafood_stalls":9,"poultry_stalls":8,"grain_stalls":0,"flower_stalls":2,"grocery_stalls":44,"general_merchandise_stalls":25,"food_stalls":7,"other_stalls":2,"lng":121.5345362,"lat":25.0534139,"geocode_query":"建國市場, 中山區, Taipei, Taiwan"}},{"type":"Feature","geometry":{"type":"Point","coordinates":[121.5423309,25.0483814]},"properties":{"data_time":"2026-03-18 10:29:16.371565","market_id":"17","city":"臺北市","district":"中山區","name":"中山市場","type":"公有零售市場","address":"","stall_total":74,"vegetable_stalls":17,"fruit_stalls":0,"meat_stalls":5,"seafood_stalls":7,"poultry_stalls":5,"grain_stalls":1,"flower_stalls":2,"grocery_stalls":20,"general_merchandise_stalls":6,"food_stalls":6,"other_stalls":5,"lng":121.5423309,"lat":25.0483814,"geocode_query":"中山市場, 中山區, Taipei, Taiwan"}},{"type":"Feature","geometry":{"type":"Point","coordinates":[121.536654,25.045422]},"properties":{"data_time":"2026-03-18 10:29:16.372032","market_id":"18","city":"臺北市","district":"中山區","name":"八德市場(110)","type":"公有零售市場","address":"","stall_total":179,"vegetable_stalls":0,"fruit_stalls":20,"meat_stalls":20,"seafood_stalls":14,"poultry_stalls":13,"grain_stalls":0,"flower_stalls":0,"grocery_stalls":0,"general_merchandise_stalls":98,"food_stalls":3,"other_stalls":11,"lng":121.536654,"lat":25.045422,"geocode_query":"八德市場, 中山區, Taipei, Taiwan"}},{"type":"Feature","geometry":{"type":"Point","coordinates":[121.5319804,25.0601729]},"properties":{"data_time":"2026-03-18 10:29:16.372497","market_id":"19","city":"臺北市","district":"中山區","name":"松江市場","type":"公有零售市場","address":"","stall_total":149,"vegetable_stalls":4,"fruit_stalls":0,"meat_stalls":9,"seafood_stalls":14,"poultry_stalls":10,"grain_stalls":1,"flower_stalls":1,"grocery_stalls":30,"general_merchandise_stalls":52,"food_stalls":24,"other_stalls":4,"lng":121.5319804,"lat":25.0601729,"geocode_query":"松江市場, 中山區, Taipei, Taiwan"}},{"type":"Feature","geometry":{"type":"Point","coordinates":[121.55417,25.05454]},"properties":{"data_time":"2026-03-18 10:29:16.372955","market_id":"20","city":"臺北市","district":"松山區","name":"龍城市場","type":"公有零售市場","address":"","stall_total":70,"vegetable_stalls":11,"fruit_stalls":6,"meat_stalls":3,"seafood_stalls":7,"poultry_stalls":3,"grain_stalls":0,"flower_stalls":1,"grocery_stalls":6,"general_merchandise_stalls":11,"food_stalls":11,"other_stalls":11,"lng":121.55417,"lat":25.05454,"geocode_query":"龍城市場, 松山區, Taipei, Taiwan"}},{"type":"Feature","geometry":{"type":"Point","coordinates":[121.5707933,25.0506892]},"properties":{"data_time":"2026-03-18 10:29:16.373446","market_id":"21","city":"臺北市","district":"松山區","name":"南松市場","type":"公有零售市場","address":"","stall_total":87,"vegetable_stalls":3,"fruit_stalls":19,"meat_stalls":14,"seafood_stalls":13,"poultry_stalls":3,"grain_stalls":0,"flower_stalls":0,"grocery_stalls":13,"general_merchandise_stalls":19,"food_stalls":2,"other_stalls":1,"lng":121.5707933,"lat":25.0506892,"geocode_query":"南松市場, 松山區, Taipei, Taiwan"}},{"type":"Feature","geometry":{"type":"Point","coordinates":[121.5454388,25.0485819]},"properties":{"data_time":"2026-03-18 10:29:16.373937","market_id":"22","city":"臺北市","district":"松山區","name":"松山市場","type":"公有零售市場","address":"","stall_total":44,"vegetable_stalls":4,"fruit_stalls":1,"meat_stalls":9,"seafood_stalls":1,"poultry_stalls":0,"grain_stalls":0,"flower_stalls":0,"grocery_stalls":5,"general_merchandise_stalls":3,"food_stalls":21,"other_stalls":0,"lng":121.5454388,"lat":25.0485819,"geocode_query":"松山市場, 松山區, Taipei, Taiwan"}},{"type":"Feature","geometry":{"type":"Point","coordinates":[121.5526141,25.0480098]},"properties":{"data_time":"2026-03-18 10:29:16.374452","market_id":"23","city":"臺北市","district":"松山區","name":"中崙市場(BOT)","type":"公有零售市場","address":"","stall_total":131,"vegetable_stalls":3,"fruit_stalls":27,"meat_stalls":11,"seafood_stalls":4,"poultry_stalls":4,"grain_stalls":0,"flower_stalls":0,"grocery_stalls":12,"general_merchandise_stalls":16,"food_stalls":54,"other_stalls":0,"lng":121.5526141,"lat":25.0480098,"geocode_query":"中崙市場, 松山區, Taipei, Taiwan"}},{"type":"Feature","geometry":{"type":"Point","coordinates":[121.5294164,25.0285357]},"properties":{"data_time":"2026-03-18 10:29:16.374915","market_id":"24","city":"臺北市","district":"大安區","name":"錦安市場","type":"公有零售市場","address":"","stall_total":35,"vegetable_stalls":0,"fruit_stalls":0,"meat_stalls":0,"seafood_stalls":0,"poultry_stalls":0,"grain_stalls":0,"flower_stalls":0,"grocery_stalls":0,"general_merchandise_stalls":32,"food_stalls":1,"other_stalls":2,"lng":121.5294164,"lat":25.0285357,"geocode_query":"錦安市場, 大安區, Taipei, Taiwan"}},{"type":"Feature","geometry":{"type":"Point","coordinates":[121.510955,25.0519328]},"properties":{"data_time":"2026-03-18 10:29:16.375390","market_id":"25","city":"臺北市","district":"大安區","name":"安東市場","type":"公有零售市場","address":"","stall_total":62,"vegetable_stalls":4,"fruit_stalls":5,"meat_stalls":5,"seafood_stalls":3,"poultry_stalls":2,"grain_stalls":0,"flower_stalls":1,"grocery_stalls":8,"general_merchandise_stalls":20,"food_stalls":5,"other_stalls":9,"lng":121.510955,"lat":25.0519328,"geocode_query":"安東市場, 大安區, Taipei, Taiwan"}},{"type":"Feature","geometry":{"type":"Point","coordinates":[121.5232604,25.0323081]},"properties":{"data_time":"2026-03-18 10:29:16.375957","market_id":"26","city":"臺北市","district":"大安區","name":"南門中繼市場","type":"公有零售市場","address":"","stall_total":258,"vegetable_stalls":19,"fruit_stalls":2,"meat_stalls":22,"seafood_stalls":16,"poultry_stalls":8,"grain_stalls":0,"flower_stalls":0,"grocery_stalls":73,"general_merchandise_stalls":50,"food_stalls":16,"other_stalls":52,"lng":121.5232604,"lat":25.0323081,"geocode_query":"南門中繼市場, 大安區, Taipei, Taiwan"}},{"type":"Feature","geometry":{"type":"Point","coordinates":[121.537525,25.0342232]},"properties":{"data_time":"2026-03-18 10:29:16.376441","market_id":"27","city":"臺北市","district":"大安區","name":"信義市場(108)","type":"公有零售市場","address":"","stall_total":68,"vegetable_stalls":0,"fruit_stalls":26,"meat_stalls":13,"seafood_stalls":13,"poultry_stalls":2,"grain_stalls":0,"flower_stalls":0,"grocery_stalls":8,"general_merchandise_stalls":2,"food_stalls":0,"other_stalls":4,"lng":121.537525,"lat":25.0342232,"geocode_query":"信義市場, 大安區, Taipei, Taiwan"}},{"type":"Feature","geometry":{"type":"Point","coordinates":[121.5481976,25.0266544]},"properties":{"data_time":"2026-03-18 10:29:16.376899","market_id":"28","city":"臺北市","district":"大安區","name":"成功中繼市場","type":"公有零售市場","address":"","stall_total":196,"vegetable_stalls":27,"fruit_stalls":22,"meat_stalls":14,"seafood_stalls":13,"poultry_stalls":4,"grain_stalls":0,"flower_stalls":0,"grocery_stalls":41,"general_merchandise_stalls":49,"food_stalls":25,"other_stalls":1,"lng":121.5481976,"lat":25.0266544,"geocode_query":"成功中繼市場, 大安區, Taipei, Taiwan"}},{"type":"Feature","geometry":{"type":"Point","coordinates":[121.5012694,25.0394632]},"properties":{"data_time":"2026-03-18 10:29:16.377361","market_id":"29","city":"臺北市","district":"萬華區","name":"直興市場","type":"公有零售市場","address":"","stall_total":201,"vegetable_stalls":42,"fruit_stalls":5,"meat_stalls":21,"seafood_stalls":37,"poultry_stalls":20,"grain_stalls":2,"flower_stalls":0,"grocery_stalls":45,"general_merchandise_stalls":14,"food_stalls":5,"other_stalls":10,"lng":121.5012694,"lat":25.0394632,"geocode_query":"直興市場, 萬華區, Taipei, Taiwan"}},{"type":"Feature","geometry":{"type":"Point","coordinates":[121.5024258,25.0359951]},"properties":{"data_time":"2026-03-18 10:29:16.377846","market_id":"30","city":"臺北市","district":"萬華區","name":"新富市場","type":"公有零售市場","address":"","stall_total":28,"vegetable_stalls":2,"fruit_stalls":1,"meat_stalls":0,"seafood_stalls":3,"poultry_stalls":5,"grain_stalls":1,"flower_stalls":2,"grocery_stalls":9,"general_merchandise_stalls":3,"food_stalls":1,"other_stalls":1,"lng":121.5024258,"lat":25.0359951,"geocode_query":"新富市場, 萬華區, Taipei, Taiwan"}},{"type":"Feature","geometry":{"type":"Point","coordinates":[121.4998856,25.0347024]},"properties":{"data_time":"2026-03-18 10:29:16.378809","market_id":"32","city":"臺北市","district":"萬華區","name":"龍山商場","type":"公有零售市場","address":"","stall_total":93,"vegetable_stalls":0,"fruit_stalls":0,"meat_stalls":0,"seafood_stalls":0,"poultry_stalls":0,"grain_stalls":0,"flower_stalls":0,"grocery_stalls":0,"general_merchandise_stalls":72,"food_stalls":21,"other_stalls":0,"lng":121.4998856,"lat":25.0347024,"geocode_query":"龍山商場, 萬華區, Taipei, Taiwan"}},{"type":"Feature","geometry":{"type":"Point","coordinates":[121.5221888,25.0260418]},"properties":{"data_time":"2026-03-18 10:29:16.379775","market_id":"34","city":"臺北市","district":"萬華區","name":"環南中繼市場","type":"公有零售市場","address":"","stall_total":0,"vegetable_stalls":364,"fruit_stalls":5,"meat_stalls":160,"seafood_stalls":136,"poultry_stalls":73,"grain_stalls":0,"flower_stalls":0,"grocery_stalls":124,"general_merchandise_stalls":0,"food_stalls":25,"other_stalls":173,"lng":121.5221888,"lat":25.0260418,"geocode_query":"環南中繼市場, 臺北市"}},{"type":"Feature","geometry":{"type":"Point","coordinates":[121.5072903,25.0484517]},"properties":{"data_time":"2026-03-18 10:29:16.380559","market_id":"35","city":"臺北市","district":"萬華區","name":"西寧市場","type":"公有零售市場","address":"","stall_total":355,"vegetable_stalls":43,"fruit_stalls":9,"meat_stalls":47,"seafood_stalls":74,"poultry_stalls":19,"grain_stalls":1,"flower_stalls":0,"grocery_stalls":43,"general_merchandise_stalls":87,"food_stalls":6,"other_stalls":26,"lng":121.5072903,"lat":25.0484517,"geocode_query":"西寧市場, 萬華區, Taipei, Taiwan"}},{"type":"Feature","geometry":{"type":"Point","coordinates":[121.5057409,25.0451994]},"properties":{"data_time":"2026-03-18 10:29:16.381088","market_id":"36","city":"臺北市","district":"萬華區","name":"西門商場(店鋪)","type":"公有零售市場","address":"","stall_total":57,"vegetable_stalls":0,"fruit_stalls":0,"meat_stalls":0,"seafood_stalls":0,"poultry_stalls":0,"grain_stalls":0,"flower_stalls":2,"grocery_stalls":0,"general_merchandise_stalls":19,"food_stalls":33,"other_stalls":3,"lng":121.5057409,"lat":25.0451994,"geocode_query":"西門商場, 萬華區, Taipei, Taiwan"}},{"type":"Feature","geometry":{"type":"Point","coordinates":[121.5774442,25.0430832]},"properties":{"data_time":"2026-03-18 10:29:16.381556","market_id":"37","city":"臺北市","district":"信義區","name":"永春市場(111)","type":"公有零售市場","address":"","stall_total":79,"vegetable_stalls":1,"fruit_stalls":7,"meat_stalls":20,"seafood_stalls":12,"poultry_stalls":6,"grain_stalls":2,"flower_stalls":1,"grocery_stalls":18,"general_merchandise_stalls":7,"food_stalls":0,"other_stalls":5,"lng":121.5774442,"lat":25.0430832,"geocode_query":"永春市場, 信義區, Taipei, Taiwan"}},{"type":"Feature","geometry":{"type":"Point","coordinates":[121.5605048,25.0362762]},"properties":{"data_time":"2026-03-18 10:29:16.382022","market_id":"38","city":"臺北市","district":"信義區","name":"光復市場","type":"公有零售市場","address":"","stall_total":56,"vegetable_stalls":0,"fruit_stalls":15,"meat_stalls":9,"seafood_stalls":3,"poultry_stalls":3,"grain_stalls":0,"flower_stalls":0,"grocery_stalls":14,"general_merchandise_stalls":10,"food_stalls":1,"other_stalls":1,"lng":121.5605048,"lat":25.0362762,"geocode_query":"光復市場, 信義區, Taipei, Taiwan"}},{"type":"Feature","geometry":{"type":"Point","coordinates":[121.5753045,25.0447598]},"properties":{"data_time":"2026-03-18 10:29:16.382499","market_id":"39","city":"臺北市","district":"信義區","name":"永吉市場","type":"公有零售市場","address":"","stall_total":51,"vegetable_stalls":3,"fruit_stalls":13,"meat_stalls":13,"seafood_stalls":3,"poultry_stalls":9,"grain_stalls":0,"flower_stalls":0,"grocery_stalls":10,"general_merchandise_stalls":0,"food_stalls":0,"other_stalls":0,"lng":121.5753045,"lat":25.0447598,"geocode_query":"永吉市場, 信義區, Taipei, Taiwan"}},{"type":"Feature","geometry":{"type":"Point","coordinates":[121.5242986,25.088389]},"properties":{"data_time":"2026-03-18 10:29:16.382956","market_id":"40","city":"臺北市","district":"士林區","name":"士林市場(109)","type":"公有零售市場","address":"","stall_total":512,"vegetable_stalls":31,"fruit_stalls":49,"meat_stalls":14,"seafood_stalls":21,"poultry_stalls":10,"grain_stalls":0,"flower_stalls":0,"grocery_stalls":102,"general_merchandise_stalls":186,"food_stalls":99,"other_stalls":0,"lng":121.5242986,"lat":25.088389,"geocode_query":"士林市場, 士林區, Taipei, Taiwan"}},{"type":"Feature","geometry":{"type":"Point","coordinates":[121.5294675,25.1119051]},"properties":{"data_time":"2026-03-18 10:29:16.383415","market_id":"41","city":"臺北市","district":"士林區","name":"士東市場","type":"公有零售市場","address":"","stall_total":255,"vegetable_stalls":18,"fruit_stalls":11,"meat_stalls":17,"seafood_stalls":16,"poultry_stalls":7,"grain_stalls":0,"flower_stalls":5,"grocery_stalls":50,"general_merchandise_stalls":78,"food_stalls":50,"other_stalls":3,"lng":121.5294675,"lat":25.1119051,"geocode_query":"士東市場, 士林區, Taipei, Taiwan"}},{"type":"Feature","geometry":{"type":"Point","coordinates":[121.4998653,25.1413251]},"properties":{"data_time":"2026-03-18 10:29:16.383871","market_id":"42","city":"臺北市","district":"北投區","name":"北投中繼市場","type":"公有零售市場","address":"","stall_total":481,"vegetable_stalls":48,"fruit_stalls":36,"meat_stalls":18,"seafood_stalls":28,"poultry_stalls":11,"grain_stalls":0,"flower_stalls":0,"grocery_stalls":58,"general_merchandise_stalls":115,"food_stalls":47,"other_stalls":120,"lng":121.4998653,"lat":25.1413251,"geocode_query":"北投中繼市場, 北投區, Taipei, Taiwan"}},{"type":"Feature","geometry":{"type":"Point","coordinates":[121.5668479,25.082564]},"properties":{"data_time":"2026-03-18 10:29:16.384317","market_id":"43","city":"臺北市","district":"內湖區","name":"西湖市場","type":"公有零售市場","address":"","stall_total":121,"vegetable_stalls":0,"fruit_stalls":24,"meat_stalls":10,"seafood_stalls":11,"poultry_stalls":3,"grain_stalls":0,"flower_stalls":1,"grocery_stalls":14,"general_merchandise_stalls":15,"food_stalls":42,"other_stalls":1,"lng":121.5668479,"lat":25.082564,"geocode_query":"西湖市場, 內湖區, Taipei, Taiwan"}},{"type":"Feature","geometry":{"type":"Point","coordinates":[121.6145816,25.045326]},"properties":{"data_time":"2026-03-18 10:29:16.384771","market_id":"44","city":"臺北市","district":"南港區","name":"中研市場","type":"公有零售市場","address":"","stall_total":58,"vegetable_stalls":0,"fruit_stalls":19,"meat_stalls":7,"seafood_stalls":5,"poultry_stalls":3,"grain_stalls":0,"flower_stalls":0,"grocery_stalls":7,"general_merchandise_stalls":10,"food_stalls":5,"other_stalls":2,"lng":121.6145816,"lat":25.045326,"geocode_query":"中研市場, 南港區, Taipei, Taiwan"}},{"type":"Feature","geometry":{"type":"Point","coordinates":[121.583941,25.047999]},"properties":{"data_time":"2026-03-18 10:29:16.385230","market_id":"45","city":"臺北市","district":"南港區","name":"成德市場","type":"公有零售市場","address":"","stall_total":151,"vegetable_stalls":1,"fruit_stalls":47,"meat_stalls":13,"seafood_stalls":10,"poultry_stalls":7,"grain_stalls":0,"flower_stalls":2,"grocery_stalls":24,"general_merchandise_stalls":25,"food_stalls":20,"other_stalls":2,"lng":121.583941,"lat":25.047999,"geocode_query":"臺北市南港區成德市場"}},{"type":"Feature","geometry":{"type":"Point","coordinates":[121.5416987,24.9906941]},"properties":{"data_time":"2026-03-18 10:29:16.385675","market_id":"46","city":"臺北市","district":"文山區","name":"景美市場","type":"公有零售市場","address":"","stall_total":1,"vegetable_stalls":0,"fruit_stalls":0,"meat_stalls":0,"seafood_stalls":0,"poultry_stalls":0,"grain_stalls":0,"flower_stalls":0,"grocery_stalls":0,"general_merchandise_stalls":0,"food_stalls":0,"other_stalls":1,"lng":121.5416987,"lat":24.9906941,"geocode_query":"景美市場, 文山區, Taipei, Taiwan"}},{"type":"Feature","geometry":{"type":"Point","coordinates":[121.5691717,24.988769]},"properties":{"data_time":"2026-03-18 10:29:16.386136","market_id":"47","city":"臺北市","district":"文山區","name":"木柵市場","type":"公有零售市場","address":"","stall_total":169,"vegetable_stalls":0,"fruit_stalls":55,"meat_stalls":35,"seafood_stalls":25,"poultry_stalls":9,"grain_stalls":0,"flower_stalls":3,"grocery_stalls":25,"general_merchandise_stalls":12,"food_stalls":5,"other_stalls":0,"lng":121.5691717,"lat":24.988769,"geocode_query":"木柵市場, 文山區, Taipei, Taiwan"}},{"type":"Feature","geometry":{"type":"Point","coordinates":[121.5478618,24.9996669]},"properties":{"data_time":"2026-03-18 10:29:16.386589","market_id":"48","city":"臺北市","district":"文山區","name":"興隆市場","type":"公有零售市場","address":"","stall_total":82,"vegetable_stalls":0,"fruit_stalls":16,"meat_stalls":9,"seafood_stalls":9,"poultry_stalls":4,"grain_stalls":0,"flower_stalls":2,"grocery_stalls":21,"general_merchandise_stalls":9,"food_stalls":4,"other_stalls":8,"lng":121.5478618,"lat":24.9996669,"geocode_query":"興隆市場, 文山區, Taipei, Taiwan"}},{"type":"Feature","geometry":{"type":"Point","coordinates":[121.5575402,24.981407]},"properties":{"data_time":"2026-03-18 10:29:16.387054","market_id":"49","city":"臺北市","district":"文山區","name":"木新市場","type":"公有零售市場","address":"","stall_total":122,"vegetable_stalls":38,"fruit_stalls":5,"meat_stalls":12,"seafood_stalls":13,"poultry_stalls":7,"grain_stalls":0,"flower_stalls":0,"grocery_stalls":29,"general_merchandise_stalls":11,"food_stalls":2,"other_stalls":5,"lng":121.5575402,"lat":24.981407,"geocode_query":"木新市場, 文山區, Taipei, Taiwan"}}]}