{"type":"FeatureCollection","features":[{"type":"Feature","geometry":{"type":"Point","coordinates":[121.5777021587933,25.124257802303863]},"properties":{"data_time":"2025-07-09 16:24:15.966695","source_row_no":"1","name":"金洸園圃行","operator":"何奕廷、何灃洸","city":"臺北市","district":"士林區","address":"臺北市士林區至善路三段181巷5弄6號","certification_no":"1-010-100499","certification_status":"有機","area_ha":0.6826,"food_education":"","beekeeping":"","chicken_raising":"","note":"","source_type":"有機農場","source_dataset":"臺北市有機農場","source_url":"https://data.taipei/dataset/detail?id=32aea2da-14a7-47b6-a687-57e29c1ad4a7","geocoding_address":"臺北市士林區至善路三段181巷5弄6號","location_method":"臺北市門牌位置數值資料","lng":121.5777021587933,"lat":25.124257802303863}},{"type":"Feature","geometry":{"type":"Point","coordinates":[121.5285029,25.1540595]},"properties":{"data_time":"2025-07-09 16:24:15.977463","source_row_no":"2","name":"快樂有機農場","operator":"吳慧淑","city":"臺北市","district":"北投區","address":"臺北市北投區泉源里12鄰東昇路38-2號","certification_no":"1-001-111090","certification_status":"有機","area_ha":0.446,"food_education":"V","beekeeping":"V","chicken_raising":"V","note":"","source_type":"有機農場","source_dataset":"臺北市有機農場","source_url":"https://data.taipei/dataset/detail?id=32aea2da-14a7-47b6-a687-57e29c1ad4a7","geocoding_address":"臺北市北投區泉源里12鄰東昇路38-2號","location_method":"OpenStreetMap道路/地名定位","lng":121.5285029,"lat":25.1540595}},{"type":"Feature","geometry":{"type":"Point","coordinates":[121.61570084522052,25.051943180000986]},"properties":{"data_time":"2025-07-09 16:24:15.979018","source_row_no":"3","name":"麗山農園","operator":"林書慧","city":"臺北市","district":"南港區","address":"臺北市南港區中南街123巷8號","certification_no":"1-001-111097","certification_status":"有機","area_ha":0.9152,"food_education":"V","beekeeping":"V","chicken_raising":"V","note":"","source_type":"有機農場","source_dataset":"臺北市有機農場","source_url":"https://data.taipei/dataset/detail?id=32aea2da-14a7-47b6-a687-57e29c1ad4a7","geocoding_address":"臺北市南港區中南街123巷8號","location_method":"臺北市門牌位置數值資料","lng":121.61570084522052,"lat":25.051943180000986}},{"type":"Feature","geometry":{"type":"Point","coordinates":[121.616632,25.0431526]},"properties":{"data_time":"2025-07-09 16:24:15.980392","source_row_no":"4","name":"椿萱農場","operator":"林明淑、高中和","city":"臺北市","district":"南港區","address":"臺北市南港區研究院路2段184-7號5樓","certification_no":"1-001-111101","certification_status":"有機","area_ha":2.0579,"food_education":"V","beekeeping":"","chicken_raising":"","note":"","source_type":"有機農場","source_dataset":"臺北市有機農場","source_url":"https://data.taipei/dataset/detail?id=32aea2da-14a7-47b6-a687-57e29c1ad4a7","geocoding_address":"臺北市南港區研究院路2段184-7號5樓","location_method":"OpenStreetMap道路/地名定位","lng":121.616632,"lat":25.0431526}},{"type":"Feature","geometry":{"type":"Point","coordinates":[121.58147796025239,24.969463743908296]},"properties":{"data_time":"2025-07-09 16:24:15.981785","source_row_no":"5","name":"樟湖自然農園","operator":"張國川","city":"臺北市","district":"文山區","address":"臺北市文山區指南路三段34巷29-1號","certification_no":"1-001-111102","certification_status":"有機","area_ha":0.1363,"food_education":"","beekeeping":"","chicken_raising":"","note":"","source_type":"有機農場","source_dataset":"臺北市有機農場","source_url":"https://data.taipei/dataset/detail?id=32aea2da-14a7-47b6-a687-57e29c1ad4a7","geocoding_address":"臺北市文山區指南路三段34巷29-1號","location_method":"臺北市門牌位置數值資料","lng":121.58147796025239,"lat":24.969463743908296}},{"type":"Feature","geometry":{"type":"Point","coordinates":[121.6115693,24.9706576]},"properties":{"data_time":"2025-07-09 16:24:15.983385","source_row_no":"6","name":"子善茶園","operator":"張銘豐","city":"臺北市","district":"文山區","address":"臺北市文山區指南路三段40巷4-1號","certification_no":"1-001-111103","certification_status":"有機","area_ha":0.2112,"food_education":"","beekeeping":"","chicken_raising":"","note":"","source_type":"有機農場","source_dataset":"臺北市有機農場","source_url":"https://data.taipei/dataset/detail?id=32aea2da-14a7-47b6-a687-57e29c1ad4a7","geocoding_address":"臺北市文山區指南路三段40巷4-1號","location_method":"OpenStreetMap道路/地名定位","lng":121.6115693,"lat":24.9706576}},{"type":"Feature","geometry":{"type":"Point","coordinates":[121.55608390123516,25.10221831676983]},"properties":{"data_time":"2025-07-09 16:24:15.984757","source_row_no":"7","name":"士林安心鮮筍農園","operator":"張盛玄","city":"臺北市","district":"士林區","address":"臺北市士林區劍南路100巷31號","certification_no":"1-001-111105","certification_status":"有機","area_ha":0.6053,"food_education":"","beekeeping":"","chicken_raising":"","note":"","source_type":"有機農場","source_dataset":"臺北市有機農場","source_url":"https://data.taipei/dataset/detail?id=32aea2da-14a7-47b6-a687-57e29c1ad4a7","geocoding_address":"臺北市士林區劍南路100巷31號","location_method":"臺北市門牌位置數值資料","lng":121.55608390123516,"lat":25.10221831676983}},{"type":"Feature","geometry":{"type":"Point","coordinates":[121.59716901678725,24.967296752827394]},"properties":{"data_time":"2025-07-09 16:24:15.986062","source_row_no":"8","name":"寒舍茶坊","operator":"張福欽","city":"臺北市","district":"文山區","address":"臺北市文山區指南路三段40巷6號","certification_no":"1-001-111112","certification_status":"有機","area_ha":0.3107,"food_education":"Ｖ","beekeeping":"","chicken_raising":"","note":"","source_type":"有機農場","source_dataset":"臺北市有機農場","source_url":"https://data.taipei/dataset/detail?id=32aea2da-14a7-47b6-a687-57e29c1ad4a7","geocoding_address":"臺北市文山區指南路三段40巷6號","location_method":"臺北市門牌位置數值資料","lng":121.59716901678725,"lat":24.967296752827394}},{"type":"Feature","geometry":{"type":"Point","coordinates":[121.6379799,25.0334264]},"properties":{"data_time":"2025-07-09 16:24:15.987335","source_row_no":"9","name":"添進有機茶園","operator":"陳添進","city":"臺北市","district":"南港區","address":"臺北市南港區舊莊街二段332號","certification_no":"1-001-111127","certification_status":"有機","area_ha":0.5431,"food_education":"V","beekeeping":"V","chicken_raising":"","note":"(2025/10/29結束)","source_type":"有機農場","source_dataset":"臺北市有機農場","source_url":"https://data.taipei/dataset/detail?id=32aea2da-14a7-47b6-a687-57e29c1ad4a7","geocoding_address":"臺北市南港區舊莊街二段332號","location_method":"OpenStreetMap道路/地名定位","lng":121.6379799,"lat":25.0334264}},{"type":"Feature","geometry":{"type":"Point","coordinates":[121.54635438857697,25.111384327271562]},"properties":{"data_time":"2025-07-09 16:24:15.988671","source_row_no":"10","name":"芝山有機農場","operator":"謝闕素蘭","city":"臺北市","district":"士林區","address":"臺北市士林區德行東路338巷32-1號","certification_no":"1-001-111132","certification_status":"有機","area_ha":2.1053,"food_education":"V","beekeeping":"V","chicken_raising":"V","note":"","source_type":"有機農場","source_dataset":"臺北市有機農場","source_url":"https://data.taipei/dataset/detail?id=32aea2da-14a7-47b6-a687-57e29c1ad4a7","geocoding_address":"臺北市士林區德行東路338巷32-1號","location_method":"臺北市門牌位置數值資料","lng":121.54635438857697,"lat":25.111384327271562}},{"type":"Feature","geometry":{"type":"Point","coordinates":[121.66192474005524,25.02470295097131]},"properties":{"data_time":"2025-07-09 16:24:15.989979","source_row_no":"11","name":"欽明有機茶園","operator":"余欽明、余文騰","city":"臺北市","district":"南港區","address":"臺北市南港區舊莊街二段318號之2","certification_no":"1-001-111137","certification_status":"有機","area_ha":1.1934,"food_education":"V","beekeeping":"V","chicken_raising":"","note":"","source_type":"有機農場","source_dataset":"臺北市有機農場","source_url":"https://data.taipei/dataset/detail?id=32aea2da-14a7-47b6-a687-57e29c1ad4a7","geocoding_address":"臺北市南港區舊莊街二段318號之2","location_method":"臺北市門牌位置數值資料","lng":121.66192474005524,"lat":25.02470295097131}},{"type":"Feature","geometry":{"type":"Point","coordinates":[121.57833435136241,24.969761312408316]},"properties":{"data_time":"2025-07-09 16:24:15.991294","source_row_no":"12","name":"采耕製茶","operator":"張水柳","city":"臺北市","district":"文山區","address":"臺北市文山區老泉街45巷36號","certification_no":"1-009-110268","certification_status":"有機","area_ha":0.8229,"food_education":"V","beekeeping":"","chicken_raising":"","note":"","source_type":"有機農場","source_dataset":"臺北市有機農場","source_url":"https://data.taipei/dataset/detail?id=32aea2da-14a7-47b6-a687-57e29c1ad4a7","geocoding_address":"臺北市文山區老泉街45巷36號","location_method":"臺北市門牌位置數值資料","lng":121.57833435136241,"lat":24.969761312408316}},{"type":"Feature","geometry":{"type":"Point","coordinates":[121.4734815,25.1314587]},"properties":{"data_time":"2025-07-09 16:24:15.992687","source_row_no":"13","name":"峰村有機農場","operator":"任慧真","city":"臺北市","district":"北投區","address":"臺北市北投區一德里4鄰中央北路4段138巷2號","certification_no":"1-009-110267","certification_status":"有機","area_ha":0.3769,"food_education":"V","beekeeping":"V","chicken_raising":"V","note":"(2025/07/31結束)","source_type":"有機農場","source_dataset":"臺北市有機農場","source_url":"https://data.taipei/dataset/detail?id=32aea2da-14a7-47b6-a687-57e29c1ad4a7","geocoding_address":"臺北市北投區一德里4鄰中央北路4段138巷2號","location_method":"OpenStreetMap道路/地名定位","lng":121.4734815,"lat":25.1314587}},{"type":"Feature","geometry":{"type":"Point","coordinates":[121.58830463747519,25.13899901299855]},"properties":{"data_time":"2025-07-09 16:24:15.994105","source_row_no":"14","name":"頂山山頂大自然學校","operator":"郭村松、郭建伸","city":"臺北市","district":"士林區","address":"臺北市士林區至善路三段370巷76號","certification_no":"1-009-110157","certification_status":"有機","area_ha":0.6076,"food_education":"V","beekeeping":"","chicken_raising":"","note":"","source_type":"有機農場","source_dataset":"臺北市有機農場","source_url":"https://data.taipei/dataset/detail?id=32aea2da-14a7-47b6-a687-57e29c1ad4a7","geocoding_address":"臺北市士林區至善路三段370巷76號","location_method":"臺北市門牌位置數值資料","lng":121.58830463747519,"lat":25.13899901299855}},{"type":"Feature","geometry":{"type":"Point","coordinates":[121.5882361036045,25.108028473531842]},"properties":{"data_time":"2025-07-09 16:24:15.995652","source_row_no":"15","name":"白石森活有機農場／白石森活休閒農場","operator":"劉昭賢、黃明瑩","city":"臺北市","district":"內湖區","address":"臺北市內湖區碧山路50號","certification_no":"1-009-110262","certification_status":"有機","area_ha":0.4893,"food_education":"V","beekeeping":"Ｖ","chicken_raising":"","note":"","source_type":"有機農場","source_dataset":"臺北市有機農場","source_url":"https://data.taipei/dataset/detail?id=32aea2da-14a7-47b6-a687-57e29c1ad4a7","geocoding_address":"臺北市內湖區碧山路50號","location_method":"臺北市門牌位置數值資料","lng":121.5882361036045,"lat":25.108028473531842}},{"type":"Feature","geometry":{"type":"Point","coordinates":[121.5883654795773,25.100688535601]},"properties":{"data_time":"2025-07-09 16:24:15.997306","source_row_no":"16","name":"野草花果有機農場","operator":"林清立","city":"臺北市","district":"內湖區","address":"臺北市內湖區碧山路38號","certification_no":"1-009-110040","certification_status":"有機","area_ha":0.562,"food_education":"V","beekeeping":"V","chicken_raising":"","note":"","source_type":"有機農場","source_dataset":"臺北市有機農場","source_url":"https://data.taipei/dataset/detail?id=32aea2da-14a7-47b6-a687-57e29c1ad4a7","geocoding_address":"臺北市內湖區碧山路38號","location_method":"臺北市門牌位置數值資料","lng":121.5883654795773,"lat":25.100688535601}},{"type":"Feature","geometry":{"type":"Point","coordinates":[121.5848315,25.0890857]},"properties":{"data_time":"2025-07-09 16:24:15.998856","source_row_no":"17","name":"慶舜有機農場","operator":"林慶賀、林玉雲","city":"臺北市","district":"內湖區","address":"臺北市內湖區內湖路3段143巷2號1樓","certification_no":"1-009-110198","certification_status":"有機","area_ha":0.3146,"food_education":"","beekeeping":"V","chicken_raising":"","note":"","source_type":"有機農場","source_dataset":"臺北市有機農場","source_url":"https://data.taipei/dataset/detail?id=32aea2da-14a7-47b6-a687-57e29c1ad4a7","geocoding_address":"臺北市內湖區內湖路3段143巷2號1樓","location_method":"OpenStreetMap道路/地名定位","lng":121.5848315,"lat":25.0890857}},{"type":"Feature","geometry":{"type":"Point","coordinates":[121.60718910956977,25.104404811260306]},"properties":{"data_time":"2025-07-09 16:24:16.000234","source_row_no":"18","name":"向日有機農場","operator":"許有勝","city":"臺北市","district":"內湖區","address":"臺北市內湖區大湖街143號","certification_no":"1-009-110199","certification_status":"有機","area_ha":0.3445,"food_education":"","beekeeping":"V","chicken_raising":"","note":"","source_type":"有機農場","source_dataset":"臺北市有機農場","source_url":"https://data.taipei/dataset/detail?id=32aea2da-14a7-47b6-a687-57e29c1ad4a7","geocoding_address":"臺北市內湖區大湖街143號","location_method":"臺北市門牌位置數值資料","lng":121.60718910956977,"lat":25.104404811260306}},{"type":"Feature","geometry":{"type":"Point","coordinates":[121.57159409538276,25.12174044044372]},"properties":{"data_time":"2025-07-09 16:24:16.002288","source_row_no":"19","name":"石定自然農園","operator":"張志仁","city":"臺北市","district":"士林區","address":"平菁街142號","certification_no":"1-009-110221","certification_status":"有機","area_ha":0.5281,"food_education":"V","beekeeping":"V","chicken_raising":"","note":"","source_type":"有機農場","source_dataset":"臺北市有機農場","source_url":"https://data.taipei/dataset/detail?id=32aea2da-14a7-47b6-a687-57e29c1ad4a7","geocoding_address":"臺北市士林區平菁街142號","location_method":"臺北市門牌位置數值資料","lng":121.57159409538276,"lat":25.12174044044372}},{"type":"Feature","geometry":{"type":"Point","coordinates":[121.59057815625825,25.100743713140485]},"properties":{"data_time":"2025-07-09 16:24:16.003709","source_row_no":"20","name":"菩提園有機農場","operator":"林金郎","city":"臺北市","district":"內湖區","address":"碧山路43號附近","certification_no":"1-009-110160","certification_status":"有機","area_ha":0.4059,"food_education":"V","beekeeping":"","chicken_raising":"","note":"(2025/5/25結束)","source_type":"有機農場","source_dataset":"臺北市有機農場","source_url":"https://data.taipei/dataset/detail?id=32aea2da-14a7-47b6-a687-57e29c1ad4a7","geocoding_address":"臺北市內湖區碧山路43號附近","location_method":"臺北市門牌位置數值資料","lng":121.59057815625825,"lat":25.100743713140485}},{"type":"Feature","geometry":{"type":"Point","coordinates":[121.4828379,25.1371505]},"properties":{"data_time":"2025-07-09 16:24:16.005179","source_row_no":"21","name":"元極有機蔬?耕學農場","operator":"薛蘭瑛","city":"臺北市","district":"北投區","address":"臺北市北投區中央北路三段40巷(桃源國小後山)","certification_no":"1-009-110162","certification_status":"有機","area_ha":1.2612,"food_education":"V","beekeeping":"","chicken_raising":"","note":"(2025/6/22結束)","source_type":"有機農場","source_dataset":"臺北市有機農場","source_url":"https://data.taipei/dataset/detail?id=32aea2da-14a7-47b6-a687-57e29c1ad4a7","geocoding_address":"臺北市北投區中央北路三段40巷(桃源國小後山)","location_method":"OpenStreetMap道路/地名定位","lng":121.4828379,"lat":25.1371505}},{"type":"Feature","geometry":{"type":"Point","coordinates":[121.5703029,25.1146916]},"properties":{"data_time":"2025-07-09 16:24:16.006643","source_row_no":"22","name":"清涼地有機市民農場","operator":"廖錦娟","city":"臺北市","district":"士林區","address":"臺北市士林區至善路3段371巷20弄8號","certification_no":"1-009-110247","certification_status":"有機","area_ha":0.3686,"food_education":"V","beekeeping":"","chicken_raising":"","note":"","source_type":"有機農場","source_dataset":"臺北市有機農場","source_url":"https://data.taipei/dataset/detail?id=32aea2da-14a7-47b6-a687-57e29c1ad4a7","geocoding_address":"臺北市士林區至善路3段371巷20弄8號","location_method":"OpenStreetMap道路/地名定位","lng":121.5703029,"lat":25.1146916}},{"type":"Feature","geometry":{"type":"Point","coordinates":[121.59153550410126,25.101316024048362]},"properties":{"data_time":"2025-07-09 16:24:16.008349","source_row_no":"23","name":"白石湖農園","operator":"梁欽豪","city":"臺北市","district":"內湖區","address":"臺北市內湖區碧山路43-6號","certification_no":"1-009-110283","certification_status":"有機","area_ha":0.4657,"food_education":"","beekeeping":"","chicken_raising":"","note":"","source_type":"有機農場","source_dataset":"臺北市有機農場","source_url":"https://data.taipei/dataset/detail?id=32aea2da-14a7-47b6-a687-57e29c1ad4a7","geocoding_address":"臺北市內湖區碧山路43-6號","location_method":"臺北市門牌位置數值資料","lng":121.59153550410126,"lat":25.101316024048362}},{"type":"Feature","geometry":{"type":"Point","coordinates":[121.60888686751002,25.103338299995116]},"properties":{"data_time":"2025-07-09 16:24:16.009998","source_row_no":"24","name":"清香農場","operator":"許三奇","city":"臺北市","district":"內湖區","address":"臺北市內湖區大湖街206號","certification_no":"1-009-110263","certification_status":"有機","area_ha":0.2,"food_education":"V","beekeeping":"","chicken_raising":"","note":"","source_type":"有機農場","source_dataset":"臺北市有機農場","source_url":"https://data.taipei/dataset/detail?id=32aea2da-14a7-47b6-a687-57e29c1ad4a7","geocoding_address":"臺北市內湖區大湖街206號","location_method":"臺北市門牌位置數值資料","lng":121.60888686751002,"lat":25.103338299995116}},{"type":"Feature","geometry":{"type":"Point","coordinates":[121.59057815625825,25.100743713140485]},"properties":{"data_time":"2025-07-09 16:24:16.011633","source_row_no":"25","name":"農驛棧農場","operator":"林翠娥","city":"臺北市","district":"內湖區","address":"臺北市內湖區碧山路43號","certification_no":"1-005-010137","certification_status":"有機","area_ha":0.1631,"food_education":"V","beekeeping":"Ｖ","chicken_raising":"","note":"","source_type":"有機農場","source_dataset":"臺北市有機農場","source_url":"https://data.taipei/dataset/detail?id=32aea2da-14a7-47b6-a687-57e29c1ad4a7","geocoding_address":"臺北市內湖區碧山路43號","location_method":"臺北市門牌位置數值資料","lng":121.59057815625825,"lat":25.100743713140485}},{"type":"Feature","geometry":{"type":"Point","coordinates":[121.5737752,25.1220723]},"properties":{"data_time":"2025-07-09 16:24:16.013078","source_row_no":"26","name":"草山農場","operator":"林美月","city":"臺北市","district":"士林區","address":"臺北市士林區平菁街93巷14號","certification_no":"1-008-200602","certification_status":"有機","area_ha":0.0144,"food_education":"","beekeeping":"","chicken_raising":"","note":"","source_type":"有機農場","source_dataset":"臺北市有機農場","source_url":"https://data.taipei/dataset/detail?id=32aea2da-14a7-47b6-a687-57e29c1ad4a7","geocoding_address":"臺北市士林區平菁街93巷14號","location_method":"OpenStreetMap道路/地名定位","lng":121.5737752,"lat":25.1220723}},{"type":"Feature","geometry":{"type":"Point","coordinates":[121.58733576111912,24.97164888587735]},"properties":{"data_time":"2025-07-09 16:24:16.014459","source_row_no":"27","name":"鴻智茶場","operator":"張恩沛","city":"臺北市","district":"文山區","address":"指南路三段38巷21號","certification_no":"1-006-101543","certification_status":"有機","area_ha":0.1432,"food_education":"V","beekeeping":"","chicken_raising":"","note":"(2025/11/1結束)","source_type":"有機農場","source_dataset":"臺北市有機農場","source_url":"https://data.taipei/dataset/detail?id=32aea2da-14a7-47b6-a687-57e29c1ad4a7","geocoding_address":"臺北市文山區指南路三段38巷21號","location_method":"臺北市門牌位置數值資料","lng":121.58733576111912,"lat":24.97164888587735}},{"type":"Feature","geometry":{"type":"Point","coordinates":[121.5321346,25.1464102]},"properties":{"data_time":"2025-07-09 16:24:16.015835","source_row_no":"28","name":"野蔓園","operator":"唐嚴漢","city":"臺北市","district":"北投區","address":"臺北市北投區紗帽路40-20號","certification_no":"1-001-112174\r\n1-001-111174(有機)","certification_status":"有機","area_ha":1.3561,"food_education":"V","beekeeping":"","chicken_raising":"V","note":"","source_type":"有機農場","source_dataset":"臺北市有機農場","source_url":"https://data.taipei/dataset/detail?id=32aea2da-14a7-47b6-a687-57e29c1ad4a7","geocoding_address":"臺北市北投區紗帽路40-20號","location_method":"OpenStreetMap道路/地名定位","lng":121.5321346,"lat":25.1464102}},{"type":"Feature","geometry":{"type":"Point","coordinates":[121.52252001074095,25.150491799091498]},"properties":{"data_time":"2025-07-09 16:24:16.017183","source_row_no":"29","name":"樸石農莊","operator":"楊麒彰","city":"臺北市","district":"北投區","address":"臺北市北投區東昇路25號","certification_no":"1-009-110250","certification_status":"有機","area_ha":0.506,"food_education":"","beekeeping":"","chicken_raising":"","note":"","source_type":"有機農場","source_dataset":"臺北市有機農場","source_url":"https://data.taipei/dataset/detail?id=32aea2da-14a7-47b6-a687-57e29c1ad4a7","geocoding_address":"臺北市北投區東昇路25號","location_method":"臺北市門牌位置數值資料","lng":121.52252001074095,"lat":25.150491799091498}},{"type":"Feature","geometry":{"type":"Point","coordinates":[121.5107918,25.1419004]},"properties":{"data_time":"2025-07-09 16:24:16.018555","source_row_no":"30","name":"友咭農園","operator":"廖宗敬","city":"臺北市","district":"北投區","address":"臺北市北投區中心里16鄰珠海路36號3樓","certification_no":"1-009-110763","certification_status":"有機","area_ha":0.3572,"food_education":"","beekeeping":"","chicken_raising":"","note":"","source_type":"有機農場","source_dataset":"臺北市有機農場","source_url":"https://data.taipei/dataset/detail?id=32aea2da-14a7-47b6-a687-57e29c1ad4a7","geocoding_address":"臺北市北投區中心里16鄰珠海路36號3樓","location_method":"OpenStreetMap道路/地名定位","lng":121.5107918,"lat":25.1419004}},{"type":"Feature","geometry":{"type":"Point","coordinates":[121.5285029,25.1540595]},"properties":{"data_time":"2025-07-09 16:24:16.019958","source_row_no":"31","name":"四口田農園","operator":"洪志忠","city":"臺北市","district":"北投區","address":"臺北市北投區泉源里12鄰東昇路38-2號","certification_no":"1-001-112249\r\n1-001-111249(有機)","certification_status":"有機","area_ha":0.802,"food_education":"V","beekeeping":"V","chicken_raising":"","note":"","source_type":"有機農場","source_dataset":"臺北市有機農場","source_url":"https://data.taipei/dataset/detail?id=32aea2da-14a7-47b6-a687-57e29c1ad4a7","geocoding_address":"臺北市北投區泉源里12鄰東昇路38-2號","location_method":"OpenStreetMap道路/地名定位","lng":121.5285029,"lat":25.1540595}},{"type":"Feature","geometry":{"type":"Point","coordinates":[121.50485959922106,25.140956168801157]},"properties":{"data_time":"2025-07-09 16:24:16.021323","source_row_no":"32","name":"火的意志大屯火山咖啡","operator":"侯奕瑋","city":"臺北市","district":"北投區","address":"臺北市北投區進賢路2號","certification_no":"1-001-112179(轉型期)\r\n1-001-111179","certification_status":"有機","area_ha":1.3698,"food_education":"V","beekeeping":"","chicken_raising":"","note":"","source_type":"有機農場","source_dataset":"臺北市有機農場","source_url":"https://data.taipei/dataset/detail?id=32aea2da-14a7-47b6-a687-57e29c1ad4a7","geocoding_address":"臺北市北投區進賢路2號","location_method":"臺北市門牌位置數值資料","lng":121.50485959922106,"lat":25.140956168801157}},{"type":"Feature","geometry":{"type":"Point","coordinates":[121.57827189332247,25.053631264076113]},"properties":{"data_time":"2025-07-09 16:24:16.022630","source_row_no":"33","name":"春勳生態農園","operator":"林軒逸","city":"臺北市","district":"內湖區","address":"臺北市內湖區新明路498巷5之2號1樓","certification_no":"1-017-222032(轉型期)","certification_status":"有機","area_ha":0.6216,"food_education":"V","beekeeping":"V","chicken_raising":"V","note":"(2025/8/31結束)","source_type":"有機農場","source_dataset":"臺北市有機農場","source_url":"https://data.taipei/dataset/detail?id=32aea2da-14a7-47b6-a687-57e29c1ad4a7","geocoding_address":"臺北市內湖區新明路498巷5之2號1樓","location_method":"臺北市門牌位置數值資料","lng":121.57827189332247,"lat":25.053631264076113}},{"type":"Feature","geometry":{"type":"Point","coordinates":[121.5737752,25.1220723]},"properties":{"data_time":"2025-07-09 16:24:16.023949","source_row_no":"34","name":"梅居休閒農場","operator":"郭峻瑞（負責人）\r\n楊安心（場長）","city":"臺北市","district":"士林區","address":"臺北市士林區平等里平菁街43巷99號","certification_no":"1-001-132020(轉型期)\r\n1-001-131020(有機)","certification_status":"有機","area_ha":4.1945,"food_education":"V","beekeeping":"V","chicken_raising":"","note":"","source_type":"有機農場","source_dataset":"臺北市有機農場","source_url":"https://data.taipei/dataset/detail?id=32aea2da-14a7-47b6-a687-57e29c1ad4a7","geocoding_address":"臺北市士林區平等里平菁街43巷99號","location_method":"OpenStreetMap道路/地名定位","lng":121.5737752,"lat":25.1220723}},{"type":"Feature","geometry":{"type":"Point","coordinates":[121.5895231,25.0907757]},"properties":{"data_time":"2025-07-09 16:24:16.025235","source_row_no":"35","name":"穠舍田園","operator":"林家民","city":"臺北市","district":"內湖區","address":"臺北市內湖區碧山里1鄰碧山路38號","certification_no":"1-017-224040(轉型期)","certification_status":"有機","area_ha":0.1609,"food_education":"","beekeeping":"","chicken_raising":"","note":"","source_type":"有機農場","source_dataset":"臺北市有機農場","source_url":"https://data.taipei/dataset/detail?id=32aea2da-14a7-47b6-a687-57e29c1ad4a7","geocoding_address":"臺北市內湖區碧山里1鄰碧山路38號","location_method":"OpenStreetMap道路/地名定位","lng":121.5895231,"lat":25.0907757}}]}