{"type":"FeatureCollection","features":[{"type":"Feature","properties":{"data_time":"2025-12-02","source_row_no":"105N000042","name":"鼎盛商行","city":"新北市","district":"新莊區","address":"新北市新莊區自信街四七號一樓","sample_date":"2025-12-02","project_name":"食品抽驗結果","product_category":"食品添加物","sample_item":"食品添加物","inspection_result":"不合格","violation_reason":"食品抽驗不合格","source_type":"食品抽驗不合格","source_dataset":"新北市食品抽驗結果","source_url":"https://fsmc.ntpc.gov.tw/DigitalMap/PublicWebsite","geocoding_address":"新北市新莊區自信街四七號一樓","location_method":"來源網站座標","violation_count":1},"geometry":{"type":"Point","coordinates":[121.454702,25.048336]}},{"type":"Feature","properties":{"data_time":"2025-10-15","source_row_no":"114N015659","name":"李勝准","city":"新北市","district":"中和區","address":"新北市中和區立德街三二號","sample_date":"2025-10-15","project_name":"食品抽驗結果","product_category":"食品添加物","sample_item":"食品添加物","inspection_result":"不合格","violation_reason":"食品抽驗不合格","source_type":"食品抽驗不合格","source_dataset":"新北市食品抽驗結果","source_url":"https://fsmc.ntpc.gov.tw/DigitalMap/PublicWebsite","geocoding_address":"新北市中和區立德街三二號","location_method":"來源網站座標","violation_count":1},"geometry":{"type":"Point","coordinates":[121.489034,25.007212]}},{"type":"Feature","properties":{"data_time":"2025-10-01","source_row_no":"113N007649","name":"閣再來餐廳有限公司","city":"新北市","district":"新店區","address":"新北市新店區北新路一段八八巷一號","sample_date":"2025-10-01","project_name":"食品抽驗結果","product_category":"農藥殘留","sample_item":"農藥殘留","inspection_result":"不合格","violation_reason":"食品抽驗不合格","source_type":"食品抽驗不合格","source_dataset":"新北市食品抽驗結果","source_url":"https://fsmc.ntpc.gov.tw/DigitalMap/PublicWebsite","geocoding_address":"新北市新店區北新路一段八八巷一號","location_method":"來源網站座標","violation_count":1},"geometry":{"type":"Point","coordinates":[121.541927,24.967805]}},{"type":"Feature","properties":{"data_time":"2025-09-23","source_row_no":"114N013109","name":"金莎蔬菜行","city":"新北市","district":"板橋區","address":"新北市板橋區板城路一零零零號","sample_date":"2025-09-23","project_name":"食品抽驗結果","product_category":"農藥殘留","sample_item":"農藥殘留","inspection_result":"不合格","violation_reason":"食品抽驗不合格","source_type":"食品抽驗不合格","source_dataset":"新北市食品抽驗結果","source_url":"https://fsmc.ntpc.gov.tw/DigitalMap/PublicWebsite","geocoding_address":"新北市板橋區板城路一零零零號","location_method":"來源網站座標","violation_count":1},"geometry":{"type":"Point","coordinates":[121.449249,25.020037]}},{"type":"Feature","properties":{"data_time":"2025-09-15","source_row_no":"111N004853","name":"柏立食品行","city":"新北市","district":"新店區","address":"新北市新店區建國路一一五號","sample_date":"2025-09-15","project_name":"食品抽驗結果","product_category":"食品添加物","sample_item":"食品添加物","inspection_result":"不合格","violation_reason":"食品抽驗不合格","source_type":"食品抽驗不合格","source_dataset":"新北市食品抽驗結果","source_url":"https://fsmc.ntpc.gov.tw/DigitalMap/PublicWebsite","geocoding_address":"新北市新店區建國路一一五號","location_method":"來源網站座標","violation_count":1},"geometry":{"type":"Point","coordinates":[121.539818,24.977708]}},{"type":"Feature","properties":{"data_time":"2025-09-03","source_row_no":"114N012534","name":"蘇淑儀","city":"新北市","district":"板橋區","address":"新北市板橋區中興路三八號","sample_date":"2025-09-03","project_name":"食品抽驗結果","product_category":"食品添加物","sample_item":"食品添加物","inspection_result":"不合格","violation_reason":"食品抽驗不合格","source_type":"食品抽驗不合格","source_dataset":"新北市食品抽驗結果","source_url":"https://fsmc.ntpc.gov.tw/DigitalMap/PublicWebsite","geocoding_address":"新北市板橋區中興路三八號","location_method":"來源網站座標","violation_count":1},"geometry":{"type":"Point","coordinates":[121.455209,25.007659]}},{"type":"Feature","properties":{"data_time":"2025-08-22","source_row_no":"114N012140","name":"山佳小市場","city":"新北市","district":"樹林區","address":"新北市樹林區佳園路一段四一巷一八號","sample_date":"2025-08-22","project_name":"食品抽驗結果","product_category":"食品添加物","sample_item":"食品添加物","inspection_result":"不合格","violation_reason":"食品抽驗不合格","source_type":"食品抽驗不合格","source_dataset":"新北市食品抽驗結果","source_url":"https://fsmc.ntpc.gov.tw/DigitalMap/PublicWebsite","geocoding_address":"新北市樹林區佳園路一段四一巷一八號","location_method":"來源網站座標","violation_count":1},"geometry":{"type":"Point","coordinates":[121.393982,24.970956]}},{"type":"Feature","properties":{"data_time":"2025-08-21","source_row_no":"114N012098","name":"溢安蔬菜行","city":"新北市","district":"板橋區","address":"新北市板橋區板城路一零零零號","sample_date":"2025-08-21","project_name":"食品抽驗結果","product_category":"農藥殘留","sample_item":"農藥殘留","inspection_result":"不合格","violation_reason":"食品抽驗不合格","source_type":"食品抽驗不合格","source_dataset":"新北市食品抽驗結果","source_url":"https://fsmc.ntpc.gov.tw/DigitalMap/PublicWebsite","geocoding_address":"新北市板橋區板城路一零零零號","location_method":"來源網站座標","violation_count":1},"geometry":{"type":"Point","coordinates":[121.449249,25.020037]}},{"type":"Feature","properties":{"data_time":"2025-08-11","source_row_no":"102N017325","name":"佳宴涮涮鍋小吃店","city":"新北市","district":"板橋區","address":"新北市板橋區中正路二八一號","sample_date":"2025-08-11","project_name":"食品抽驗結果","product_category":"食品微生物","sample_item":"食品微生物","inspection_result":"不合格","violation_reason":"食品抽驗不合格","source_type":"食品抽驗不合格","source_dataset":"新北市食品抽驗結果","source_url":"https://fsmc.ntpc.gov.tw/DigitalMap/PublicWebsite","geocoding_address":"新北市板橋區中正路二八一號","location_method":"來源網站座標","violation_count":1},"geometry":{"type":"Point","coordinates":[121.455422,25.019032]}},{"type":"Feature","properties":{"data_time":"2025-08-05","source_row_no":"110N009641","name":"信品國際餐飲有限公司","city":"新北市","district":"新莊區","address":"新北市新莊區中港路三七一號","sample_date":"2025-08-05","project_name":"食品抽驗結果","product_category":"食品微生物","sample_item":"食品微生物","inspection_result":"不合格","violation_reason":"食品抽驗不合格","source_type":"食品抽驗不合格","source_dataset":"新北市食品抽驗結果","source_url":"https://fsmc.ntpc.gov.tw/DigitalMap/PublicWebsite","geocoding_address":"新北市新莊區中港路三七一號","location_method":"來源網站座標","violation_count":1},"geometry":{"type":"Point","coordinates":[121.451704,25.04641]}},{"type":"Feature","properties":{"data_time":"2025-07-30","source_row_no":"114N010336","name":"果菜市場攤位347號","city":"新北市","district":"蘆洲區","address":"新北市蘆洲區復興路四一零巷一一號","sample_date":"2025-07-30","project_name":"食品抽驗結果","product_category":"農藥殘留","sample_item":"農藥殘留","inspection_result":"不合格","violation_reason":"食品抽驗不合格","source_type":"食品抽驗不合格","source_dataset":"新北市食品抽驗結果","source_url":"https://fsmc.ntpc.gov.tw/DigitalMap/PublicWebsite","geocoding_address":"新北市蘆洲區復興路四一零巷一一號","location_method":"來源網站座標","violation_count":1},"geometry":{"type":"Point","coordinates":[121.484557,25.090849]}},{"type":"Feature","properties":{"data_time":"2025-07-23","source_row_no":"111N000127","name":"肉出微笑鍋物","city":"新北市","district":"永和區","address":"新北市永和區得和路一二四號","sample_date":"2025-07-23","project_name":"食品抽驗結果","product_category":"農藥殘留","sample_item":"農藥殘留","inspection_result":"不合格","violation_reason":"食品抽驗不合格","source_type":"食品抽驗不合格","source_dataset":"新北市食品抽驗結果","source_url":"https://fsmc.ntpc.gov.tw/DigitalMap/PublicWebsite","geocoding_address":"新北市永和區得和路一二四號","location_method":"來源網站座標","violation_count":1},"geometry":{"type":"Point","coordinates":[121.5188,25.000072]}},{"type":"Feature","properties":{"data_time":"2025-07-22","source_row_no":"114N010082","name":"蔥薑蒜辣椒批發零售","city":"新北市","district":"三重區","address":"新北市三重區五華街三三一號","sample_date":"2025-07-22","project_name":"食品抽驗結果","product_category":"農藥殘留","sample_item":"農藥殘留","inspection_result":"不合格","violation_reason":"食品抽驗不合格","source_type":"食品抽驗不合格","source_dataset":"新北市食品抽驗結果","source_url":"https://fsmc.ntpc.gov.tw/DigitalMap/PublicWebsite","geocoding_address":"新北市三重區五華街三三一號","location_method":"來源網站座標","violation_count":1},"geometry":{"type":"Point","coordinates":[121.486917,25.088289]}},{"type":"Feature","properties":{"data_time":"2025-07-22","source_row_no":"113N011293","name":"金田興業股份有限公司Nara Thei 新北新莊宏匯店","city":"新北市","district":"新莊區","address":"新北市新莊區新北大道四段三號七樓","sample_date":"2025-07-22","project_name":"食品抽驗結果","product_category":"農藥殘留","sample_item":"農藥殘留","inspection_result":"不合格","violation_reason":"食品抽驗不合格","source_type":"食品抽驗不合格","source_dataset":"新北市食品抽驗結果","source_url":"https://fsmc.ntpc.gov.tw/DigitalMap/PublicWebsite","geocoding_address":"新北市新莊區新北大道四段三號七樓","location_method":"來源網站座標","violation_count":1},"geometry":{"type":"Point","coordinates":[121.449452,25.059943]}},{"type":"Feature","properties":{"data_time":"2025-07-17","source_row_no":"104N007209","name":"玖捌水果城","city":"新北市","district":"新店區","address":"新北市新店區安康路二段九六號","sample_date":"2025-07-17","project_name":"食品抽驗結果","product_category":"農藥殘留","sample_item":"農藥殘留","inspection_result":"不合格","violation_reason":"食品抽驗不合格","source_type":"食品抽驗不合格","source_dataset":"新北市食品抽驗結果","source_url":"https://fsmc.ntpc.gov.tw/DigitalMap/PublicWebsite","geocoding_address":"新北市新店區安康路二段九六號","location_method":"來源網站座標","violation_count":1},"geometry":{"type":"Point","coordinates":[121.513622,24.963137]}},{"type":"Feature","properties":{"data_time":"2025-06-27","source_row_no":"110N004167","name":"五竹餐飲(市招:初喚WHATS COOKING健康餐盒)","city":"新北市","district":"板橋區","address":"新北市板橋區文化路一段二七零巷三弄一二號","sample_date":"2025-06-27","project_name":"食品抽驗結果","product_category":"食品微生物","sample_item":"食品微生物","inspection_result":"不合格","violation_reason":"食品抽驗不合格","source_type":"食品抽驗不合格","source_dataset":"新北市食品抽驗結果","source_url":"https://fsmc.ntpc.gov.tw/DigitalMap/PublicWebsite","geocoding_address":"新北市板橋區文化路一段二七零巷三弄一二號","location_method":"來源網站座標","violation_count":1},"geometry":{"type":"Point","coordinates":[121.467913,25.020811]}},{"type":"Feature","properties":{"data_time":"2025-06-03","source_row_no":"114N008577","name":"佶立菓菜行","city":"新北市","district":"板橋區","address":"新北市板橋區板城路一零零零號","sample_date":"2025-06-03","project_name":"食品抽驗結果","product_category":"農藥殘留","sample_item":"農藥殘留","inspection_result":"不合格","violation_reason":"食品抽驗不合格","source_type":"食品抽驗不合格","source_dataset":"新北市食品抽驗結果","source_url":"https://fsmc.ntpc.gov.tw/DigitalMap/PublicWebsite","geocoding_address":"新北市板橋區板城路一零零零號","location_method":"來源網站座標","violation_count":1},"geometry":{"type":"Point","coordinates":[121.449249,25.020037]}},{"type":"Feature","properties":{"data_time":"2025-06-03","source_row_no":"114N008582","name":"友財蔬菓行","city":"新北市","district":"板橋區","address":"新北市板橋區板城路一零零零號","sample_date":"2025-06-03","project_name":"食品抽驗結果","product_category":"農藥殘留","sample_item":"農藥殘留","inspection_result":"不合格","violation_reason":"食品抽驗不合格","source_type":"食品抽驗不合格","source_dataset":"新北市食品抽驗結果","source_url":"https://fsmc.ntpc.gov.tw/DigitalMap/PublicWebsite","geocoding_address":"新北市板橋區板城路一零零零號","location_method":"來源網站座標","violation_count":1},"geometry":{"type":"Point","coordinates":[121.449249,25.020037]}},{"type":"Feature","properties":{"data_time":"2025-05-22","source_row_no":"114N008149","name":"邱雪珍","city":"新北市","district":"板橋區","address":"新北市板橋區中正路二三六巷六四號","sample_date":"2025-05-22","project_name":"食品抽驗結果","product_category":"農藥殘留","sample_item":"農藥殘留","inspection_result":"不合格","violation_reason":"食品抽驗不合格","source_type":"食品抽驗不合格","source_dataset":"新北市食品抽驗結果","source_url":"https://fsmc.ntpc.gov.tw/DigitalMap/PublicWebsite","geocoding_address":"新北市板橋區中正路二三六巷六四號","location_method":"來源網站座標","violation_count":1},"geometry":{"type":"Point","coordinates":[121.457799,25.019313]}},{"type":"Feature","properties":{"data_time":"2025-05-21","source_row_no":"113N008540","name":"四維一一七紅茶店","city":"新北市","district":"新莊區","address":"新北市新莊區四維路一一七號一樓","sample_date":"2025-05-21","project_name":"食品抽驗結果","product_category":"食品微生物","sample_item":"食品微生物","inspection_result":"不合格","violation_reason":"食品抽驗不合格","source_type":"食品抽驗不合格","source_dataset":"新北市食品抽驗結果","source_url":"https://fsmc.ntpc.gov.tw/DigitalMap/PublicWebsite","geocoding_address":"新北市新莊區四維路一一七號一樓","location_method":"來源網站座標","violation_count":1},"geometry":{"type":"Point","coordinates":[121.423218,25.023193]}},{"type":"Feature","properties":{"data_time":"2025-04-30","source_row_no":"114N007532","name":"葉振聰","city":"新北市","district":"新店區","address":"新北市新店區建國路二九號","sample_date":"2025-04-30","project_name":"食品抽驗結果","product_category":"農藥殘留","sample_item":"農藥殘留","inspection_result":"不合格","violation_reason":"食品抽驗不合格","source_type":"食品抽驗不合格","source_dataset":"新北市食品抽驗結果","source_url":"https://fsmc.ntpc.gov.tw/DigitalMap/PublicWebsite","geocoding_address":"新北市新店區建國路二九號","location_method":"來源網站座標","violation_count":1},"geometry":{"type":"Point","coordinates":[121.540115,24.974151]}},{"type":"Feature","properties":{"data_time":"2025-04-29","source_row_no":"103N008681","name":"存輝蔬果行","city":"新北市","district":"土城區","address":"新北市土城區農豐街四號","sample_date":"2025-04-29","project_name":"食品抽驗結果","product_category":"農藥殘留","sample_item":"農藥殘留","inspection_result":"不合格","violation_reason":"食品抽驗不合格","source_type":"食品抽驗不合格","source_dataset":"新北市食品抽驗結果","source_url":"https://fsmc.ntpc.gov.tw/DigitalMap/PublicWebsite","geocoding_address":"新北市土城區農豐街四號","location_method":"來源網站座標","violation_count":1},"geometry":{"type":"Point","coordinates":[121.442344,24.973811]}},{"type":"Feature","properties":{"data_time":"2025-04-21","source_row_no":"114N003540","name":"元茂商行","city":"新北市","district":"三重區","address":"新北市三重區信義街三零號","sample_date":"2025-04-21","project_name":"食品抽驗結果","product_category":"食品添加物","sample_item":"食品添加物","inspection_result":"不合格","violation_reason":"食品抽驗不合格","source_type":"食品抽驗不合格","source_dataset":"新北市食品抽驗結果","source_url":"https://fsmc.ntpc.gov.tw/DigitalMap/PublicWebsite","geocoding_address":"新北市三重區信義街三零號","location_method":"來源網站座標","violation_count":1},"geometry":{"type":"Point","coordinates":[121.499881,25.064971]}},{"type":"Feature","properties":{"data_time":"2025-03-27","source_row_no":"114N004559","name":"王方甜品鋪","city":"新北市","district":"永和區","address":"新北市永和區永和路一段六三號","sample_date":"2025-03-27","project_name":"食品抽驗結果","product_category":"農藥殘留","sample_item":"農藥殘留","inspection_result":"不合格","violation_reason":"食品抽驗不合格","source_type":"食品抽驗不合格","source_dataset":"新北市食品抽驗結果","source_url":"https://fsmc.ntpc.gov.tw/DigitalMap/PublicWebsite","geocoding_address":"新北市永和區永和路一段六三號","location_method":"來源網站座標","violation_count":1},"geometry":{"type":"Point","coordinates":[121.512964,25.006911]}},{"type":"Feature","properties":{"data_time":"2025-03-27","source_row_no":"110N004252","name":"饒瑞翔","city":"新北市","district":"新莊區","address":"新北市新莊區四維路一五九號","sample_date":"2025-03-27","project_name":"食品抽驗結果","product_category":"農藥殘留","sample_item":"農藥殘留","inspection_result":"不合格","violation_reason":"食品抽驗不合格","source_type":"食品抽驗不合格","source_dataset":"新北市食品抽驗結果","source_url":"https://fsmc.ntpc.gov.tw/DigitalMap/PublicWebsite","geocoding_address":"新北市新莊區四維路一五九號","location_method":"來源網站座標","violation_count":1},"geometry":{"type":"Point","coordinates":[121.422591,25.021815]}},{"type":"Feature","properties":{"data_time":"2025-03-26","source_row_no":"114N004517","name":"北港農產商行","city":"新北市","district":"板橋區","address":"新北市板橋區中興路二八號","sample_date":"2025-03-26","project_name":"食品抽驗結果","product_category":"農藥殘留","sample_item":"農藥殘留","inspection_result":"不合格","violation_reason":"食品抽驗不合格","source_type":"食品抽驗不合格","source_dataset":"新北市食品抽驗結果","source_url":"https://fsmc.ntpc.gov.tw/DigitalMap/PublicWebsite","geocoding_address":"新北市板橋區中興路二八號","location_method":"來源網站座標","violation_count":1},"geometry":{"type":"Point","coordinates":[121.45533,25.00778]}},{"type":"Feature","properties":{"data_time":"2025-03-25","source_row_no":"114N004482","name":"勝彥蔬果行","city":"新北市","district":"板橋區","address":"新北市板橋區板城路一零零零號","sample_date":"2025-03-25","project_name":"食品抽驗結果","product_category":"農藥殘留","sample_item":"農藥殘留","inspection_result":"不合格","violation_reason":"食品抽驗不合格","source_type":"食品抽驗不合格","source_dataset":"新北市食品抽驗結果","source_url":"https://fsmc.ntpc.gov.tw/DigitalMap/PublicWebsite","geocoding_address":"新北市板橋區板城路一零零零號","location_method":"來源網站座標","violation_count":1},"geometry":{"type":"Point","coordinates":[121.449249,25.020037]}},{"type":"Feature","properties":{"data_time":"2025-03-24","source_row_no":"110N010454","name":"施家班青菜水果賣場","city":"新北市","district":"樹林區","address":"新北市樹林區太平路一零六號","sample_date":"2025-03-24","project_name":"食品抽驗結果","product_category":"食品添加物","sample_item":"食品添加物","inspection_result":"不合格","violation_reason":"食品抽驗不合格","source_type":"食品抽驗不合格","source_dataset":"新北市食品抽驗結果","source_url":"https://fsmc.ntpc.gov.tw/DigitalMap/PublicWebsite","geocoding_address":"新北市樹林區太平路一零六號","location_method":"來源網站座標","violation_count":1},"geometry":{"type":"Point","coordinates":[121.418459,24.978894]}},{"type":"Feature","properties":{"data_time":"2025-03-24","source_row_no":"110N004194","name":"黃峰水果行","city":"新北市","district":"蘆洲區","address":"新北市蘆洲區集賢路一九六之一號","sample_date":"2025-03-24","project_name":"食品抽驗結果","product_category":"農藥殘留","sample_item":"農藥殘留","inspection_result":"不合格","violation_reason":"食品抽驗不合格","source_type":"食品抽驗不合格","source_dataset":"新北市食品抽驗結果","source_url":"https://fsmc.ntpc.gov.tw/DigitalMap/PublicWebsite","geocoding_address":"新北市蘆洲區集賢路一九六之一號","location_method":"來源網站座標","violation_count":1},"geometry":{"type":"Point","coordinates":[121.483621,25.087885]}},{"type":"Feature","properties":{"data_time":"2025-03-24","source_row_no":"102N015283","name":"泰豐食品有限公司(永豐製麵廠)","city":"新北市","district":"板橋區","address":"新北市板橋區金門街三六九巷八五號","sample_date":"2025-03-24","project_name":"食品抽驗結果","product_category":"農藥殘留","sample_item":"農藥殘留","inspection_result":"不合格","violation_reason":"食品抽驗不合格","source_type":"食品抽驗不合格","source_dataset":"新北市食品抽驗結果","source_url":"https://fsmc.ntpc.gov.tw/DigitalMap/PublicWebsite","geocoding_address":"新北市板橋區金門街三六九巷八五號","location_method":"來源網站座標","violation_count":1},"geometry":{"type":"Point","coordinates":[121.42849,24.9825]}},{"type":"Feature","properties":{"data_time":"2025-03-13","source_row_no":"105N007870","name":"統皓食品股份有限公司","city":"新北市","district":"五股區","address":"新北市五股區五權路四九號三、四樓","sample_date":"2025-03-13","project_name":"食品抽驗結果","product_category":"食品添加物","sample_item":"食品添加物","inspection_result":"不合格","violation_reason":"食品抽驗不合格","source_type":"食品抽驗不合格","source_dataset":"新北市食品抽驗結果","source_url":"https://fsmc.ntpc.gov.tw/DigitalMap/PublicWebsite","geocoding_address":"新北市五股區五權路四九號三、四樓","location_method":"來源網站座標","violation_count":1},"geometry":{"type":"Point","coordinates":[121.452758,25.069108]}},{"type":"Feature","properties":{"data_time":"2025-03-10","source_row_no":"107N007937","name":"一古堂中藥行","city":"新北市","district":"板橋區","address":"新北市板橋區北門街四二號","sample_date":"2025-03-10","project_name":"食品抽驗結果","product_category":"農藥殘留","sample_item":"農藥殘留","inspection_result":"不合格","violation_reason":"食品抽驗不合格","source_type":"食品抽驗不合格","source_dataset":"新北市食品抽驗結果","source_url":"https://fsmc.ntpc.gov.tw/DigitalMap/PublicWebsite","geocoding_address":"新北市板橋區北門街四二號","location_method":"來源網站座標","violation_count":1},"geometry":{"type":"Point","coordinates":[121.457022,25.011138]}},{"type":"Feature","properties":{"data_time":"2025-03-07","source_row_no":"107N001413","name":"金山農會生鮮超級市場","city":"新北市","district":"金山區","address":"新北市金山區中山路二三二號","sample_date":"2025-03-07","project_name":"食品抽驗結果","product_category":"食品添加物","sample_item":"食品添加物","inspection_result":"不合格","violation_reason":"食品抽驗不合格","source_type":"食品抽驗不合格","source_dataset":"新北市食品抽驗結果","source_url":"https://fsmc.ntpc.gov.tw/DigitalMap/PublicWebsite","geocoding_address":"新北市金山區中山路二三二號","location_method":"來源網站座標","violation_count":1},"geometry":{"type":"Point","coordinates":[121.637096,25.222244]}},{"type":"Feature","properties":{"data_time":"2025-03-07","source_row_no":"106N006983","name":"米堤食品行","city":"新北市","district":"金山區","address":"新北市金山區金包里街舊市場八號","sample_date":"2025-03-07","project_name":"食品抽驗結果","product_category":"食品添加物","sample_item":"食品添加物","inspection_result":"不合格","violation_reason":"食品抽驗不合格","source_type":"食品抽驗不合格","source_dataset":"新北市食品抽驗結果","source_url":"https://fsmc.ntpc.gov.tw/DigitalMap/PublicWebsite","geocoding_address":"新北市金山區金包里街舊市場八號","location_method":"來源網站座標","violation_count":1},"geometry":{"type":"Point","coordinates":[121.640527,25.220692]}},{"type":"Feature","properties":{"data_time":"2025-03-06","source_row_no":"104N004990","name":"乾越企業有限公司(市招:銘記越南美食)","city":"新北市","district":"汐止區","address":"新北市汐止區康寧街五三六之一號","sample_date":"2025-03-06","project_name":"食品抽驗結果","product_category":"農藥殘留","sample_item":"農藥殘留","inspection_result":"不合格","violation_reason":"食品抽驗不合格","source_type":"食品抽驗不合格","source_dataset":"新北市食品抽驗結果","source_url":"https://fsmc.ntpc.gov.tw/DigitalMap/PublicWebsite","geocoding_address":"新北市汐止區康寧街五三六之一號","location_method":"來源網站座標","violation_count":1},"geometry":{"type":"Point","coordinates":[121.634791,25.069161]}},{"type":"Feature","properties":{"data_time":"2025-03-06","source_row_no":"111N004845","name":"良盈食品行","city":"新北市","district":"板橋區","address":"新北市板橋區中正路二三六巷六三號","sample_date":"2025-03-06","project_name":"食品抽驗結果","product_category":"食品添加物","sample_item":"食品添加物","inspection_result":"不合格","violation_reason":"食品抽驗不合格","source_type":"食品抽驗不合格","source_dataset":"新北市食品抽驗結果","source_url":"https://fsmc.ntpc.gov.tw/DigitalMap/PublicWebsite","geocoding_address":"新北市板橋區中正路二三六巷六三號","location_method":"來源網站座標","violation_count":1},"geometry":{"type":"Point","coordinates":[121.458453,25.019603]}},{"type":"Feature","properties":{"data_time":"2025-03-05","source_row_no":"107N006280","name":"五味食品行","city":"新北市","district":"中和區","address":"新北市中和區南山路一四八號","sample_date":"2025-03-05","project_name":"食品抽驗結果","product_category":"食品添加物","sample_item":"食品添加物","inspection_result":"不合格","violation_reason":"食品抽驗不合格","source_type":"食品抽驗不合格","source_dataset":"新北市食品抽驗結果","source_url":"https://fsmc.ntpc.gov.tw/DigitalMap/PublicWebsite","geocoding_address":"新北市中和區南山路一四八號","location_method":"來源網站座標","violation_count":1},"geometry":{"type":"Point","coordinates":[121.504177,24.992151]}},{"type":"Feature","properties":{"data_time":"2025-02-12","source_row_no":"113N003682","name":"好初水果股份有限公司","city":"新北市","district":"中和區","address":"新北市中和區中山路二段三五一號","sample_date":"2025-02-12","project_name":"食品抽驗結果","product_category":"農藥殘留","sample_item":"農藥殘留","inspection_result":"不合格","violation_reason":"食品抽驗不合格","source_type":"食品抽驗不合格","source_dataset":"新北市食品抽驗結果","source_url":"https://fsmc.ntpc.gov.tw/DigitalMap/PublicWebsite","geocoding_address":"新北市中和區中山路二段三五一號","location_method":"來源網站座標","violation_count":1},"geometry":{"type":"Point","coordinates":[121.490684,25.003167]}},{"type":"Feature","properties":{"data_time":"2025-02-05","source_row_no":"112N003159","name":"綠立方農產行","city":"新北市","district":"新店區","address":"新北市新店區建國路四一號","sample_date":"2025-02-05","project_name":"食品抽驗結果","product_category":"農藥殘留","sample_item":"農藥殘留","inspection_result":"不合格","violation_reason":"食品抽驗不合格","source_type":"食品抽驗不合格","source_dataset":"新北市食品抽驗結果","source_url":"https://fsmc.ntpc.gov.tw/DigitalMap/PublicWebsite","geocoding_address":"新北市新店區建國路四一號","location_method":"來源網站座標","violation_count":1},"geometry":{"type":"Point","coordinates":[121.540415,24.975123]}},{"type":"Feature","properties":{"data_time":"2024-12-30","source_row_no":"113N013823","name":"葡其實業股份有限公司","city":"新北市","district":"板橋區","address":"新北市板橋區新站路二八號九樓","sample_date":"2024-12-30","project_name":"食品抽驗結果","product_category":"農藥殘留","sample_item":"農藥殘留","inspection_result":"不合格","violation_reason":"食品抽驗不合格","source_type":"食品抽驗不合格","source_dataset":"新北市食品抽驗結果","source_url":"https://fsmc.ntpc.gov.tw/DigitalMap/PublicWebsite","geocoding_address":"新北市板橋區新站路二八號九樓","location_method":"來源網站座標","violation_count":1},"geometry":{"type":"Point","coordinates":[121.466627,25.013621]}},{"type":"Feature","properties":{"data_time":"2024-12-27","source_row_no":"113N013797","name":"嘉義紅心粉圓雪片黑糖冰","city":"新北市","district":"蘆洲區","address":"新北市蘆洲區長安街六三之一號","sample_date":"2024-12-27","project_name":"食品抽驗結果","product_category":"食品添加物","sample_item":"食品添加物","inspection_result":"不合格","violation_reason":"食品抽驗不合格","source_type":"食品抽驗不合格","source_dataset":"新北市食品抽驗結果","source_url":"https://fsmc.ntpc.gov.tw/DigitalMap/PublicWebsite","geocoding_address":"新北市蘆洲區長安街六三之一號","location_method":"來源網站座標","violation_count":1},"geometry":{"type":"Point","coordinates":[121.462859,25.079825]}},{"type":"Feature","properties":{"data_time":"2024-12-27","source_row_no":"113N013802","name":"沈家古早味傳統豆花湯圓","city":"新北市","district":"蘆洲區","address":"新北市蘆洲區得勝街一七七號","sample_date":"2024-12-27","project_name":"食品抽驗結果","product_category":"食品添加物","sample_item":"食品添加物","inspection_result":"不合格","violation_reason":"食品抽驗不合格","source_type":"食品抽驗不合格","source_dataset":"新北市食品抽驗結果","source_url":"https://fsmc.ntpc.gov.tw/DigitalMap/PublicWebsite","geocoding_address":"新北市蘆洲區得勝街一七七號","location_method":"來源網站座標","violation_count":1},"geometry":{"type":"Point","coordinates":[121.471083,25.082733]}},{"type":"Feature","properties":{"data_time":"2024-11-18","source_row_no":"106N002387","name":"久翔食品股份有限公司","city":"新北市","district":"樹林區","address":"新北市樹林區武林街一六之一號","sample_date":"2024-11-18","project_name":"食品抽驗結果","product_category":"農藥殘留","sample_item":"農藥殘留","inspection_result":"不合格","violation_reason":"食品抽驗不合格","source_type":"食品抽驗不合格","source_dataset":"新北市食品抽驗結果","source_url":"https://fsmc.ntpc.gov.tw/DigitalMap/PublicWebsite","geocoding_address":"新北市樹林區武林街一六之一號","location_method":"來源網站座標","violation_count":1},"geometry":{"type":"Point","coordinates":[121.420671,25.003369]}},{"type":"Feature","properties":{"data_time":"2024-10-21","source_row_no":"113N010026","name":"易妗餐飲","city":"新北市","district":"新店區","address":"新北市新店區民權路四四之一號一樓","sample_date":"2024-10-21","project_name":"食品抽驗結果","product_category":"農藥殘留","sample_item":"農藥殘留","inspection_result":"不合格","violation_reason":"食品抽驗不合格","source_type":"食品抽驗不合格","source_dataset":"新北市食品抽驗結果","source_url":"https://fsmc.ntpc.gov.tw/DigitalMap/PublicWebsite","geocoding_address":"新北市新店區民權路四四之一號一樓","location_method":"來源網站座標","violation_count":1},"geometry":{"type":"Point","coordinates":[121.540326,24.983054]}},{"type":"Feature","properties":{"data_time":"2024-10-04","source_row_no":"113N009361","name":"無市招","city":"新北市","district":"深坑區","address":"新北市深坑區深坑街一三號","sample_date":"2024-10-04","project_name":"食品抽驗結果","product_category":"農藥殘留","sample_item":"農藥殘留","inspection_result":"不合格","violation_reason":"食品抽驗不合格","source_type":"食品抽驗不合格","source_dataset":"新北市食品抽驗結果","source_url":"https://fsmc.ntpc.gov.tw/DigitalMap/PublicWebsite","geocoding_address":"新北市深坑區深坑街一三號","location_method":"來源網站座標","violation_count":1},"geometry":{"type":"Point","coordinates":[121.616317,25.002392]}},{"type":"Feature","properties":{"data_time":"2024-09-30","source_row_no":"113N009238","name":"香好滷味食品坊","city":"新北市","district":"三重區","address":"新北市三重區三陽路五七號","sample_date":"2024-09-30","project_name":"食品抽驗結果","product_category":"食品添加物","sample_item":"食品添加物","inspection_result":"不合格","violation_reason":"食品抽驗不合格","source_type":"食品抽驗不合格","source_dataset":"新北市食品抽驗結果","source_url":"https://fsmc.ntpc.gov.tw/DigitalMap/PublicWebsite","geocoding_address":"新北市三重區三陽路五七號","location_method":"來源網站座標","violation_count":1},"geometry":{"type":"Point","coordinates":[121.484551,25.059091]}},{"type":"Feature","properties":{"data_time":"2024-09-27","source_row_no":"113N009155","name":"三媽幸福火鍋店","city":"新北市","district":"新莊區","address":"新北市新莊區幸福路五一九號","sample_date":"2024-09-27","project_name":"食品抽驗結果","product_category":"農藥殘留","sample_item":"農藥殘留","inspection_result":"不合格","violation_reason":"食品抽驗不合格","source_type":"食品抽驗不合格","source_dataset":"新北市食品抽驗結果","source_url":"https://fsmc.ntpc.gov.tw/DigitalMap/PublicWebsite","geocoding_address":"新北市新莊區幸福路五一九號","location_method":"來源網站座標","violation_count":1},"geometry":{"type":"Point","coordinates":[121.455702,25.049281]}},{"type":"Feature","properties":{"data_time":"2024-09-26","source_row_no":"109N015129","name":"無市招菜攤","city":"新北市","district":"板橋區","address":"新北市板橋區四川路二段四七巷九號一樓","sample_date":"2024-09-26","project_name":"食品抽驗結果","product_category":"農藥殘留","sample_item":"農藥殘留","inspection_result":"不合格","violation_reason":"食品抽驗不合格","source_type":"食品抽驗不合格","source_dataset":"新北市食品抽驗結果","source_url":"https://fsmc.ntpc.gov.tw/DigitalMap/PublicWebsite","geocoding_address":"新北市板橋區四川路二段四七巷九號一樓","location_method":"來源網站座標","violation_count":1},"geometry":{"type":"Point","coordinates":[121.454325,24.994457]}},{"type":"Feature","properties":{"data_time":"2024-09-23","source_row_no":"113N008871","name":"黃梅餐飲有限公司","city":"新北市","district":"新店區","address":"新北市新店區北新路一段二三九號","sample_date":"2024-09-23","project_name":"食品抽驗結果","product_category":"食品添加物","sample_item":"食品添加物","inspection_result":"不合格","violation_reason":"食品抽驗不合格","source_type":"食品抽驗不合格","source_dataset":"新北市食品抽驗結果","source_url":"https://fsmc.ntpc.gov.tw/DigitalMap/PublicWebsite","geocoding_address":"新北市新店區北新路一段二三九號","location_method":"來源網站座標","violation_count":1},"geometry":{"type":"Point","coordinates":[121.540349,24.965951]}},{"type":"Feature","properties":{"data_time":"2024-09-18","source_row_no":"112N012142","name":"無市招攤商","city":"新北市","district":"板橋區","address":"新北市板橋區中興路三八號","sample_date":"2024-09-18","project_name":"食品抽驗結果","product_category":"食品添加物","sample_item":"食品添加物","inspection_result":"不合格","violation_reason":"食品抽驗不合格","source_type":"食品抽驗不合格","source_dataset":"新北市食品抽驗結果","source_url":"https://fsmc.ntpc.gov.tw/DigitalMap/PublicWebsite","geocoding_address":"新北市板橋區中興路三八號","location_method":"來源網站座標","violation_count":1},"geometry":{"type":"Point","coordinates":[121.455209,25.007659]}},{"type":"Feature","properties":{"data_time":"2024-09-05","source_row_no":"113N006425","name":"鴻源茶鋪(市招：茶湯會樹林金門店)","city":"新北市","district":"板橋區","address":"新北市板橋區金門街三六零號","sample_date":"2024-09-05","project_name":"食品抽驗結果","product_category":"食品微生物","sample_item":"食品微生物","inspection_result":"不合格","violation_reason":"食品抽驗不合格","source_type":"食品抽驗不合格","source_dataset":"新北市食品抽驗結果","source_url":"https://fsmc.ntpc.gov.tw/DigitalMap/PublicWebsite","geocoding_address":"新北市板橋區金門街三六零號","location_method":"來源網站座標","violation_count":1},"geometry":{"type":"Point","coordinates":[121.427501,24.98416]}},{"type":"Feature","properties":{"data_time":"2024-08-27","source_row_no":"113N007822","name":"生財小吃店","city":"新北市","district":"三重區","address":"新北市三重區重新路四段一四六號","sample_date":"2024-08-27","project_name":"食品抽驗結果","product_category":"食品添加物","sample_item":"食品添加物","inspection_result":"不合格","violation_reason":"食品抽驗不合格","source_type":"食品抽驗不合格","source_dataset":"新北市食品抽驗結果","source_url":"https://fsmc.ntpc.gov.tw/DigitalMap/PublicWebsite","geocoding_address":"新北市三重區重新路四段一四六號","location_method":"來源網站座標","violation_count":1},"geometry":{"type":"Point","coordinates":[121.486685,25.056023]}},{"type":"Feature","properties":{"data_time":"2024-08-20","source_row_no":"113N008009","name":"韓食拌樂股份有限公司 市招韓國一隻雞","city":"新北市","district":"林口區","address":"新北市林口區文化三路一段三五六之三五六號二樓","sample_date":"2024-08-20","project_name":"食品抽驗結果","product_category":"農藥殘留","sample_item":"農藥殘留","inspection_result":"不合格","violation_reason":"食品抽驗不合格","source_type":"食品抽驗不合格","source_dataset":"新北市食品抽驗結果","source_url":"https://fsmc.ntpc.gov.tw/DigitalMap/PublicWebsite","geocoding_address":"新北市林口區文化三路一段三五六之三五六號二樓","location_method":"來源網站座標","violation_count":1},"geometry":{"type":"Point","coordinates":[121.363506,25.070789]}},{"type":"Feature","properties":{"data_time":"2024-08-19","source_row_no":"103N005347","name":"巨富工業有限公司","city":"新北市","district":"中和區","address":"新北市中和區建八路一六七之三號","sample_date":"2024-08-19","project_name":"食品抽驗結果","product_category":"食品添加物","sample_item":"食品添加物","inspection_result":"不合格","violation_reason":"食品抽驗不合格","source_type":"食品抽驗不合格","source_dataset":"新北市食品抽驗結果","source_url":"https://fsmc.ntpc.gov.tw/DigitalMap/PublicWebsite","geocoding_address":"新北市中和區建八路一六七之三號","location_method":"來源網站座標","violation_count":1},"geometry":{"type":"Point","coordinates":[121.491209,24.999839]}},{"type":"Feature","properties":{"data_time":"2024-08-02","source_row_no":"107N006461","name":"珠珠餐飲店","city":"新北市","district":"三重區","address":"新北市三重區自強路一段二零三號","sample_date":"2024-08-02","project_name":"食品抽驗結果","product_category":"食品微生物","sample_item":"食品微生物","inspection_result":"不合格","violation_reason":"食品抽驗不合格","source_type":"食品抽驗不合格","source_dataset":"新北市食品抽驗結果","source_url":"https://fsmc.ntpc.gov.tw/DigitalMap/PublicWebsite","geocoding_address":"新北市三重區自強路一段二零三號","location_method":"來源網站座標","violation_count":1},"geometry":{"type":"Point","coordinates":[121.49161,25.068411]}},{"type":"Feature","properties":{"data_time":"2024-07-31","source_row_no":"101N009920","name":"晟發商行","city":"新北市","district":"鶯歌區","address":"新北市鶯歌區國際二路六巷一八號","sample_date":"2024-07-31","project_name":"食品抽驗結果","product_category":"農藥殘留","sample_item":"農藥殘留","inspection_result":"不合格","violation_reason":"食品抽驗不合格","source_type":"食品抽驗不合格","source_dataset":"新北市食品抽驗結果","source_url":"https://fsmc.ntpc.gov.tw/DigitalMap/PublicWebsite","geocoding_address":"新北市鶯歌區國際二路六巷一八號","location_method":"來源網站座標","violation_count":1},"geometry":{"type":"Point","coordinates":[121.339006,24.97377]}},{"type":"Feature","properties":{"data_time":"2024-07-23","source_row_no":"113N006524","name":"家人廚房","city":"新北市","district":"新店區","address":"新北市新店區民權路一零四號一樓","sample_date":"2024-07-23","project_name":"食品抽驗結果","product_category":"食品微生物","sample_item":"食品微生物","inspection_result":"不合格","violation_reason":"食品抽驗不合格","source_type":"食品抽驗不合格","source_dataset":"新北市食品抽驗結果","source_url":"https://fsmc.ntpc.gov.tw/DigitalMap/PublicWebsite","geocoding_address":"新北市新店區民權路一零四號一樓","location_method":"來源網站座標","violation_count":1},"geometry":{"type":"Point","coordinates":[121.535865,24.982989]}},{"type":"Feature","properties":{"data_time":"2024-07-03","source_row_no":"110N003464","name":"珍鱻味生猛海鮮","city":"新北市","district":"新莊區","address":"新北市新莊區公園路九八號","sample_date":"2024-07-03","project_name":"食品抽驗結果","product_category":"農藥殘留","sample_item":"農藥殘留","inspection_result":"不合格","violation_reason":"食品抽驗不合格","source_type":"食品抽驗不合格","source_dataset":"新北市食品抽驗結果","source_url":"https://fsmc.ntpc.gov.tw/DigitalMap/PublicWebsite","geocoding_address":"新北市新莊區公園路九八號","location_method":"來源網站座標","violation_count":1},"geometry":{"type":"Point","coordinates":[121.450751,25.03975]}},{"type":"Feature","properties":{"data_time":"2024-06-26","source_row_no":"113N006657","name":"加味食堂","city":"新北市","district":"中和區","address":"新北市中和區中和路七四號","sample_date":"2024-06-26","project_name":"食品抽驗結果","product_category":"食品添加物","sample_item":"食品添加物","inspection_result":"不合格","violation_reason":"食品抽驗不合格","source_type":"食品抽驗不合格","source_dataset":"新北市食品抽驗結果","source_url":"https://fsmc.ntpc.gov.tw/DigitalMap/PublicWebsite","geocoding_address":"新北市中和區中和路七四號","location_method":"來源網站座標","violation_count":1},"geometry":{"type":"Point","coordinates":[121.500961,25.000576]}},{"type":"Feature","properties":{"data_time":"2024-06-25","source_row_no":"112N009128","name":"果滴滴中和環球店","city":"新北市","district":"中和區","address":"新北市中和區中山路三段一二二號三樓","sample_date":"2024-06-25","project_name":"食品抽驗結果","product_category":"食品微生物","sample_item":"食品微生物","inspection_result":"不合格","violation_reason":"食品抽驗不合格","source_type":"食品抽驗不合格","source_dataset":"新北市食品抽驗結果","source_url":"https://fsmc.ntpc.gov.tw/DigitalMap/PublicWebsite","geocoding_address":"新北市中和區中山路三段一二二號三樓","location_method":"來源網站座標","violation_count":1},"geometry":{"type":"Point","coordinates":[121.475688,25.006077]}},{"type":"Feature","properties":{"data_time":"2024-06-14","source_row_no":"103N011042","name":"韋鎮實業有限公司","city":"新北市","district":"中和區","address":"新北市中和區中正路七三八號一七樓","sample_date":"2024-06-14","project_name":"食品抽驗結果","product_category":"食品添加物","sample_item":"食品添加物","inspection_result":"不合格","violation_reason":"食品抽驗不合格","source_type":"食品抽驗不合格","source_dataset":"新北市食品抽驗結果","source_url":"https://fsmc.ntpc.gov.tw/DigitalMap/PublicWebsite","geocoding_address":"新北市中和區中正路七三八號一七樓","location_method":"來源網站座標","violation_count":1},"geometry":{"type":"Point","coordinates":[121.485564,24.998111]}},{"type":"Feature","properties":{"data_time":"2024-05-22","source_row_no":"113N006050","name":"金菩提有限公司","city":"新北市","district":"板橋區","address":"新北市板橋區三民路二段二零二之二六號","sample_date":"2024-05-22","project_name":"食品抽驗結果","product_category":"食品添加物","sample_item":"食品添加物","inspection_result":"不合格","violation_reason":"食品抽驗不合格","source_type":"食品抽驗不合格","source_dataset":"新北市食品抽驗結果","source_url":"https://fsmc.ntpc.gov.tw/DigitalMap/PublicWebsite","geocoding_address":"新北市板橋區三民路二段二零二之二六號","location_method":"來源網站座標","violation_count":1},"geometry":{"type":"Point","coordinates":[121.478785,25.012817]}},{"type":"Feature","properties":{"data_time":"2024-05-21","source_row_no":"110N019195","name":"致好小吃館","city":"新北市","district":"永和區","address":"新北市永和區福和路二三一號","sample_date":"2024-05-21","project_name":"食品抽驗結果","product_category":"食品微生物","sample_item":"食品微生物","inspection_result":"不合格","violation_reason":"食品抽驗不合格","source_type":"食品抽驗不合格","source_dataset":"新北市食品抽驗結果","source_url":"https://fsmc.ntpc.gov.tw/DigitalMap/PublicWebsite","geocoding_address":"新北市永和區福和路二三一號","location_method":"來源網站座標","violation_count":1},"geometry":{"type":"Point","coordinates":[121.518579,25.007444]}},{"type":"Feature","properties":{"data_time":"2024-04-25","source_row_no":"112N010762","name":"台灣糖業股份有限公司北大健康超市","city":"新北市","district":"三峽區","address":"新北市三峽區學成路三九八號","sample_date":"2024-04-25","project_name":"食品抽驗結果","product_category":"農藥殘留","sample_item":"農藥殘留","inspection_result":"不合格","violation_reason":"食品抽驗不合格","source_type":"食品抽驗不合格","source_dataset":"新北市食品抽驗結果","source_url":"https://fsmc.ntpc.gov.tw/DigitalMap/PublicWebsite","geocoding_address":"新北市三峽區學成路三九八號","location_method":"來源網站座標","violation_count":1},"geometry":{"type":"Point","coordinates":[121.378306,24.944205]}},{"type":"Feature","properties":{"data_time":"2024-04-24","source_row_no":"113N004452","name":"無市招","city":"新北市","district":"永和區","address":"新北市永和區勵行街一一一號","sample_date":"2024-04-24","project_name":"食品抽驗結果","product_category":"農藥殘留","sample_item":"農藥殘留","inspection_result":"不合格","violation_reason":"食品抽驗不合格","source_type":"食品抽驗不合格","source_dataset":"新北市食品抽驗結果","source_url":"https://fsmc.ntpc.gov.tw/DigitalMap/PublicWebsite","geocoding_address":"新北市永和區勵行街一一一號","location_method":"來源網站座標","violation_count":1},"geometry":{"type":"Point","coordinates":[121.517359,25.012423]}},{"type":"Feature","properties":{"data_time":"2024-03-29","source_row_no":"113N003918","name":"無市招蔬果攤","city":"新北市","district":"新莊區","address":"新北市新莊區自立街八三號","sample_date":"2024-03-29","project_name":"食品抽驗結果","product_category":"農藥殘留","sample_item":"農藥殘留","inspection_result":"不合格","violation_reason":"食品抽驗不合格","source_type":"食品抽驗不合格","source_dataset":"新北市食品抽驗結果","source_url":"https://fsmc.ntpc.gov.tw/DigitalMap/PublicWebsite","geocoding_address":"新北市新莊區自立街八三號","location_method":"來源網站座標","violation_count":1},"geometry":{"type":"Point","coordinates":[121.454647,25.045477]}},{"type":"Feature","properties":{"data_time":"2024-03-26","source_row_no":"112N004716","name":"施家班","city":"新北市","district":"蘆洲區","address":"新北市蘆洲區長榮路六九三號一樓","sample_date":"2024-03-26","project_name":"食品抽驗結果","product_category":"農藥殘留","sample_item":"農藥殘留","inspection_result":"不合格","violation_reason":"食品抽驗不合格","source_type":"食品抽驗不合格","source_dataset":"新北市食品抽驗結果","source_url":"https://fsmc.ntpc.gov.tw/DigitalMap/PublicWebsite","geocoding_address":"新北市蘆洲區長榮路六九三號一樓","location_method":"來源網站座標","violation_count":1},"geometry":{"type":"Point","coordinates":[121.460424,25.092585]}},{"type":"Feature","properties":{"data_time":"2024-02-27","source_row_no":"111N001033","name":"新北市深坑農會","city":"新北市","district":"深坑區","address":"新北市深坑區深坑街八號","sample_date":"2024-02-27","project_name":"食品抽驗結果","product_category":"農藥殘留","sample_item":"農藥殘留","inspection_result":"不合格","violation_reason":"食品抽驗不合格","source_type":"食品抽驗不合格","source_dataset":"新北市食品抽驗結果","source_url":"https://fsmc.ntpc.gov.tw/DigitalMap/PublicWebsite","geocoding_address":"新北市深坑區深坑街八號","location_method":"來源網站座標","violation_count":1},"geometry":{"type":"Point","coordinates":[121.616398,25.002851]}},{"type":"Feature","properties":{"data_time":"2024-02-26","source_row_no":"109N001983","name":"無市招攤商","city":"新北市","district":"板橋區","address":"新北市板橋區館前西路一九七號","sample_date":"2024-02-26","project_name":"食品抽驗結果","product_category":"農藥殘留","sample_item":"農藥殘留","inspection_result":"不合格","violation_reason":"食品抽驗不合格","source_type":"食品抽驗不合格","source_dataset":"新北市食品抽驗結果","source_url":"https://fsmc.ntpc.gov.tw/DigitalMap/PublicWebsite","geocoding_address":"新北市板橋區館前西路一九七號","location_method":"來源網站座標","violation_count":1},"geometry":{"type":"Point","coordinates":[121.455225,25.008346]}},{"type":"Feature","properties":{"data_time":"2024-02-26","source_row_no":"105N010413","name":"濟生股份有限公司(新莊廠)","city":"新北市","district":"新莊區","address":"新北市新莊區福營路二二七巷二三號","sample_date":"2024-02-26","project_name":"食品抽驗結果","product_category":"食品添加物","sample_item":"食品添加物","inspection_result":"不合格","violation_reason":"食品抽驗不合格","source_type":"食品抽驗不合格","source_dataset":"新北市食品抽驗結果","source_url":"https://fsmc.ntpc.gov.tw/DigitalMap/PublicWebsite","geocoding_address":"新北市新莊區福營路二二七巷二三號","location_method":"來源網站座標","violation_count":1},"geometry":{"type":"Point","coordinates":[121.430263,25.029462]}},{"type":"Feature","properties":{"data_time":"2024-02-23","source_row_no":"113N001080","name":"蔬喜素食店","city":"新北市","district":"新店區","address":"新北市新店區民權路一一六號","sample_date":"2024-02-23","project_name":"食品抽驗結果","product_category":"農藥殘留","sample_item":"農藥殘留","inspection_result":"不合格","violation_reason":"食品抽驗不合格","source_type":"食品抽驗不合格","source_dataset":"新北市食品抽驗結果","source_url":"https://fsmc.ntpc.gov.tw/DigitalMap/PublicWebsite","geocoding_address":"新北市新店區民權路一一六號","location_method":"來源網站座標","violation_count":1},"geometry":{"type":"Point","coordinates":[121.535493,24.982981]}},{"type":"Feature","properties":{"data_time":"2024-02-21","source_row_no":"113N001006","name":"無市招攤商","city":"新北市","district":"板橋區","address":"新北市板橋區四維路二六九巷二五號","sample_date":"2024-02-21","project_name":"食品抽驗結果","product_category":"農藥殘留","sample_item":"農藥殘留","inspection_result":"不合格","violation_reason":"食品抽驗不合格","source_type":"食品抽驗不合格","source_dataset":"新北市食品抽驗結果","source_url":"https://fsmc.ntpc.gov.tw/DigitalMap/PublicWebsite","geocoding_address":"新北市板橋區四維路二六九巷二五號","location_method":"來源網站座標","violation_count":1},"geometry":{"type":"Point","coordinates":[121.462231,25.02788]}},{"type":"Feature","properties":{"data_time":"2024-02-19","source_row_no":"112N006859","name":"金好佳牛排館","city":"新北市","district":"新莊區","address":"新北市新莊區中港路五零一號","sample_date":"2024-02-19","project_name":"食品抽驗結果","product_category":"食品微生物","sample_item":"食品微生物","inspection_result":"不合格","violation_reason":"食品抽驗不合格","source_type":"食品抽驗不合格","source_dataset":"新北市食品抽驗結果","source_url":"https://fsmc.ntpc.gov.tw/DigitalMap/PublicWebsite","geocoding_address":"新北市新莊區中港路五零一號","location_method":"來源網站座標","violation_count":1},"geometry":{"type":"Point","coordinates":[121.452048,25.050393]}},{"type":"Feature","properties":{"data_time":"2024-02-16","source_row_no":"113N000065","name":"緣鮮茂有限公司","city":"新北市","district":"蘆洲區","address":"新北市蘆洲區信義路二四二號","sample_date":"2024-02-16","project_name":"食品抽驗結果","product_category":"食品微生物","sample_item":"食品微生物","inspection_result":"不合格","violation_reason":"食品抽驗不合格","source_type":"食品抽驗不合格","source_dataset":"新北市食品抽驗結果","source_url":"https://fsmc.ntpc.gov.tw/DigitalMap/PublicWebsite","geocoding_address":"新北市蘆洲區信義路二四二號","location_method":"來源網站座標","violation_count":1},"geometry":{"type":"Point","coordinates":[121.478616,25.086131]}},{"type":"Feature","properties":{"data_time":"2024-02-02","source_row_no":"105N009682","name":"義峰食品股份有限公司","city":"新北市","district":"土城區","address":"新北市土城區忠義路五五巷六四之七號","sample_date":"2024-02-02","project_name":"食品抽驗結果","product_category":"食品添加物","sample_item":"食品添加物","inspection_result":"不合格","violation_reason":"食品抽驗不合格","source_type":"食品抽驗不合格","source_dataset":"新北市食品抽驗結果","source_url":"https://fsmc.ntpc.gov.tw/DigitalMap/PublicWebsite","geocoding_address":"新北市土城區忠義路五五巷六四之七號","location_method":"來源網站座標","violation_count":1},"geometry":{"type":"Point","coordinates":[121.444868,24.966846]}},{"type":"Feature","properties":{"data_time":"2024-01-30","source_row_no":"112N001697","name":"無市招攤商","city":"新北市","district":"中和區","address":"新北市中和區新生街二二零巷一五弄一二號","sample_date":"2024-01-30","project_name":"食品抽驗結果","product_category":"食品添加物","sample_item":"食品添加物","inspection_result":"不合格","violation_reason":"食品抽驗不合格","source_type":"食品抽驗不合格","source_dataset":"新北市食品抽驗結果","source_url":"https://fsmc.ntpc.gov.tw/DigitalMap/PublicWebsite","geocoding_address":"新北市中和區新生街二二零巷一五弄一二號","location_method":"來源網站座標","violation_count":1},"geometry":{"type":"Point","coordinates":[121.482843,24.997929]}},{"type":"Feature","properties":{"data_time":"2024-01-30","source_row_no":"113N000638","name":"茶聚點小吃店","city":"新北市","district":"三重區","address":"新北市三重區三和路一二一號","sample_date":"2024-01-30","project_name":"食品抽驗結果","product_category":"食品添加物","sample_item":"食品添加物","inspection_result":"不合格","violation_reason":"食品抽驗不合格","source_type":"食品抽驗不合格","source_dataset":"新北市食品抽驗結果","source_url":"https://fsmc.ntpc.gov.tw/DigitalMap/PublicWebsite","geocoding_address":"新北市三重區三和路一二一號","location_method":"來源網站座標","violation_count":1},"geometry":{"type":"Point","coordinates":[121.485123,25.077734]}},{"type":"Feature","properties":{"data_time":"2024-01-23","source_row_no":"113N000505","name":"無市招水果攤","city":"新北市","district":"三峽區","address":"新北市三峽區和平街七號","sample_date":"2024-01-23","project_name":"食品抽驗結果","product_category":"農藥殘留","sample_item":"農藥殘留","inspection_result":"不合格","violation_reason":"食品抽驗不合格","source_type":"食品抽驗不合格","source_dataset":"新北市食品抽驗結果","source_url":"https://fsmc.ntpc.gov.tw/DigitalMap/PublicWebsite","geocoding_address":"新北市三峽區和平街七號","location_method":"來源網站座標","violation_count":1},"geometry":{"type":"Point","coordinates":[121.37032,24.934969]}},{"type":"Feature","properties":{"data_time":"2024-01-19","source_row_no":"113N000360","name":"甜蜜蜜水果行","city":"新北市","district":"新店區","address":"新北市新店區民權路一二零號","sample_date":"2024-01-19","project_name":"食品抽驗結果","product_category":"農藥殘留","sample_item":"農藥殘留","inspection_result":"不合格","violation_reason":"食品抽驗不合格","source_type":"食品抽驗不合格","source_dataset":"新北市食品抽驗結果","source_url":"https://fsmc.ntpc.gov.tw/DigitalMap/PublicWebsite","geocoding_address":"新北市新店區民權路一二零號","location_method":"來源網站座標","violation_count":1},"geometry":{"type":"Point","coordinates":[121.535298,24.982953]}},{"type":"Feature","properties":{"data_time":"2023-12-26","source_row_no":"112N013193","name":"永山蔬菓大賣場","city":"新北市","district":"中和區","address":"新北市中和區安樂路九九之六號","sample_date":"2023-12-26","project_name":"食品抽驗結果","product_category":"農藥殘留","sample_item":"農藥殘留","inspection_result":"不合格","violation_reason":"食品抽驗不合格","source_type":"食品抽驗不合格","source_dataset":"新北市食品抽驗結果","source_url":"https://fsmc.ntpc.gov.tw/DigitalMap/PublicWebsite","geocoding_address":"新北市中和區安樂路九九之六號","location_method":"來源網站座標","violation_count":1},"geometry":{"type":"Point","coordinates":[121.513192,24.994858]}},{"type":"Feature","properties":{"data_time":"2023-12-26","source_row_no":"112N013205","name":"無市招","city":"新北市","district":"五股區","address":"新北市五股區凌雲路一段八三巷一零弄一號","sample_date":"2023-12-26","project_name":"食品抽驗結果","product_category":"農藥殘留","sample_item":"農藥殘留","inspection_result":"不合格","violation_reason":"食品抽驗不合格","source_type":"食品抽驗不合格","source_dataset":"新北市食品抽驗結果","source_url":"https://fsmc.ntpc.gov.tw/DigitalMap/PublicWebsite","geocoding_address":"新北市五股區凌雲路一段八三巷一零弄一號","location_method":"來源網站座標","violation_count":1},"geometry":{"type":"Point","coordinates":[121.450433,25.100952]}},{"type":"Feature","properties":{"data_time":"2023-12-25","source_row_no":"112N012170","name":"自由聯盟生鮮超市淡水店","city":"新北市","district":"淡水區","address":"新北市淡水區淡金路三段四零五之二號","sample_date":"2023-12-25","project_name":"食品抽驗結果","product_category":"食品添加物","sample_item":"食品添加物","inspection_result":"不合格","violation_reason":"食品抽驗不合格","source_type":"食品抽驗不合格","source_dataset":"新北市食品抽驗結果","source_url":"https://fsmc.ntpc.gov.tw/DigitalMap/PublicWebsite","geocoding_address":"新北市淡水區淡金路三段四零五之二號","location_method":"來源網站座標","violation_count":1},"geometry":{"type":"Point","coordinates":[121.448956,25.208553]}},{"type":"Feature","properties":{"data_time":"2023-12-22","source_row_no":"112N012143","name":"無市招攤商","city":"新北市","district":"板橋區","address":"新北市板橋區民享街七六號","sample_date":"2023-12-22","project_name":"食品抽驗結果","product_category":"食品添加物","sample_item":"食品添加物","inspection_result":"不合格","violation_reason":"食品抽驗不合格","source_type":"食品抽驗不合格","source_dataset":"新北市食品抽驗結果","source_url":"https://fsmc.ntpc.gov.tw/DigitalMap/PublicWebsite","geocoding_address":"新北市板橋區民享街七六號","location_method":"來源網站座標","violation_count":1},"geometry":{"type":"Point","coordinates":[121.47673,25.015448]}},{"type":"Feature","properties":{"data_time":"2023-12-22","source_row_no":"106N003932","name":"無市招攤商","city":"新北市","district":"新店區","address":"新北市新店區建國路四零號","sample_date":"2023-12-22","project_name":"食品抽驗結果","product_category":"食品添加物","sample_item":"食品添加物","inspection_result":"不合格","violation_reason":"食品抽驗不合格","source_type":"食品抽驗不合格","source_dataset":"新北市食品抽驗結果","source_url":"https://fsmc.ntpc.gov.tw/DigitalMap/PublicWebsite","geocoding_address":"新北市新店區建國路四零號","location_method":"來源網站座標","violation_count":1},"geometry":{"type":"Point","coordinates":[121.540618,24.974802]}},{"type":"Feature","properties":{"data_time":"2023-12-21","source_row_no":"110N007804","name":"昱達火鍋料","city":"新北市","district":"林口區","address":"新北市林口區林口路一五號","sample_date":"2023-12-21","project_name":"食品抽驗結果","product_category":"食品添加物","sample_item":"食品添加物","inspection_result":"不合格","violation_reason":"食品抽驗不合格","source_type":"食品抽驗不合格","source_dataset":"新北市食品抽驗結果","source_url":"https://fsmc.ntpc.gov.tw/DigitalMap/PublicWebsite","geocoding_address":"新北市林口區林口路一五號","location_method":"來源網站座標","violation_count":1},"geometry":{"type":"Point","coordinates":[121.391441,25.077891]}},{"type":"Feature","properties":{"data_time":"2023-11-28","source_row_no":"112N011330","name":"無市招攤商","city":"新北市","district":"板橋區","address":"新北市板橋區四維路二六九巷四八號","sample_date":"2023-11-28","project_name":"食品抽驗結果","product_category":"食品添加物","sample_item":"食品添加物","inspection_result":"不合格","violation_reason":"食品抽驗不合格","source_type":"食品抽驗不合格","source_dataset":"新北市食品抽驗結果","source_url":"https://fsmc.ntpc.gov.tw/DigitalMap/PublicWebsite","geocoding_address":"新北市板橋區四維路二六九巷四八號","location_method":"來源網站座標","violation_count":1},"geometry":{"type":"Point","coordinates":[121.46123,25.027509]}},{"type":"Feature","properties":{"data_time":"2023-11-27","source_row_no":"112N011287","name":"鼓勵榖粒","city":"新北市","district":"永和區","address":"新北市永和區永亨路四號","sample_date":"2023-11-27","project_name":"食品抽驗結果","product_category":"食品添加物","sample_item":"食品添加物","inspection_result":"不合格","violation_reason":"食品抽驗不合格","source_type":"食品抽驗不合格","source_dataset":"新北市食品抽驗結果","source_url":"https://fsmc.ntpc.gov.tw/DigitalMap/PublicWebsite","geocoding_address":"新北市永和區永亨路四號","location_method":"來源網站座標","violation_count":1},"geometry":{"type":"Point","coordinates":[121.519213,25.005464]}},{"type":"Feature","properties":{"data_time":"2023-11-16","source_row_no":"112N010800","name":"阿田師肉包饅頭","city":"新北市","district":"蘆洲區","address":"新北市蘆洲區忠孝路五四號","sample_date":"2023-11-16","project_name":"食品抽驗結果","product_category":"食品添加物","sample_item":"食品添加物","inspection_result":"不合格","violation_reason":"食品抽驗不合格","source_type":"食品抽驗不合格","source_dataset":"新北市食品抽驗結果","source_url":"https://fsmc.ntpc.gov.tw/DigitalMap/PublicWebsite","geocoding_address":"新北市蘆洲區忠孝路五四號","location_method":"來源網站座標","violation_count":1},"geometry":{"type":"Point","coordinates":[121.471518,25.084702]}},{"type":"Feature","properties":{"data_time":"2023-11-15","source_row_no":"112N010720","name":"經元老麵工坊","city":"新北市","district":"汐止區","address":"新北市汐止區福德一路二一三巷七號一樓","sample_date":"2023-11-15","project_name":"食品抽驗結果","product_category":"食品添加物","sample_item":"食品添加物","inspection_result":"不合格","violation_reason":"食品抽驗不合格","source_type":"食品抽驗不合格","source_dataset":"新北市食品抽驗結果","source_url":"https://fsmc.ntpc.gov.tw/DigitalMap/PublicWebsite","geocoding_address":"新北市汐止區福德一路二一三巷七號一樓","location_method":"來源網站座標","violation_count":1},"geometry":{"type":"Point","coordinates":[121.6351,25.065111]}},{"type":"Feature","properties":{"data_time":"2023-10-24","source_row_no":"112N009242","name":"正益蔬果聯盟","city":"新北市","district":"林口區","address":"新北市林口區中正路一七二號","sample_date":"2023-10-24","project_name":"食品抽驗結果","product_category":"農藥殘留","sample_item":"農藥殘留","inspection_result":"不合格","violation_reason":"食品抽驗不合格","source_type":"食品抽驗不合格","source_dataset":"新北市食品抽驗結果","source_url":"https://fsmc.ntpc.gov.tw/DigitalMap/PublicWebsite","geocoding_address":"新北市林口區中正路一七二號","location_method":"來源網站座標","violation_count":1},"geometry":{"type":"Point","coordinates":[121.392154,25.07747]}},{"type":"Feature","properties":{"data_time":"2023-10-23","source_row_no":"102N008297","name":"津茂冷飲","city":"新北市","district":"板橋區","address":"新北市板橋區中山路二段一八三號","sample_date":"2023-10-23","project_name":"食品抽驗結果","product_category":"食品添加物","sample_item":"食品添加物","inspection_result":"不合格","violation_reason":"食品抽驗不合格","source_type":"食品抽驗不合格","source_dataset":"新北市食品抽驗結果","source_url":"https://fsmc.ntpc.gov.tw/DigitalMap/PublicWebsite","geocoding_address":"新北市板橋區中山路二段一八三號","location_method":"來源網站座標","violation_count":1},"geometry":{"type":"Point","coordinates":[121.476193,25.017039]}},{"type":"Feature","properties":{"data_time":"2023-10-16","source_row_no":"112N007779","name":"林蜂肉粽攤","city":"新北市","district":"石門區","address":"新北市石門區阿里磅一之一號","sample_date":"2023-10-16","project_name":"食品抽驗結果","product_category":"食品微生物","sample_item":"食品微生物","inspection_result":"不合格","violation_reason":"食品抽驗不合格","source_type":"食品抽驗不合格","source_dataset":"新北市食品抽驗結果","source_url":"https://fsmc.ntpc.gov.tw/DigitalMap/PublicWebsite","geocoding_address":"新北市石門區阿里磅一之一號","location_method":"來源網站座標","violation_count":1},"geometry":{"type":"Point","coordinates":[121.585993,25.292391]}},{"type":"Feature","properties":{"data_time":"2023-09-28","source_row_no":"112N008661","name":"歆浩小吃店","city":"新北市","district":"三重區","address":"新北市三重區重新路二段四八號","sample_date":"2023-09-28","project_name":"食品抽驗結果","product_category":"農藥殘留","sample_item":"農藥殘留","inspection_result":"不合格","violation_reason":"食品抽驗不合格","source_type":"食品抽驗不合格","source_dataset":"新北市食品抽驗結果","source_url":"https://fsmc.ntpc.gov.tw/DigitalMap/PublicWebsite","geocoding_address":"新北市三重區重新路二段四八號","location_method":"來源網站座標","violation_count":1},"geometry":{"type":"Point","coordinates":[121.498369,25.062271]}},{"type":"Feature","properties":{"data_time":"2023-09-27","source_row_no":"112N008667","name":"甘龍雜糧行","city":"新北市","district":"新店區","address":"新北市新店區安德街八五號","sample_date":"2023-09-27","project_name":"食品抽驗結果","product_category":"農藥殘留","sample_item":"農藥殘留","inspection_result":"不合格","violation_reason":"食品抽驗不合格","source_type":"食品抽驗不合格","source_dataset":"新北市食品抽驗結果","source_url":"https://fsmc.ntpc.gov.tw/DigitalMap/PublicWebsite","geocoding_address":"新北市新店區安德街八五號","location_method":"來源網站座標","violation_count":1},"geometry":{"type":"Point","coordinates":[121.509574,24.960937]}},{"type":"Feature","properties":{"data_time":"2023-09-22","source_row_no":"101N010778","name":"紅樹林鐵板燒","city":"新北市","district":"永和區","address":"新北市永和區中山路一段二三八號B二樓","sample_date":"2023-09-22","project_name":"食品抽驗結果","product_category":"食品添加物","sample_item":"食品添加物","inspection_result":"不合格","violation_reason":"食品抽驗不合格","source_type":"食品抽驗不合格","source_dataset":"新北市食品抽驗結果","source_url":"https://fsmc.ntpc.gov.tw/DigitalMap/PublicWebsite","geocoding_address":"新北市永和區中山路一段二三八號B二樓","location_method":"來源網站座標","violation_count":1},"geometry":{"type":"Point","coordinates":[121.507646,25.007836]}},{"type":"Feature","properties":{"data_time":"2023-09-22","source_row_no":"110N007950","name":"鼎豐養生甜品店","city":"新北市","district":"板橋區","address":"新北市板橋區華興街二二號","sample_date":"2023-09-22","project_name":"食品抽驗結果","product_category":"食品微生物","sample_item":"食品微生物","inspection_result":"不合格","violation_reason":"食品抽驗不合格","source_type":"食品抽驗不合格","source_dataset":"新北市食品抽驗結果","source_url":"https://fsmc.ntpc.gov.tw/DigitalMap/PublicWebsite","geocoding_address":"新北市板橋區華興街二二號","location_method":"來源網站座標","violation_count":1},"geometry":{"type":"Point","coordinates":[121.459116,25.004716]}},{"type":"Feature","properties":{"data_time":"2023-09-07","source_row_no":"112N007159","name":"市招：K&MTurkish ice cream","city":"新北市","district":"淡水區","address":"新北市淡水區中正路一一巷一號","sample_date":"2023-09-07","project_name":"食品抽驗結果","product_category":"食品微生物","sample_item":"食品微生物","inspection_result":"不合格","violation_reason":"食品抽驗不合格","source_type":"食品抽驗不合格","source_dataset":"新北市食品抽驗結果","source_url":"https://fsmc.ntpc.gov.tw/DigitalMap/PublicWebsite","geocoding_address":"新北市淡水區中正路一一巷一號","location_method":"來源網站座標","violation_count":1},"geometry":{"type":"Point","coordinates":[121.439039,25.170089]}},{"type":"Feature","properties":{"data_time":"2023-08-30","source_row_no":"112N007873","name":"市招:吳批發","city":"新北市","district":"蘆洲區","address":"新北市蘆洲區復興路四一零巷一一號","sample_date":"2023-08-30","project_name":"食品抽驗結果","product_category":"食品添加物","sample_item":"食品添加物","inspection_result":"不合格","violation_reason":"食品抽驗不合格","source_type":"食品抽驗不合格","source_dataset":"新北市食品抽驗結果","source_url":"https://fsmc.ntpc.gov.tw/DigitalMap/PublicWebsite","geocoding_address":"新北市蘆洲區復興路四一零巷一一號","location_method":"來源網站座標","violation_count":1},"geometry":{"type":"Point","coordinates":[121.484557,25.090849]}},{"type":"Feature","properties":{"data_time":"2023-08-29","source_row_no":"112N003888","name":"無市招攤商","city":"新北市","district":"板橋區","address":"新北市板橋區民享街一四二巷一零號","sample_date":"2023-08-29","project_name":"食品抽驗結果","product_category":"農藥殘留","sample_item":"農藥殘留","inspection_result":"不合格","violation_reason":"食品抽驗不合格","source_type":"食品抽驗不合格","source_dataset":"新北市食品抽驗結果","source_url":"https://fsmc.ntpc.gov.tw/DigitalMap/PublicWebsite","geocoding_address":"新北市板橋區民享街一四二巷一零號","location_method":"來源網站座標","violation_count":1},"geometry":{"type":"Point","coordinates":[121.478145,25.016642]}},{"type":"Feature","properties":{"data_time":"2023-08-25","source_row_no":"112N007738","name":"無市招攤商","city":"新北市","district":"板橋區","address":"新北市板橋區重慶路二九零巷二四樓","sample_date":"2023-08-25","project_name":"食品抽驗結果","product_category":"食品添加物","sample_item":"食品添加物","inspection_result":"不合格","violation_reason":"食品抽驗不合格","source_type":"食品抽驗不合格","source_dataset":"新北市食品抽驗結果","source_url":"https://fsmc.ntpc.gov.tw/DigitalMap/PublicWebsite","geocoding_address":"新北市板橋區重慶路二九零巷二四樓","location_method":"來源網站座標","violation_count":1},"geometry":{"type":"Point","coordinates":[121.461213,24.998603]}},{"type":"Feature","properties":{"data_time":"2023-08-25","source_row_no":"112N007742","name":"無市招蔬菜商","city":"新北市","district":"林口區","address":"新北市林口區中正路一七五號","sample_date":"2023-08-25","project_name":"食品抽驗結果","product_category":"食品添加物","sample_item":"食品添加物","inspection_result":"不合格","violation_reason":"食品抽驗不合格","source_type":"食品抽驗不合格","source_dataset":"新北市食品抽驗結果","source_url":"https://fsmc.ntpc.gov.tw/DigitalMap/PublicWebsite","geocoding_address":"新北市林口區中正路一七五號","location_method":"來源網站座標","violation_count":1},"geometry":{"type":"Point","coordinates":[121.392402,25.077308]}},{"type":"Feature","properties":{"data_time":"2023-08-23","source_row_no":"108N006343","name":"三丸企業社(614號攤)","city":"新北市","district":"蘆洲區","address":"新北市蘆洲區復興路四一零巷一一號","sample_date":"2023-08-23","project_name":"食品抽驗結果","product_category":"食品添加物","sample_item":"食品添加物","inspection_result":"不合格","violation_reason":"食品抽驗不合格","source_type":"食品抽驗不合格","source_dataset":"新北市食品抽驗結果","source_url":"https://fsmc.ntpc.gov.tw/DigitalMap/PublicWebsite","geocoding_address":"新北市蘆洲區復興路四一零巷一一號","location_method":"來源網站座標","violation_count":1},"geometry":{"type":"Point","coordinates":[121.484557,25.090849]}},{"type":"Feature","properties":{"data_time":"2023-08-22","source_row_no":"112N007615","name":"無市招","city":"新北市","district":"土城區","address":"新北市土城區廣明街六三巷二弄七號","sample_date":"2023-08-22","project_name":"食品抽驗結果","product_category":"食品添加物","sample_item":"食品添加物","inspection_result":"不合格","violation_reason":"食品抽驗不合格","source_type":"食品抽驗不合格","source_dataset":"新北市食品抽驗結果","source_url":"https://fsmc.ntpc.gov.tw/DigitalMap/PublicWebsite","geocoding_address":"新北市土城區廣明街六三巷二弄七號","location_method":"來源網站座標","violation_count":1},"geometry":{"type":"Point","coordinates":[121.454536,24.99372]}},{"type":"Feature","properties":{"data_time":"2023-08-09","source_row_no":"112N007343","name":"其肯企業社","city":"新北市","district":"新店區","address":"新北市新店區車子路一三二之三號","sample_date":"2023-08-09","project_name":"食品抽驗結果","product_category":"食品添加物","sample_item":"食品添加物","inspection_result":"不合格","violation_reason":"食品抽驗不合格","source_type":"食品抽驗不合格","source_dataset":"新北市食品抽驗結果","source_url":"https://fsmc.ntpc.gov.tw/DigitalMap/PublicWebsite","geocoding_address":"新北市新店區車子路一三二之三號","location_method":"來源網站座標","violation_count":1},"geometry":{"type":"Point","coordinates":[121.507804,24.948554]}},{"type":"Feature","properties":{"data_time":"2023-07-25","source_row_no":"110N009422","name":"帝寶土城餐飲有限公司","city":"新北市","district":"土城區","address":"新北市土城區學士路一四號","sample_date":"2023-07-25","project_name":"食品抽驗結果","product_category":"食品微生物","sample_item":"食品微生物","inspection_result":"不合格","violation_reason":"食品抽驗不合格","source_type":"食品抽驗不合格","source_dataset":"新北市食品抽驗結果","source_url":"https://fsmc.ntpc.gov.tw/DigitalMap/PublicWebsite","geocoding_address":"新北市土城區學士路一四號","location_method":"來源網站座標","violation_count":1},"geometry":{"type":"Point","coordinates":[121.453475,24.982996]}},{"type":"Feature","properties":{"data_time":"2023-07-20","source_row_no":"112N006999","name":"金元寶","city":"新北市","district":"樹林區","address":"新北市樹林區太平路八五號","sample_date":"2023-07-20","project_name":"食品抽驗結果","product_category":"食品添加物","sample_item":"食品添加物","inspection_result":"不合格","violation_reason":"食品抽驗不合格","source_type":"食品抽驗不合格","source_dataset":"新北市食品抽驗結果","source_url":"https://fsmc.ntpc.gov.tw/DigitalMap/PublicWebsite","geocoding_address":"新北市樹林區太平路八五號","location_method":"來源網站座標","violation_count":1},"geometry":{"type":"Point","coordinates":[121.419094,24.981528]}},{"type":"Feature","properties":{"data_time":"2023-07-18","source_row_no":"109N019136","name":"百壽素食包子","city":"新北市","district":"板橋區","address":"新北市板橋區文化路一段一八八巷七弄三四號一樓","sample_date":"2023-07-18","project_name":"食品抽驗結果","product_category":"食品添加物","sample_item":"食品添加物","inspection_result":"不合格","violation_reason":"食品抽驗不合格","source_type":"食品抽驗不合格","source_dataset":"新北市食品抽驗結果","source_url":"https://fsmc.ntpc.gov.tw/DigitalMap/PublicWebsite","geocoding_address":"新北市板橋區文化路一段一八八巷七弄三四號一樓","location_method":"來源網站座標","violation_count":1},"geometry":{"type":"Point","coordinates":[121.468022,25.01948]}},{"type":"Feature","properties":{"data_time":"2023-07-13","source_row_no":"112N006860","name":"三澧企業股份有限公司C29新莊宏匯","city":"新北市","district":"新莊區","address":"新北市新莊區新北大道四段三號六樓","sample_date":"2023-07-13","project_name":"食品抽驗結果","product_category":"農藥殘留","sample_item":"農藥殘留","inspection_result":"不合格","violation_reason":"食品抽驗不合格","source_type":"食品抽驗不合格","source_dataset":"新北市食品抽驗結果","source_url":"https://fsmc.ntpc.gov.tw/DigitalMap/PublicWebsite","geocoding_address":"新北市新莊區新北大道四段三號六樓","location_method":"來源網站座標","violation_count":1},"geometry":{"type":"Point","coordinates":[121.449452,25.059943]}},{"type":"Feature","properties":{"data_time":"2023-07-13","source_row_no":"112N006861","name":"金永心事業有限公司蘆洲分店","city":"新北市","district":"三重區","address":"新北市三重區五華街二八二號","sample_date":"2023-07-13","project_name":"食品抽驗結果","product_category":"農藥殘留","sample_item":"農藥殘留","inspection_result":"不合格","violation_reason":"食品抽驗不合格","source_type":"食品抽驗不合格","source_dataset":"新北市食品抽驗結果","source_url":"https://fsmc.ntpc.gov.tw/DigitalMap/PublicWebsite","geocoding_address":"新北市三重區五華街二八二號","location_method":"來源網站座標","violation_count":1},"geometry":{"type":"Point","coordinates":[121.486479,25.087995]}},{"type":"Feature","properties":{"data_time":"2023-07-03","source_row_no":"112N006647","name":"逢興生物科技股份有限公司","city":"新北市","district":"中和區","address":"新北市中和區立德街一四八巷五零號五樓","sample_date":"2023-07-03","project_name":"食品抽驗結果","product_category":"食品添加物","sample_item":"食品添加物","inspection_result":"不合格","violation_reason":"食品抽驗不合格","source_type":"食品抽驗不合格","source_dataset":"新北市食品抽驗結果","source_url":"https://fsmc.ntpc.gov.tw/DigitalMap/PublicWebsite","geocoding_address":"新北市中和區立德街一四八巷五零號五樓","location_method":"來源網站座標","violation_count":1},"geometry":{"type":"Point","coordinates":[121.486352,25.009222]}},{"type":"Feature","properties":{"data_time":"2023-06-28","source_row_no":"112N006557","name":"陞豐食品商行","city":"新北市","district":"樹林區","address":"新北市樹林區博愛街五六號","sample_date":"2023-06-28","project_name":"食品抽驗結果","product_category":"食品添加物","sample_item":"食品添加物","inspection_result":"不合格","violation_reason":"食品抽驗不合格","source_type":"食品抽驗不合格","source_dataset":"新北市食品抽驗結果","source_url":"https://fsmc.ntpc.gov.tw/DigitalMap/PublicWebsite","geocoding_address":"新北市樹林區博愛街五六號","location_method":"來源網站座標","violation_count":1},"geometry":{"type":"Point","coordinates":[121.427272,24.992501]}},{"type":"Feature","properties":{"data_time":"2023-06-28","source_row_no":"102N004755","name":"永和豆漿","city":"新北市","district":"蘆洲區","address":"新北市蘆洲區集賢路二二四巷二八號","sample_date":"2023-06-28","project_name":"食品抽驗結果","product_category":"食品微生物","sample_item":"食品微生物","inspection_result":"不合格","violation_reason":"食品抽驗不合格","source_type":"食品抽驗不合格","source_dataset":"新北市食品抽驗結果","source_url":"https://fsmc.ntpc.gov.tw/DigitalMap/PublicWebsite","geocoding_address":"新北市蘆洲區集賢路二二四巷二八號","location_method":"來源網站座標","violation_count":1},"geometry":{"type":"Point","coordinates":[121.481522,25.087526]}},{"type":"Feature","properties":{"data_time":"2023-06-27","source_row_no":"111N004188","name":"無市招豆腐攤","city":"新北市","district":"板橋區","address":"新北市板橋區江寧路三段一一五號","sample_date":"2023-06-27","project_name":"食品抽驗結果","product_category":"食品添加物","sample_item":"食品添加物","inspection_result":"不合格","violation_reason":"食品抽驗不合格","source_type":"食品抽驗不合格","source_dataset":"新北市食品抽驗結果","source_url":"https://fsmc.ntpc.gov.tw/DigitalMap/PublicWebsite","geocoding_address":"新北市板橋區江寧路三段一一五號","location_method":"來源網站座標","violation_count":1},"geometry":{"type":"Point","coordinates":[121.473019,25.032976]}},{"type":"Feature","properties":{"data_time":"2023-06-15","source_row_no":"112N005274","name":"深坑阿珠芋圓","city":"新北市","district":"深坑區","address":"新北市深坑區深坑街一三二號","sample_date":"2023-06-15","project_name":"食品抽驗結果","product_category":"食品添加物","sample_item":"食品添加物","inspection_result":"不合格","violation_reason":"食品抽驗不合格","source_type":"食品抽驗不合格","source_dataset":"新北市食品抽驗結果","source_url":"https://fsmc.ntpc.gov.tw/DigitalMap/PublicWebsite","geocoding_address":"新北市深坑區深坑街一三二號","location_method":"來源網站座標","violation_count":1},"geometry":{"type":"Point","coordinates":[121.613381,25.001319]}},{"type":"Feature","properties":{"data_time":"2023-06-13","source_row_no":"111N010055","name":"阿珠芋圓","city":"新北市","district":"深坑區","address":"新北市深坑區深坑街一三四號","sample_date":"2023-06-13","project_name":"食品抽驗結果","product_category":"食品添加物","sample_item":"食品添加物","inspection_result":"不合格","violation_reason":"食品抽驗不合格","source_type":"食品抽驗不合格","source_dataset":"新北市食品抽驗結果","source_url":"https://fsmc.ntpc.gov.tw/DigitalMap/PublicWebsite","geocoding_address":"新北市深坑區深坑街一三四號","location_method":"來源網站座標","violation_count":1},"geometry":{"type":"Point","coordinates":[121.613341,25.001307]}},{"type":"Feature","properties":{"data_time":"2023-06-06","source_row_no":"112N004274","name":"伊丸商行","city":"新北市","district":"新莊區","address":"新北市新莊區化成路二八三號一樓","sample_date":"2023-06-06","project_name":"食品抽驗結果","product_category":"食品微生物","sample_item":"食品微生物","inspection_result":"不合格","violation_reason":"食品抽驗不合格","source_type":"食品抽驗不合格","source_dataset":"新北市食品抽驗結果","source_url":"https://fsmc.ntpc.gov.tw/DigitalMap/PublicWebsite","geocoding_address":"新北市新莊區化成路二八三號一樓","location_method":"來源網站座標","violation_count":1},"geometry":{"type":"Point","coordinates":[121.466002,25.054777]}},{"type":"Feature","properties":{"data_time":"2023-05-24","source_row_no":"112N004914","name":"無市招菜販","city":"新北市","district":"中和區","address":"新北市中和區安樂路二巷三零弄四七號","sample_date":"2023-05-24","project_name":"食品抽驗結果","product_category":"農藥殘留","sample_item":"農藥殘留","inspection_result":"不合格","violation_reason":"食品抽驗不合格","source_type":"食品抽驗不合格","source_dataset":"新北市食品抽驗結果","source_url":"https://fsmc.ntpc.gov.tw/DigitalMap/PublicWebsite","geocoding_address":"新北市中和區安樂路二巷三零弄四七號","location_method":"來源網站座標","violation_count":1},"geometry":{"type":"Point","coordinates":[121.512711,24.991023]}},{"type":"Feature","properties":{"data_time":"2023-05-23","source_row_no":"112N004897","name":"無市招攤商","city":"新北市","district":"板橋區","address":"新北市板橋區國慶路一四九巷三弄一號","sample_date":"2023-05-23","project_name":"食品抽驗結果","product_category":"農藥殘留","sample_item":"農藥殘留","inspection_result":"不合格","violation_reason":"食品抽驗不合格","source_type":"食品抽驗不合格","source_dataset":"新北市食品抽驗結果","source_url":"https://fsmc.ntpc.gov.tw/DigitalMap/PublicWebsite","geocoding_address":"新北市板橋區國慶路一四九巷三弄一號","location_method":"來源網站座標","violation_count":1},"geometry":{"type":"Point","coordinates":[121.461151,24.996817]}},{"type":"Feature","properties":{"data_time":"2023-05-02","source_row_no":"112N004447","name":"無市招菜攤","city":"新北市","district":"三重區","address":"新北市三重區力行路一段三八巷二號","sample_date":"2023-05-02","project_name":"食品抽驗結果","product_category":"農藥殘留","sample_item":"農藥殘留","inspection_result":"不合格","violation_reason":"食品抽驗不合格","source_type":"食品抽驗不合格","source_dataset":"新北市食品抽驗結果","source_url":"https://fsmc.ntpc.gov.tw/DigitalMap/PublicWebsite","geocoding_address":"新北市三重區力行路一段三八巷二號","location_method":"來源網站座標","violation_count":1},"geometry":{"type":"Point","coordinates":[121.486093,25.067803]}}]}