{"type":"FeatureCollection","features":[{"type":"Feature","geometry":{"type":"Point","coordinates":[121.451488,25.046821]},"properties":{"data_time":"2025-11-26","source_row_no":"113N003712","registration_no":"113N003712","name":"來思齋素食店","city":"新北市","district":"新莊區","address":"新北市新莊區中港路三八五號一樓","phone":"","audit_date":"2025-11-26","business_category":"餐飲業","inspection_result":"複查不合格","violation_reason":"複查不合格","source_type":"環境衛生查核違規","source_dataset":"新北市環境衛生查核","source_url":"https://fsmc.ntpc.gov.tw/DigitalMap/PublicWebsite","aggregate_reference_url":"","location_method":"來源網站座標","violation_count":1}},{"type":"Feature","geometry":{"type":"Point","coordinates":[121.469955,25.024627]},"properties":{"data_time":"2025-11-25","source_row_no":"106N005324","registration_no":"106N005324","name":"阿足自助餐(市招:天味精緻餐盒)","city":"新北市","district":"板橋區","address":"新北市板橋區莒光路二二號","phone":"","audit_date":"2025-11-25","business_category":"餐飲業","inspection_result":"複查不合格","violation_reason":"複查不合格","source_type":"環境衛生查核違規","source_dataset":"新北市環境衛生查核","source_url":"https://fsmc.ntpc.gov.tw/DigitalMap/PublicWebsite","aggregate_reference_url":"","location_method":"來源網站座標","violation_count":1}},{"type":"Feature","geometry":{"type":"Point","coordinates":[121.486175,25.057522]},"properties":{"data_time":"2025-11-18","source_row_no":"109N015019","registration_no":"109N015019","name":"巨琩國際貿易有限公司","city":"新北市","district":"三重區","address":"新北市三重區重陽路一段二零巷一二號","phone":"","audit_date":"2025-11-18","business_category":"地下工廠","inspection_result":"複查不合格","violation_reason":"複查不合格","source_type":"環境衛生查核違規","source_dataset":"新北市環境衛生查核","source_url":"https://fsmc.ntpc.gov.tw/DigitalMap/PublicWebsite","aggregate_reference_url":"","location_method":"來源網站座標","violation_count":1}},{"type":"Feature","geometry":{"type":"Point","coordinates":[121.514673,25.015173]},"properties":{"data_time":"2025-11-14","source_row_no":"114N016225","registration_no":"114N016225","name":"鴨佬燒味小吃店","city":"新北市","district":"永和區","address":"新北市永和區文化路四八號","phone":"","audit_date":"2025-11-14","business_category":"餐飲業","inspection_result":"複查不合格","violation_reason":"複查不合格","source_type":"環境衛生查核違規","source_dataset":"新北市環境衛生查核","source_url":"https://fsmc.ntpc.gov.tw/DigitalMap/PublicWebsite","aggregate_reference_url":"","location_method":"來源網站座標","violation_count":1}},{"type":"Feature","geometry":{"type":"Point","coordinates":[121.481202,25.008843]},"properties":{"data_time":"2025-11-10","source_row_no":"111N007630","registration_no":"111N007630","name":"東方食集有限公司","city":"新北市","district":"中和區","address":"新北市中和區新民街九四巷一一號一-二樓","phone":"","audit_date":"2025-11-10","business_category":"食品工廠","inspection_result":"複查不合格","violation_reason":"複查不合格","source_type":"環境衛生查核違規","source_dataset":"新北市環境衛生查核","source_url":"https://fsmc.ntpc.gov.tw/DigitalMap/PublicWebsite","aggregate_reference_url":"","location_method":"來源網站座標","violation_count":1}},{"type":"Feature","geometry":{"type":"Point","coordinates":[121.484127,25.011354]},"properties":{"data_time":"2025-10-28","source_row_no":"109N014957","registration_no":"109N014957","name":"玉帛麵包店","city":"新北市","district":"中和區","address":"新北市中和區中板路一五巷八號一樓","phone":"","audit_date":"2025-10-28","business_category":"其他一般食品製造業","inspection_result":"複查不合格","violation_reason":"複查不合格","source_type":"環境衛生查核違規","source_dataset":"新北市環境衛生查核","source_url":"https://fsmc.ntpc.gov.tw/DigitalMap/PublicWebsite","aggregate_reference_url":"","location_method":"來源網站座標","violation_count":1}},{"type":"Feature","geometry":{"type":"Point","coordinates":[121.488928,25.059111]},"properties":{"data_time":"2025-10-13","source_row_no":"111N002447","registration_no":"111N002447","name":"東瀛池上飯包店","city":"新北市","district":"三重區","address":"新北市三重區過圳街一三號","phone":"","audit_date":"2025-10-13","business_category":"餐飲業","inspection_result":"複查不合格","violation_reason":"複查不合格","source_type":"環境衛生查核違規","source_dataset":"新北市環境衛生查核","source_url":"https://fsmc.ntpc.gov.tw/DigitalMap/PublicWebsite","aggregate_reference_url":"","location_method":"來源網站座標","violation_count":1}},{"type":"Feature","geometry":{"type":"Point","coordinates":[121.496016,25.059959]},"properties":{"data_time":"2025-10-13","source_row_no":"114N010347","registration_no":"114N010347","name":"阿林素食","city":"新北市","district":"三重區","address":"新北市三重區大同南路四八之二號","phone":"","audit_date":"2025-10-13","business_category":"餐飲業","inspection_result":"複查不合格","violation_reason":"複查不合格","source_type":"環境衛生查核違規","source_dataset":"新北市環境衛生查核","source_url":"https://fsmc.ntpc.gov.tw/DigitalMap/PublicWebsite","aggregate_reference_url":"","location_method":"來源網站座標","violation_count":1}},{"type":"Feature","geometry":{"type":"Point","coordinates":[121.362174,24.914739]},"properties":{"data_time":"2025-10-07","source_row_no":"114N013066","registration_no":"114N013066","name":"金泉國際貿易有限公司","city":"新北市","district":"三峽區","address":"新北市三峽區麻園一五之三號","phone":"","audit_date":"2025-10-07","business_category":"食品販賣業","inspection_result":"複查不合格","violation_reason":"複查不合格","source_type":"環境衛生查核違規","source_dataset":"新北市環境衛生查核","source_url":"https://fsmc.ntpc.gov.tw/DigitalMap/PublicWebsite","aggregate_reference_url":"","location_method":"來源網站座標","violation_count":1}},{"type":"Feature","geometry":{"type":"Point","coordinates":[121.457466,25.05241]},"properties":{"data_time":"2025-10-03","source_row_no":"106N009818","registration_no":"106N009818","name":"戀味小吃店","city":"新北市","district":"新莊區","address":"新北市新莊區昌明街一二號","phone":"","audit_date":"2025-10-03","business_category":"餐飲業","inspection_result":"複查不合格","violation_reason":"複查不合格","source_type":"環境衛生查核違規","source_dataset":"新北市環境衛生查核","source_url":"https://fsmc.ntpc.gov.tw/DigitalMap/PublicWebsite","aggregate_reference_url":"","location_method":"來源網站座標","violation_count":1}},{"type":"Feature","geometry":{"type":"Point","coordinates":[121.33831,24.955035]},"properties":{"data_time":"2025-10-02","source_row_no":"107N001774","registration_no":"107N001774","name":"永和豆漿","city":"新北市","district":"鶯歌區","address":"新北市鶯歌區永明街一零號","phone":"","audit_date":"2025-10-02","business_category":"餐飲業","inspection_result":"複查不合格","violation_reason":"複查不合格","source_type":"環境衛生查核違規","source_dataset":"新北市環境衛生查核","source_url":"https://fsmc.ntpc.gov.tw/DigitalMap/PublicWebsite","aggregate_reference_url":"","location_method":"來源網站座標","violation_count":1}},{"type":"Feature","geometry":{"type":"Point","coordinates":[121.542034,24.967764]},"properties":{"data_time":"2025-09-24","source_row_no":"113N004088","registration_no":"113N004088","name":"印喬吚餐坊","city":"新北市","district":"新店區","address":"新北市新店區北新路一段八八巷一之一號一樓","phone":"","audit_date":"2025-09-24","business_category":"餐飲業","inspection_result":"複查不合格","violation_reason":"複查不合格","source_type":"環境衛生查核違規","source_dataset":"新北市環境衛生查核","source_url":"https://fsmc.ntpc.gov.tw/DigitalMap/PublicWebsite","aggregate_reference_url":"","location_method":"來源網站座標","violation_count":1}},{"type":"Feature","geometry":{"type":"Point","coordinates":[121.42925,24.969188]},"properties":{"data_time":"2025-09-23","source_row_no":"114N012461","registration_no":"114N012461","name":"佺和有限公司","city":"新北市","district":"土城區","address":"新北市土城區自強街二號","phone":"","audit_date":"2025-09-23","business_category":"食品工廠","inspection_result":"複查不合格","violation_reason":"複查不合格","source_type":"環境衛生查核違規","source_dataset":"新北市環境衛生查核","source_url":"https://fsmc.ntpc.gov.tw/DigitalMap/PublicWebsite","aggregate_reference_url":"","location_method":"來源網站座標","violation_count":1}},{"type":"Feature","geometry":{"type":"Point","coordinates":[121.501833,25.000974]},"properties":{"data_time":"2025-09-22","source_row_no":"108N004753","registration_no":"108N004753","name":"皇家排骨","city":"新北市","district":"中和區","address":"新北市中和區廣福路一一六號","phone":"","audit_date":"2025-09-22","business_category":"餐飲業","inspection_result":"複查不合格","violation_reason":"複查不合格","source_type":"環境衛生查核違規","source_dataset":"新北市環境衛生查核","source_url":"https://fsmc.ntpc.gov.tw/DigitalMap/PublicWebsite","aggregate_reference_url":"","location_method":"來源網站座標","violation_count":1}},{"type":"Feature","geometry":{"type":"Point","coordinates":[121.443362,25.03432]},"properties":{"data_time":"2025-09-11","source_row_no":"113N008234","registration_no":"113N008234","name":"晶涮餐飲有限公司","city":"新北市","district":"新莊區","address":"新北市新莊區中正路三六八號一樓","phone":"","audit_date":"2025-09-11","business_category":"餐飲業","inspection_result":"複查不合格","violation_reason":"複查不合格","source_type":"環境衛生查核違規","source_dataset":"新北市環境衛生查核","source_url":"https://fsmc.ntpc.gov.tw/DigitalMap/PublicWebsite","aggregate_reference_url":"","location_method":"來源網站座標","violation_count":1}},{"type":"Feature","geometry":{"type":"Point","coordinates":[121.472239,25.049984]},"properties":{"data_time":"2025-09-09","source_row_no":"114N012085","registration_no":"114N012085","name":"全盛軒股份有限公司","city":"新北市","district":"三重區","address":"新北市三重區光復路一段七九號三樓","phone":"","audit_date":"2025-09-09","business_category":"食品工廠","inspection_result":"複查不合格","violation_reason":"複查不合格","source_type":"環境衛生查核違規","source_dataset":"新北市環境衛生查核","source_url":"https://fsmc.ntpc.gov.tw/DigitalMap/PublicWebsite","aggregate_reference_url":"","location_method":"來源網站座標","violation_count":1}},{"type":"Feature","geometry":{"type":"Point","coordinates":[121.454594,24.982784]},"properties":{"data_time":"2025-09-02","source_row_no":"110N002769","registration_no":"110N002769","name":"全勝食堂","city":"新北市","district":"土城區","address":"新北市土城區裕民路二六零號","phone":"","audit_date":"2025-09-02","business_category":"餐飲業","inspection_result":"複查不合格","violation_reason":"複查不合格","source_type":"環境衛生查核違規","source_dataset":"新北市環境衛生查核","source_url":"https://fsmc.ntpc.gov.tw/DigitalMap/PublicWebsite","aggregate_reference_url":"","location_method":"來源網站座標","violation_count":1}},{"type":"Feature","geometry":{"type":"Point","coordinates":[121.475638,25.091096]},"properties":{"data_time":"2025-09-01","source_row_no":"111N002774","registration_no":"111N002774","name":"泰富泰式料理","city":"新北市","district":"蘆洲區","address":"新北市蘆洲區民族路三七六號一樓","phone":"","audit_date":"2025-09-01","business_category":"餐飲業","inspection_result":"複查不合格","violation_reason":"複查不合格","source_type":"環境衛生查核違規","source_dataset":"新北市環境衛生查核","source_url":"https://fsmc.ntpc.gov.tw/DigitalMap/PublicWebsite","aggregate_reference_url":"","location_method":"來源網站座標","violation_count":1}},{"type":"Feature","geometry":{"type":"Point","coordinates":[121.526037,24.962898]},"properties":{"data_time":"2025-08-28","source_row_no":"114N011807","registration_no":"114N011807","name":"佳香味自助餐","city":"新北市","district":"新店區","address":"新北市新店區安康路一段二零九號","phone":"","audit_date":"2025-08-28","business_category":"餐飲業","inspection_result":"複查不合格","violation_reason":"複查不合格","source_type":"環境衛生查核違規","source_dataset":"新北市環境衛生查核","source_url":"https://fsmc.ntpc.gov.tw/DigitalMap/PublicWebsite","aggregate_reference_url":"","location_method":"來源網站座標","violation_count":1}},{"type":"Feature","geometry":{"type":"Point","coordinates":[121.46691,25.088573]},"properties":{"data_time":"2025-08-21","source_row_no":"114N009162","registration_no":"114N009162","name":"小龍豆漿","city":"新北市","district":"蘆洲區","address":"新北市蘆洲區民族路五八二號一樓","phone":"","audit_date":"2025-08-21","business_category":"餐飲業","inspection_result":"複查不合格","violation_reason":"複查不合格","source_type":"環境衛生查核違規","source_dataset":"新北市環境衛生查核","source_url":"https://fsmc.ntpc.gov.tw/DigitalMap/PublicWebsite","aggregate_reference_url":"","location_method":"來源網站座標","violation_count":1}},{"type":"Feature","geometry":{"type":"Point","coordinates":[121.448218,25.14123]},"properties":{"data_time":"2025-08-13","source_row_no":"106N005913","registration_no":"106N005913","name":"堡晟興業有限公司","city":"新北市","district":"八里區","address":"新北市八里區龍米路二段六二號","phone":"","audit_date":"2025-08-13","business_category":"食品工廠","inspection_result":"複查不合格","violation_reason":"複查不合格","source_type":"環境衛生查核違規","source_dataset":"新北市環境衛生查核","source_url":"https://fsmc.ntpc.gov.tw/DigitalMap/PublicWebsite","aggregate_reference_url":"","location_method":"來源網站座標","violation_count":1}},{"type":"Feature","geometry":{"type":"Point","coordinates":[121.4456,25.041656]},"properties":{"data_time":"2025-08-06","source_row_no":"112N010675","registration_no":"112N010675","name":"滿飽客有限公司","city":"新北市","district":"新莊區","address":"新北市新莊區復興路一段五號","phone":"","audit_date":"2025-08-06","business_category":"餐飲業","inspection_result":"複查不合格","violation_reason":"複查不合格","source_type":"環境衛生查核違規","source_dataset":"新北市環境衛生查核","source_url":"https://fsmc.ntpc.gov.tw/DigitalMap/PublicWebsite","aggregate_reference_url":"","location_method":"來源網站座標","violation_count":1}},{"type":"Feature","geometry":{"type":"Point","coordinates":[121.451081,25.049813]},"properties":{"data_time":"2025-08-06","source_row_no":"114N009500","registration_no":"114N009500","name":"禾甜涼糕","city":"新北市","district":"新莊區","address":"新北市新莊區中港路四八三巷二六號","phone":"","audit_date":"2025-08-06","business_category":"食品工廠","inspection_result":"複查不合格","violation_reason":"複查不合格","source_type":"環境衛生查核違規","source_dataset":"新北市環境衛生查核","source_url":"https://fsmc.ntpc.gov.tw/DigitalMap/PublicWebsite","aggregate_reference_url":"","location_method":"來源網站座標","violation_count":1}},{"type":"Feature","geometry":{"type":"Point","coordinates":[121.546291,24.977831]},"properties":{"data_time":"2025-08-04","source_row_no":"113N009320","registration_no":"113N009320","name":"撼動企業有限公司(瘋一鍋飲茶鍋物)","city":"新北市","district":"新店區","address":"新北市新店區中興路三段七零號B一樓","phone":"","audit_date":"2025-08-04","business_category":"餐飲業","inspection_result":"複查不合格","violation_reason":"複查不合格","source_type":"環境衛生查核違規","source_dataset":"新北市環境衛生查核","source_url":"https://fsmc.ntpc.gov.tw/DigitalMap/PublicWebsite","aggregate_reference_url":"","location_method":"來源網站座標","violation_count":1}},{"type":"Feature","geometry":{"type":"Point","coordinates":[121.4516,25.176509]},"properties":{"data_time":"2025-07-28","source_row_no":"114N009633","registration_no":"114N009633","name":"高飛中山有限公司","city":"新北市","district":"淡水區","address":"新北市淡水區北新路一八四巷二七零號","phone":"","audit_date":"2025-07-28","business_category":"其他一般食品製造業","inspection_result":"複查不合格","violation_reason":"複查不合格","source_type":"環境衛生查核違規","source_dataset":"新北市環境衛生查核","source_url":"https://fsmc.ntpc.gov.tw/DigitalMap/PublicWebsite","aggregate_reference_url":"","location_method":"來源網站座標","violation_count":1}},{"type":"Feature","geometry":{"type":"Point","coordinates":[121.537456,24.974373]},"properties":{"data_time":"2025-07-24","source_row_no":"109N001393","registration_no":"109N001393","name":"大正雞腿王店","city":"新北市","district":"新店區","address":"新北市新店區中正路二八三號","phone":"","audit_date":"2025-07-24","business_category":"餐飲業","inspection_result":"複查不合格","violation_reason":"複查不合格","source_type":"環境衛生查核違規","source_dataset":"新北市環境衛生查核","source_url":"https://fsmc.ntpc.gov.tw/DigitalMap/PublicWebsite","aggregate_reference_url":"","location_method":"來源網站座標","violation_count":1}},{"type":"Feature","geometry":{"type":"Point","coordinates":[121.493426,25.000596]},"properties":{"data_time":"2025-07-22","source_row_no":"113N005685","registration_no":"113N005685","name":"禾盛蛋品有限公司","city":"新北市","district":"中和區","address":"新北市中和區中山路二段三二七巷一五號一樓","phone":"","audit_date":"2025-07-22","business_category":"食品工廠","inspection_result":"複查不合格","violation_reason":"複查不合格","source_type":"環境衛生查核違規","source_dataset":"新北市環境衛生查核","source_url":"https://fsmc.ntpc.gov.tw/DigitalMap/PublicWebsite","aggregate_reference_url":"","location_method":"來源網站座標","violation_count":1}},{"type":"Feature","geometry":{"type":"Point","coordinates":[121.510852,24.990183]},"properties":{"data_time":"2025-07-18","source_row_no":"114N009782","registration_no":"114N009782","name":"五五紅茶店","city":"新北市","district":"中和區","address":"新北市中和區興南路一段五五之二號","phone":"","audit_date":"2025-07-18","business_category":"餐飲業","inspection_result":"複查不合格","violation_reason":"複查不合格","source_type":"環境衛生查核違規","source_dataset":"新北市環境衛生查核","source_url":"https://fsmc.ntpc.gov.tw/DigitalMap/PublicWebsite","aggregate_reference_url":"","location_method":"來源網站座標","violation_count":1}},{"type":"Feature","geometry":{"type":"Point","coordinates":[121.37928,25.080167]},"properties":{"data_time":"2025-07-15","source_row_no":"114N009188","registration_no":"114N009188","name":"大韓門小吃店","city":"新北市","district":"林口區","address":"新北市林口區信義路一六零號","phone":"","audit_date":"2025-07-15","business_category":"餐飲業","inspection_result":"複查不合格","violation_reason":"複查不合格","source_type":"環境衛生查核違規","source_dataset":"新北市環境衛生查核","source_url":"https://fsmc.ntpc.gov.tw/DigitalMap/PublicWebsite","aggregate_reference_url":"","location_method":"來源網站座標","violation_count":1}},{"type":"Feature","geometry":{"type":"Point","coordinates":[121.491035,25.077394]},"properties":{"data_time":"2025-07-14","source_row_no":"112N007348","registration_no":"112N007348","name":"涼翊國際有限公司","city":"新北市","district":"三重區","address":"新北市三重區溪尾街六一號一樓","phone":"","audit_date":"2025-07-14","business_category":"食品工廠","inspection_result":"複查不合格","violation_reason":"複查不合格","source_type":"環境衛生查核違規","source_dataset":"新北市環境衛生查核","source_url":"https://fsmc.ntpc.gov.tw/DigitalMap/PublicWebsite","aggregate_reference_url":"","location_method":"來源網站座標","violation_count":1}},{"type":"Feature","geometry":{"type":"Point","coordinates":[121.536698,24.971561]},"properties":{"data_time":"2025-07-09","source_row_no":"114N009217","registration_no":"114N009217","name":"以雯小吃店","city":"新北市","district":"新店區","address":"新北市新店區三民路二二巷六號","phone":"","audit_date":"2025-07-09","business_category":"餐飲業","inspection_result":"複查不合格","violation_reason":"複查不合格","source_type":"環境衛生查核違規","source_dataset":"新北市環境衛生查核","source_url":"https://fsmc.ntpc.gov.tw/DigitalMap/PublicWebsite","aggregate_reference_url":"","location_method":"來源網站座標","violation_count":1}},{"type":"Feature","geometry":{"type":"Point","coordinates":[121.447151,25.170254]},"properties":{"data_time":"2025-07-03","source_row_no":"110N000673","registration_no":"110N000673","name":"饕聚京華牛肉麵館","city":"新北市","district":"淡水區","address":"新北市淡水區仁愛街一八巷一六號","phone":"","audit_date":"2025-07-03","business_category":"餐飲業","inspection_result":"複查不合格","violation_reason":"複查不合格","source_type":"環境衛生查核違規","source_dataset":"新北市環境衛生查核","source_url":"https://fsmc.ntpc.gov.tw/DigitalMap/PublicWebsite","aggregate_reference_url":"","location_method":"來源網站座標","violation_count":1}},{"type":"Feature","geometry":{"type":"Point","coordinates":[121.486914,25.072053]},"properties":{"data_time":"2025-07-01","source_row_no":"114N008600","registration_no":"114N008600","name":"天天吃早餐店","city":"新北市","district":"三重區","address":"新北市三重區自強路三段一六號","phone":"","audit_date":"2025-07-01","business_category":"餐飲業","inspection_result":"複查不合格","violation_reason":"複查不合格","source_type":"環境衛生查核違規","source_dataset":"新北市環境衛生查核","source_url":"https://fsmc.ntpc.gov.tw/DigitalMap/PublicWebsite","aggregate_reference_url":"","location_method":"來源網站座標","violation_count":1}},{"type":"Feature","geometry":{"type":"Point","coordinates":[121.425703,24.967378]},"properties":{"data_time":"2025-07-01","source_row_no":"114N008982","registration_no":"114N008982","name":"展安食品有限公司成功廠","city":"新北市","district":"土城區","address":"新北市土城區成功街三號","phone":"","audit_date":"2025-07-01","business_category":"食品工廠","inspection_result":"複查不合格","violation_reason":"複查不合格","source_type":"環境衛生查核違規","source_dataset":"新北市環境衛生查核","source_url":"https://fsmc.ntpc.gov.tw/DigitalMap/PublicWebsite","aggregate_reference_url":"","location_method":"來源網站座標","violation_count":1}},{"type":"Feature","geometry":{"type":"Point","coordinates":[121.493911,25.057047]},"properties":{"data_time":"2025-06-25","source_row_no":"114N008738","registration_no":"114N008738","name":"章餘哥早餐店","city":"新北市","district":"三重區","address":"新北市三重區中正南路一三一號","phone":"","audit_date":"2025-06-25","business_category":"餐飲業","inspection_result":"複查不合格","violation_reason":"複查不合格","source_type":"環境衛生查核違規","source_dataset":"新北市環境衛生查核","source_url":"https://fsmc.ntpc.gov.tw/DigitalMap/PublicWebsite","aggregate_reference_url":"","location_method":"來源網站座標","violation_count":1}},{"type":"Feature","geometry":{"type":"Point","coordinates":[121.426664,25.175997]},"properties":{"data_time":"2025-06-25","source_row_no":"114N007985","registration_no":"114N007985","name":"霍寶兄弟有限公司","city":"新北市","district":"淡水區","address":"新北市淡水區中正路一段三號","phone":"","audit_date":"2025-06-25","business_category":"餐飲業","inspection_result":"複查不合格","violation_reason":"複查不合格","source_type":"環境衛生查核違規","source_dataset":"新北市環境衛生查核","source_url":"https://fsmc.ntpc.gov.tw/DigitalMap/PublicWebsite","aggregate_reference_url":"","location_method":"來源網站座標","violation_count":1}},{"type":"Feature","geometry":{"type":"Point","coordinates":[121.542476,24.979243]},"properties":{"data_time":"2025-06-24","source_row_no":"105N004972","registration_no":"105N004972","name":"隆鼎御品商行","city":"新北市","district":"新店區","address":"新北市新店區北新路三段一零號","phone":"","audit_date":"2025-06-24","business_category":"餐飲業","inspection_result":"複查不合格","violation_reason":"複查不合格","source_type":"環境衛生查核違規","source_dataset":"新北市環境衛生查核","source_url":"https://fsmc.ntpc.gov.tw/DigitalMap/PublicWebsite","aggregate_reference_url":"","location_method":"來源網站座標","violation_count":1}},{"type":"Feature","geometry":{"type":"Point","coordinates":[121.452441,24.985209]},"properties":{"data_time":"2025-06-17","source_row_no":"113N012545","registration_no":"113N012545","name":"寧格兒商行","city":"新北市","district":"土城區","address":"新北市土城區學府路一段一七五號","phone":"","audit_date":"2025-06-17","business_category":"餐飲業","inspection_result":"複查不合格","violation_reason":"複查不合格","source_type":"環境衛生查核違規","source_dataset":"新北市環境衛生查核","source_url":"https://fsmc.ntpc.gov.tw/DigitalMap/PublicWebsite","aggregate_reference_url":"","location_method":"來源網站座標","violation_count":1}},{"type":"Feature","geometry":{"type":"Point","coordinates":[121.500006,25.002901]},"properties":{"data_time":"2025-06-17","source_row_no":"114N008276","registration_no":"114N008276","name":"嗷早早午餐","city":"新北市","district":"中和區","address":"新北市中和區永和路六號","phone":"","audit_date":"2025-06-17","business_category":"餐飲業","inspection_result":"複查不合格","violation_reason":"複查不合格","source_type":"環境衛生查核違規","source_dataset":"新北市環境衛生查核","source_url":"https://fsmc.ntpc.gov.tw/DigitalMap/PublicWebsite","aggregate_reference_url":"","location_method":"來源網站座標","violation_count":1}},{"type":"Feature","geometry":{"type":"Point","coordinates":[121.445127,24.978765]},"properties":{"data_time":"2025-06-12","source_row_no":"114N003181","registration_no":"114N003181","name":"豆府股份有限公司(北村豆腐家-土城日月光店)","city":"新北市","district":"土城區","address":"新北市土城區學府路二段二一零號一樓","phone":"","audit_date":"2025-06-12","business_category":"餐飲業","inspection_result":"複查不合格","violation_reason":"複查不合格","source_type":"環境衛生查核違規","source_dataset":"新北市環境衛生查核","source_url":"https://fsmc.ntpc.gov.tw/DigitalMap/PublicWebsite","aggregate_reference_url":"","location_method":"來源網站座標","violation_count":1}},{"type":"Feature","geometry":{"type":"Point","coordinates":[121.490222,25.078636]},"properties":{"data_time":"2025-06-11","source_row_no":"113N008974","registration_no":"113N008974","name":"松深夜食堂","city":"新北市","district":"三重區","address":"新北市三重區自強路四段六八號","phone":"","audit_date":"2025-06-11","business_category":"餐飲業","inspection_result":"複查不合格","violation_reason":"複查不合格","source_type":"環境衛生查核違規","source_dataset":"新北市環境衛生查核","source_url":"https://fsmc.ntpc.gov.tw/DigitalMap/PublicWebsite","aggregate_reference_url":"","location_method":"來源網站座標","violation_count":1}},{"type":"Feature","geometry":{"type":"Point","coordinates":[121.429177,25.064862]},"properties":{"data_time":"2025-06-11","source_row_no":"114N006354","registration_no":"114N006354","name":"磐宇生物科技股份有限公司","city":"新北市","district":"泰山區","address":"新北市泰山區憲訓路三六號","phone":"","audit_date":"2025-06-11","business_category":"食品工廠","inspection_result":"複查不合格","violation_reason":"複查不合格","source_type":"環境衛生查核違規","source_dataset":"新北市環境衛生查核","source_url":"https://fsmc.ntpc.gov.tw/DigitalMap/PublicWebsite","aggregate_reference_url":"","location_method":"來源網站座標","violation_count":1}},{"type":"Feature","geometry":{"type":"Point","coordinates":[121.448642,25.049259]},"properties":{"data_time":"2025-06-10","source_row_no":"114N008594","registration_no":"114N008594","name":"筌麟有限公司","city":"新北市","district":"新莊區","address":"新北市新莊區幸福路七三六號B一樓","phone":"","audit_date":"2025-06-10","business_category":"餐飲業","inspection_result":"複查不合格","violation_reason":"複查不合格","source_type":"環境衛生查核違規","source_dataset":"新北市環境衛生查核","source_url":"https://fsmc.ntpc.gov.tw/DigitalMap/PublicWebsite","aggregate_reference_url":"","location_method":"來源網站座標","violation_count":1}},{"type":"Feature","geometry":{"type":"Point","coordinates":[121.376723,25.081544]},"properties":{"data_time":"2025-06-04","source_row_no":"114N008138","registration_no":"114N008138","name":"宥米食品工作室","city":"新北市","district":"林口區","address":"新北市林口區信義路二二八號","phone":"","audit_date":"2025-06-04","business_category":"餐飲業","inspection_result":"複查不合格","violation_reason":"複查不合格","source_type":"環境衛生查核違規","source_dataset":"新北市環境衛生查核","source_url":"https://fsmc.ntpc.gov.tw/DigitalMap/PublicWebsite","aggregate_reference_url":"","location_method":"來源網站座標","violation_count":1}},{"type":"Feature","geometry":{"type":"Point","coordinates":[121.495462,24.94891]},"properties":{"data_time":"2025-05-27","source_row_no":"106N007905","registration_no":"106N007905","name":"食來運轉商行","city":"新北市","district":"新店區","address":"新北市新店區如意街五巷二號一樓","phone":"","audit_date":"2025-05-27","business_category":"餐飲業","inspection_result":"複查不合格","violation_reason":"複查不合格","source_type":"環境衛生查核違規","source_dataset":"新北市環境衛生查核","source_url":"https://fsmc.ntpc.gov.tw/DigitalMap/PublicWebsite","aggregate_reference_url":"","location_method":"來源網站座標","violation_count":1}},{"type":"Feature","geometry":{"type":"Point","coordinates":[121.501116,24.990384]},"properties":{"data_time":"2025-05-26","source_row_no":"110N014678","registration_no":"110N014678","name":"禾典手感烘焙","city":"新北市","district":"中和區","address":"新北市中和區復興路三一四號","phone":"","audit_date":"2025-05-26","business_category":"其他一般食品製造業","inspection_result":"複查不合格","violation_reason":"複查不合格","source_type":"環境衛生查核違規","source_dataset":"新北市環境衛生查核","source_url":"https://fsmc.ntpc.gov.tw/DigitalMap/PublicWebsite","aggregate_reference_url":"","location_method":"來源網站座標","violation_count":1}},{"type":"Feature","geometry":{"type":"Point","coordinates":[121.417324,25.162689]},"properties":{"data_time":"2025-05-23","source_row_no":"105N007772","registration_no":"105N007772","name":"四季甜煮食品有限公司八里廠","city":"新北市","district":"八里區","address":"新北市八里區觀海大道二四一號一樓","phone":"","audit_date":"2025-05-23","business_category":"食品工廠","inspection_result":"複查不合格","violation_reason":"複查不合格","source_type":"環境衛生查核違規","source_dataset":"新北市環境衛生查核","source_url":"https://fsmc.ntpc.gov.tw/DigitalMap/PublicWebsite","aggregate_reference_url":"","location_method":"來源網站座標","violation_count":1}},{"type":"Feature","geometry":{"type":"Point","coordinates":[121.499753,25.063181]},"properties":{"data_time":"2025-05-19","source_row_no":"111N007744","registration_no":"111N007744","name":"歐式麵包","city":"新北市","district":"三重區","address":"新北市三重區文化北路四號","phone":"","audit_date":"2025-05-19","business_category":"食品販賣業","inspection_result":"複查不合格","violation_reason":"複查不合格","source_type":"環境衛生查核違規","source_dataset":"新北市環境衛生查核","source_url":"https://fsmc.ntpc.gov.tw/DigitalMap/PublicWebsite","aggregate_reference_url":"","location_method":"來源網站座標","violation_count":1}},{"type":"Feature","geometry":{"type":"Point","coordinates":[121.452207,25.015441]},"properties":{"data_time":"2025-05-15","source_row_no":"114N006386","registration_no":"114N006386","name":"正港滬燒臘點心世界坊","city":"新北市","district":"板橋區","address":"新北市板橋區南雅西路二段二二四號","phone":"","audit_date":"2025-05-15","business_category":"餐飲業","inspection_result":"複查不合格","violation_reason":"複查不合格","source_type":"環境衛生查核違規","source_dataset":"新北市環境衛生查核","source_url":"https://fsmc.ntpc.gov.tw/DigitalMap/PublicWebsite","aggregate_reference_url":"","location_method":"來源網站座標","violation_count":1}},{"type":"Feature","geometry":{"type":"Point","coordinates":[121.445821,25.041488]},"properties":{"data_time":"2025-05-02","source_row_no":"114N006240","registration_no":"114N006240","name":"泰興小吃店","city":"新北市","district":"新莊區","address":"新北市新莊區復興路一段一六號","phone":"","audit_date":"2025-05-02","business_category":"餐飲業","inspection_result":"複查不合格","violation_reason":"複查不合格","source_type":"環境衛生查核違規","source_dataset":"新北市環境衛生查核","source_url":"https://fsmc.ntpc.gov.tw/DigitalMap/PublicWebsite","aggregate_reference_url":"","location_method":"來源網站座標","violation_count":1}},{"type":"Feature","geometry":{"type":"Point","coordinates":[121.451401,24.986534]},"properties":{"data_time":"2025-04-25","source_row_no":"114N005902","registration_no":"114N005902","name":"兩支北方麵食館","city":"新北市","district":"土城區","address":"新北市土城區裕民路一二九號","phone":"","audit_date":"2025-04-25","business_category":"餐飲業","inspection_result":"複查不合格","violation_reason":"複查不合格","source_type":"環境衛生查核違規","source_dataset":"新北市環境衛生查核","source_url":"https://fsmc.ntpc.gov.tw/DigitalMap/PublicWebsite","aggregate_reference_url":"","location_method":"來源網站座標","violation_count":1}},{"type":"Feature","geometry":{"type":"Point","coordinates":[121.402294,24.970501]},"properties":{"data_time":"2025-04-25","source_row_no":"109N019275","registration_no":"109N019275","name":"鼎珍食品工業股份有限公司樹林廠","city":"新北市","district":"樹林區","address":"新北市樹林區八德街四二八號一樓","phone":"","audit_date":"2025-04-25","business_category":"食品工廠","inspection_result":"複查不合格","violation_reason":"複查不合格","source_type":"環境衛生查核違規","source_dataset":"新北市環境衛生查核","source_url":"https://fsmc.ntpc.gov.tw/DigitalMap/PublicWebsite","aggregate_reference_url":"","location_method":"來源網站座標","violation_count":1}},{"type":"Feature","geometry":{"type":"Point","coordinates":[121.452758,25.069108]},"properties":{"data_time":"2025-04-23","source_row_no":"105N007870","registration_no":"105N007870","name":"統皓食品股份有限公司","city":"新北市","district":"五股區","address":"新北市五股區五權路四九號三、四樓","phone":"","audit_date":"2025-04-23","business_category":"食品工廠","inspection_result":"複查不合格","violation_reason":"複查不合格","source_type":"環境衛生查核違規","source_dataset":"新北市環境衛生查核","source_url":"https://fsmc.ntpc.gov.tw/DigitalMap/PublicWebsite","aggregate_reference_url":"","location_method":"來源網站座標","violation_count":1}},{"type":"Feature","geometry":{"type":"Point","coordinates":[121.375289,24.930127]},"properties":{"data_time":"2025-04-21","source_row_no":"103N012402","registration_no":"103N012402","name":"睿紀小吃店(昭和園日式燒肉屋)","city":"新北市","district":"三峽區","address":"新北市三峽區中正路一段六七號","phone":"","audit_date":"2025-04-21","business_category":"餐飲業","inspection_result":"複查不合格","violation_reason":"複查不合格","source_type":"環境衛生查核違規","source_dataset":"新北市環境衛生查核","source_url":"https://fsmc.ntpc.gov.tw/DigitalMap/PublicWebsite","aggregate_reference_url":"","location_method":"來源網站座標","violation_count":1}},{"type":"Feature","geometry":{"type":"Point","coordinates":[121.504286,24.990247]},"properties":{"data_time":"2025-04-21","source_row_no":"112N007908","registration_no":"112N007908","name":"興翰商行","city":"新北市","district":"中和區","address":"新北市中和區復興路四八號","phone":"","audit_date":"2025-04-21","business_category":"餐飲業","inspection_result":"複查不合格","violation_reason":"複查不合格","source_type":"環境衛生查核違規","source_dataset":"新北市環境衛生查核","source_url":"https://fsmc.ntpc.gov.tw/DigitalMap/PublicWebsite","aggregate_reference_url":"","location_method":"來源網站座標","violation_count":1}},{"type":"Feature","geometry":{"type":"Point","coordinates":[121.437046,25.08919]},"properties":{"data_time":"2025-04-17","source_row_no":"110N013618","registration_no":"110N013618","name":"四季生鮮肉品有限公司","city":"新北市","district":"五股區","address":"新北市五股區成泰路二段一四七巷五之二號","phone":"","audit_date":"2025-04-17","business_category":"其他一般食品製造業","inspection_result":"複查不合格","violation_reason":"複查不合格","source_type":"環境衛生查核違規","source_dataset":"新北市環境衛生查核","source_url":"https://fsmc.ntpc.gov.tw/DigitalMap/PublicWebsite","aggregate_reference_url":"","location_method":"來源網站座標","violation_count":1}},{"type":"Feature","geometry":{"type":"Point","coordinates":[121.466253,25.072719]},"properties":{"data_time":"2025-04-10","source_row_no":"110N004135","registration_no":"110N004135","name":"味味美食有限公司","city":"新北市","district":"五股區","address":"新北市五股區中興路一段九五巷四弄三號一樓","phone":"","audit_date":"2025-04-10","business_category":"食品工廠","inspection_result":"複查不合格","violation_reason":"複查不合格","source_type":"環境衛生查核違規","source_dataset":"新北市環境衛生查核","source_url":"https://fsmc.ntpc.gov.tw/DigitalMap/PublicWebsite","aggregate_reference_url":"","location_method":"來源網站座標","violation_count":1}},{"type":"Feature","geometry":{"type":"Point","coordinates":[121.432273,25.007299]},"properties":{"data_time":"2025-04-09","source_row_no":"105N004930","registration_no":"105N004930","name":"百傑國際食品有限公司新莊廠","city":"新北市","district":"新莊區","address":"新北市新莊區民安西路四八二號二樓","phone":"","audit_date":"2025-04-09","business_category":"食品工廠","inspection_result":"複查不合格","violation_reason":"複查不合格","source_type":"環境衛生查核違規","source_dataset":"新北市環境衛生查核","source_url":"https://fsmc.ntpc.gov.tw/DigitalMap/PublicWebsite","aggregate_reference_url":"","location_method":"來源網站座標","violation_count":1}},{"type":"Feature","geometry":{"type":"Point","coordinates":[121.394762,25.150338]},"properties":{"data_time":"2025-04-09","source_row_no":"111N001745","registration_no":"111N001745","name":"品元實業股份有限公司商港二廠","city":"新北市","district":"八里區","address":"新北市八里區商港五路九九號","phone":"","audit_date":"2025-04-09","business_category":"食品工廠","inspection_result":"複查不合格","violation_reason":"複查不合格","source_type":"環境衛生查核違規","source_dataset":"新北市環境衛生查核","source_url":"https://fsmc.ntpc.gov.tw/DigitalMap/PublicWebsite","aggregate_reference_url":"","location_method":"來源網站座標","violation_count":1}},{"type":"Feature","geometry":{"type":"Point","coordinates":[121.461216,25.13671]},"properties":{"data_time":"2025-04-07","source_row_no":"114N000410","registration_no":"114N000410","name":"十得鍋物(黑市鍋物竹圍店)","city":"新北市","district":"淡水區","address":"新北市淡水區民族路三一之五號","phone":"","audit_date":"2025-04-07","business_category":"餐飲業","inspection_result":"複查不合格","violation_reason":"複查不合格","source_type":"環境衛生查核違規","source_dataset":"新北市環境衛生查核","source_url":"https://fsmc.ntpc.gov.tw/DigitalMap/PublicWebsite","aggregate_reference_url":"","location_method":"來源網站座標","violation_count":1}},{"type":"Feature","geometry":{"type":"Point","coordinates":[121.499917,24.954741]},"properties":{"data_time":"2025-04-07","source_row_no":"101N012656","registration_no":"101N012656","name":"韓濟名味品有限公司","city":"新北市","district":"新店區","address":"新北市新店區安豐路四九號","phone":"","audit_date":"2025-04-07","business_category":"食品販賣業","inspection_result":"複查不合格","violation_reason":"複查不合格","source_type":"環境衛生查核違規","source_dataset":"新北市環境衛生查核","source_url":"https://fsmc.ntpc.gov.tw/DigitalMap/PublicWebsite","aggregate_reference_url":"","location_method":"來源網站座標","violation_count":1}},{"type":"Feature","geometry":{"type":"Point","coordinates":[121.466408,25.060536]},"properties":{"data_time":"2025-04-02","source_row_no":"105N011441","registration_no":"105N011441","name":"旺昌食品有限公司","city":"新北市","district":"三重區","address":"新北市三重區新北大道二段一三九巷二六號","phone":"","audit_date":"2025-04-02","business_category":"食品工廠","inspection_result":"複查不合格","violation_reason":"複查不合格","source_type":"環境衛生查核違規","source_dataset":"新北市環境衛生查核","source_url":"https://fsmc.ntpc.gov.tw/DigitalMap/PublicWebsite","aggregate_reference_url":"","location_method":"來源網站座標","violation_count":1}},{"type":"Feature","geometry":{"type":"Point","coordinates":[121.37277,25.074989]},"properties":{"data_time":"2025-04-02","source_row_no":"114N004321","registration_no":"114N004321","name":"金萬利有限公司","city":"新北市","district":"林口區","address":"新北市林口區文化二路一段三三八號","phone":"","audit_date":"2025-04-02","business_category":"餐飲業","inspection_result":"複查不合格","violation_reason":"複查不合格","source_type":"環境衛生查核違規","source_dataset":"新北市環境衛生查核","source_url":"https://fsmc.ntpc.gov.tw/DigitalMap/PublicWebsite","aggregate_reference_url":"","location_method":"來源網站座標","violation_count":1}},{"type":"Feature","geometry":{"type":"Point","coordinates":[121.491286,24.996288]},"properties":{"data_time":"2025-03-31","source_row_no":"110N014664","registration_no":"110N014664","name":"金蕎食品有限公司","city":"新北市","district":"中和區","address":"新北市中和區連城路二六五號","phone":"","audit_date":"2025-03-31","business_category":"食品販賣業","inspection_result":"複查不合格","violation_reason":"複查不合格","source_type":"環境衛生查核違規","source_dataset":"新北市環境衛生查核","source_url":"https://fsmc.ntpc.gov.tw/DigitalMap/PublicWebsite","aggregate_reference_url":"","location_method":"來源網站座標","violation_count":1}},{"type":"Feature","geometry":{"type":"Point","coordinates":[121.490254,24.998942]},"properties":{"data_time":"2025-03-28","source_row_no":"104N004829","registration_no":"104N004829","name":"鼎昌實業有限公司","city":"新北市","district":"中和區","address":"新北市中和區建八路一三九巷二號一-二樓","phone":"","audit_date":"2025-03-28","business_category":"食品工廠","inspection_result":"複查不合格","violation_reason":"複查不合格","source_type":"環境衛生查核違規","source_dataset":"新北市環境衛生查核","source_url":"https://fsmc.ntpc.gov.tw/DigitalMap/PublicWebsite","aggregate_reference_url":"","location_method":"來源網站座標","violation_count":1}},{"type":"Feature","geometry":{"type":"Point","coordinates":[121.370292,24.937445]},"properties":{"data_time":"2025-03-24","source_row_no":"114N004254","registration_no":"114N004254","name":"六大將股份有限公司六大將便當三峽店","city":"新北市","district":"三峽區","address":"新北市三峽區和平街四二之一號","phone":"","audit_date":"2025-03-24","business_category":"餐飲業","inspection_result":"複查不合格","violation_reason":"複查不合格","source_type":"環境衛生查核違規","source_dataset":"新北市環境衛生查核","source_url":"https://fsmc.ntpc.gov.tw/DigitalMap/PublicWebsite","aggregate_reference_url":"","location_method":"來源網站座標","violation_count":1}},{"type":"Feature","geometry":{"type":"Point","coordinates":[121.430767,25.005686]},"properties":{"data_time":"2025-03-21","source_row_no":"108N007194","registration_no":"108N007194","name":"為友生鮮肉品","city":"新北市","district":"新莊區","address":"新北市新莊區大安路三零巷一四號一樓","phone":"","audit_date":"2025-03-21","business_category":"食品工廠","inspection_result":"複查不合格","violation_reason":"複查不合格","source_type":"環境衛生查核違規","source_dataset":"新北市環境衛生查核","source_url":"https://fsmc.ntpc.gov.tw/DigitalMap/PublicWebsite","aggregate_reference_url":"","location_method":"來源網站座標","violation_count":1}},{"type":"Feature","geometry":{"type":"Point","coordinates":[121.48382,25.012466]},"properties":{"data_time":"2025-03-20","source_row_no":"114N003731","registration_no":"114N003731","name":"翔賀食品行","city":"新北市","district":"中和區","address":"新北市中和區中板路一八巷一弄八號","phone":"","audit_date":"2025-03-20","business_category":"食品販賣業","inspection_result":"複查不合格","violation_reason":"複查不合格","source_type":"環境衛生查核違規","source_dataset":"新北市環境衛生查核","source_url":"https://fsmc.ntpc.gov.tw/DigitalMap/PublicWebsite","aggregate_reference_url":"","location_method":"來源網站座標","violation_count":1}},{"type":"Feature","geometry":{"type":"Point","coordinates":[121.550146,24.974144]},"properties":{"data_time":"2025-03-18","source_row_no":"111N002369","registration_no":"111N002369","name":"好食一有限公司","city":"新北市","district":"新店區","address":"新北市新店區寶興路四五巷六弄一號三樓","phone":"","audit_date":"2025-03-18","business_category":"其他一般食品製造業","inspection_result":"複查不合格","violation_reason":"複查不合格","source_type":"環境衛生查核違規","source_dataset":"新北市環境衛生查核","source_url":"https://fsmc.ntpc.gov.tw/DigitalMap/PublicWebsite","aggregate_reference_url":"","location_method":"來源網站座標","violation_count":1}},{"type":"Feature","geometry":{"type":"Point","coordinates":[121.473886,25.002679]},"properties":{"data_time":"2025-03-13","source_row_no":"103N011308","registration_no":"103N011308","name":"中福自助餐店","city":"新北市","district":"中和區","address":"新北市中和區民享街四六號","phone":"","audit_date":"2025-03-13","business_category":"餐飲業","inspection_result":"複查不合格","violation_reason":"複查不合格","source_type":"環境衛生查核違規","source_dataset":"新北市環境衛生查核","source_url":"https://fsmc.ntpc.gov.tw/DigitalMap/PublicWebsite","aggregate_reference_url":"","location_method":"來源網站座標","violation_count":1}},{"type":"Feature","geometry":{"type":"Point","coordinates":[121.418116,25.015636]},"properties":{"data_time":"2025-03-10","source_row_no":"114N003654","registration_no":"114N003654","name":"華清排骨專賣店","city":"新北市","district":"樹林區","address":"新北市樹林區三俊街一二九號一樓","phone":"","audit_date":"2025-03-10","business_category":"餐飲業","inspection_result":"複查不合格","violation_reason":"複查不合格","source_type":"環境衛生查核違規","source_dataset":"新北市環境衛生查核","source_url":"https://fsmc.ntpc.gov.tw/DigitalMap/PublicWebsite","aggregate_reference_url":"","location_method":"來源網站座標","violation_count":1}},{"type":"Feature","geometry":{"type":"Point","coordinates":[121.482204,25.009578]},"properties":{"data_time":"2025-02-12","source_row_no":"110N001065","registration_no":"110N001065","name":"好膳企業股份有限公司","city":"新北市","district":"中和區","address":"新北市中和區中正路九八八巷八號","phone":"","audit_date":"2025-02-12","business_category":"食品工廠","inspection_result":"複查不合格","violation_reason":"複查不合格","source_type":"環境衛生查核違規","source_dataset":"新北市環境衛生查核","source_url":"https://fsmc.ntpc.gov.tw/DigitalMap/PublicWebsite","aggregate_reference_url":"","location_method":"來源網站座標","violation_count":1}},{"type":"Feature","geometry":{"type":"Point","coordinates":[121.442021,24.978036]},"properties":{"data_time":"2025-02-07","source_row_no":"114N003135","registration_no":"114N003135","name":"金月角麵包坊","city":"新北市","district":"土城區","address":"新北市土城區中央路二段一一二號","phone":"","audit_date":"2025-02-07","business_category":"食品工廠","inspection_result":"複查不合格","violation_reason":"複查不合格","source_type":"環境衛生查核違規","source_dataset":"新北市環境衛生查核","source_url":"https://fsmc.ntpc.gov.tw/DigitalMap/PublicWebsite","aggregate_reference_url":"","location_method":"來源網站座標","violation_count":1}},{"type":"Feature","geometry":{"type":"Point","coordinates":[121.423502,25.019033]},"properties":{"data_time":"2025-02-04","source_row_no":"112N004285","registration_no":"112N004285","name":"龍門客棧","city":"新北市","district":"新莊區","address":"新北市新莊區龍安路三五八號","phone":"","audit_date":"2025-02-04","business_category":"餐飲業","inspection_result":"複查不合格","violation_reason":"複查不合格","source_type":"環境衛生查核違規","source_dataset":"新北市環境衛生查核","source_url":"https://fsmc.ntpc.gov.tw/DigitalMap/PublicWebsite","aggregate_reference_url":"","location_method":"來源網站座標","violation_count":1}},{"type":"Feature","geometry":{"type":"Point","coordinates":[121.4402,24.9717]},"properties":{"data_time":"2025-02-04","source_row_no":"112N004296","registration_no":"112N004296","name":"津津小吃店","city":"新北市","district":"土城區","address":"新北市土城區中央路二段二四一號","phone":"","audit_date":"2025-02-04","business_category":"餐飲業","inspection_result":"複查不合格","violation_reason":"複查不合格","source_type":"環境衛生查核違規","source_dataset":"新北市環境衛生查核","source_url":"https://fsmc.ntpc.gov.tw/DigitalMap/PublicWebsite","aggregate_reference_url":"","location_method":"來源網站座標","violation_count":1}},{"type":"Feature","geometry":{"type":"Point","coordinates":[121.488905,25.086456]},"properties":{"data_time":"2025-02-03","source_row_no":"112N008682","registration_no":"112N008682","name":"五華小吃店","city":"新北市","district":"三重區","address":"新北市三重區五華街二五七號","phone":"","audit_date":"2025-02-03","business_category":"餐飲業","inspection_result":"複查不合格","violation_reason":"複查不合格","source_type":"環境衛生查核違規","source_dataset":"新北市環境衛生查核","source_url":"https://fsmc.ntpc.gov.tw/DigitalMap/PublicWebsite","aggregate_reference_url":"","location_method":"來源網站座標","violation_count":1}},{"type":"Feature","geometry":{"type":"Point","coordinates":[121.459958,25.138221]},"properties":{"data_time":"2025-01-17","source_row_no":"106N008412","registration_no":"106N008412","name":"百八魚場餐飲股份有限竹圍分公司","city":"新北市","district":"淡水區","address":"新北市淡水區民權路九一號","phone":"","audit_date":"2025-01-17","business_category":"餐飲業","inspection_result":"複查不合格","violation_reason":"複查不合格","source_type":"環境衛生查核違規","source_dataset":"新北市環境衛生查核","source_url":"https://fsmc.ntpc.gov.tw/DigitalMap/PublicWebsite","aggregate_reference_url":"","location_method":"來源網站座標","violation_count":1}},{"type":"Feature","geometry":{"type":"Point","coordinates":[121.494058,25.066826]},"properties":{"data_time":"2025-01-13","source_row_no":"111N004509","registration_no":"111N004509","name":"池上飯包店","city":"新北市","district":"三重區","address":"新北市三重區自強路一段一四七之一號","phone":"","audit_date":"2025-01-13","business_category":"餐飲業","inspection_result":"複查不合格","violation_reason":"複查不合格","source_type":"環境衛生查核違規","source_dataset":"新北市環境衛生查核","source_url":"https://fsmc.ntpc.gov.tw/DigitalMap/PublicWebsite","aggregate_reference_url":"","location_method":"來源網站座標","violation_count":1}},{"type":"Feature","geometry":{"type":"Point","coordinates":[121.461297,25.054206]},"properties":{"data_time":"2025-01-10","source_row_no":"106N001121","registration_no":"106N001121","name":"明揚餐飲顧問有限公司","city":"新北市","district":"新莊區","address":"新北市新莊區中原東路一二五號","phone":"","audit_date":"2025-01-10","business_category":"非食品業","inspection_result":"複查不合格","violation_reason":"複查不合格","source_type":"環境衛生查核違規","source_dataset":"新北市環境衛生查核","source_url":"https://fsmc.ntpc.gov.tw/DigitalMap/PublicWebsite","aggregate_reference_url":"","location_method":"來源網站座標","violation_count":1}},{"type":"Feature","geometry":{"type":"Point","coordinates":[121.510646,25.013169]},"properties":{"data_time":"2025-01-06","source_row_no":"113N007654","registration_no":"113N007654","name":"品味香食品行","city":"新北市","district":"永和區","address":"新北市永和區保福路二段七四號","phone":"","audit_date":"2025-01-06","business_category":"餐飲業","inspection_result":"複查不合格","violation_reason":"複查不合格","source_type":"環境衛生查核違規","source_dataset":"新北市環境衛生查核","source_url":"https://fsmc.ntpc.gov.tw/DigitalMap/PublicWebsite","aggregate_reference_url":"","location_method":"來源網站座標","violation_count":1}},{"type":"Feature","geometry":{"type":"Point","coordinates":[121.495557,24.999316]},"properties":{"data_time":"2024-12-27","source_row_no":"102N006058","registration_no":"102N006058","name":"金夆食品有限公司","city":"新北市","district":"中和區","address":"新北市中和區連城路一三四巷一號一樓","phone":"","audit_date":"2024-12-27","business_category":"食品工廠","inspection_result":"複查不合格","violation_reason":"複查不合格","source_type":"環境衛生查核違規","source_dataset":"新北市環境衛生查核","source_url":"https://fsmc.ntpc.gov.tw/DigitalMap/PublicWebsite","aggregate_reference_url":"","location_method":"來源網站座標","violation_count":1}},{"type":"Feature","geometry":{"type":"Point","coordinates":[121.504536,24.953976]},"properties":{"data_time":"2024-12-23","source_row_no":"112N001583","registration_no":"112N001583","name":"味仙餐飲商行","city":"新北市","district":"新店區","address":"新北市新店區車子路一五號","phone":"","audit_date":"2024-12-23","business_category":"餐飲業","inspection_result":"複查不合格","violation_reason":"複查不合格","source_type":"環境衛生查核違規","source_dataset":"新北市環境衛生查核","source_url":"https://fsmc.ntpc.gov.tw/DigitalMap/PublicWebsite","aggregate_reference_url":"","location_method":"來源網站座標","violation_count":1}},{"type":"Feature","geometry":{"type":"Point","coordinates":[121.461369,25.022636]},"properties":{"data_time":"2024-12-04","source_row_no":"113N012024","registration_no":"113N012024","name":"甲鳥食行(市招:元絕未黃悶雞米飯板橋新海店)","city":"新北市","district":"板橋區","address":"新北市板橋區新海路一零八號","phone":"","audit_date":"2024-12-04","business_category":"餐飲業","inspection_result":"複查不合格","violation_reason":"複查不合格","source_type":"環境衛生查核違規","source_dataset":"新北市環境衛生查核","source_url":"https://fsmc.ntpc.gov.tw/DigitalMap/PublicWebsite","aggregate_reference_url":"","location_method":"來源網站座標","violation_count":1}},{"type":"Feature","geometry":{"type":"Point","coordinates":[121.627373,25.062678]},"properties":{"data_time":"2024-11-19","source_row_no":"111N002714","registration_no":"111N002714","name":"御華興食品股份有限公司","city":"新北市","district":"汐止區","address":"新北市汐止區福德一路三九二巷四二弄一一號一.二樓","phone":"","audit_date":"2024-11-19","business_category":"食品工廠","inspection_result":"複查不合格","violation_reason":"複查不合格","source_type":"環境衛生查核違規","source_dataset":"新北市環境衛生查核","source_url":"https://fsmc.ntpc.gov.tw/DigitalMap/PublicWebsite","aggregate_reference_url":"","location_method":"來源網站座標","violation_count":1}},{"type":"Feature","geometry":{"type":"Point","coordinates":[121.478771,25.031114]},"properties":{"data_time":"2024-11-04","source_row_no":"113N009838","registration_no":"113N009838","name":"北投紅茶板橋懷德店","city":"新北市","district":"板橋區","address":"新北市板橋區懷德街一二一號一樓","phone":"","audit_date":"2024-11-04","business_category":"餐飲業","inspection_result":"複查不合格","violation_reason":"複查不合格","source_type":"環境衛生查核違規","source_dataset":"新北市環境衛生查核","source_url":"https://fsmc.ntpc.gov.tw/DigitalMap/PublicWebsite","aggregate_reference_url":"","location_method":"來源網站座標","violation_count":1}},{"type":"Feature","geometry":{"type":"Point","coordinates":[121.515563,25.01339]},"properties":{"data_time":"2024-11-04","source_row_no":"113N010682","registration_no":"113N010682","name":"玄茗冷飲店","city":"新北市","district":"永和區","address":"新北市永和區永和路二段一八二號","phone":"","audit_date":"2024-11-04","business_category":"餐飲業","inspection_result":"複查不合格","violation_reason":"複查不合格","source_type":"環境衛生查核違規","source_dataset":"新北市環境衛生查核","source_url":"https://fsmc.ntpc.gov.tw/DigitalMap/PublicWebsite","aggregate_reference_url":"","location_method":"來源網站座標","violation_count":1}},{"type":"Feature","geometry":{"type":"Point","coordinates":[121.458124,25.048534]},"properties":{"data_time":"2024-10-23","source_row_no":"113N008784","registration_no":"113N008784","name":"市招:雲林蚵仔煎","city":"新北市","district":"新莊區","address":"新北市新莊區福壽街三三號","phone":"","audit_date":"2024-10-23","business_category":"餐飲業","inspection_result":"複查不合格","violation_reason":"複查不合格","source_type":"環境衛生查核違規","source_dataset":"新北市環境衛生查核","source_url":"https://fsmc.ntpc.gov.tw/DigitalMap/PublicWebsite","aggregate_reference_url":"","location_method":"來源網站座標","violation_count":1}},{"type":"Feature","geometry":{"type":"Point","coordinates":[121.504673,24.999498]},"properties":{"data_time":"2024-10-16","source_row_no":"104N005250","registration_no":"104N005250","name":"京廚有限公司","city":"新北市","district":"中和區","address":"新北市中和區中和路一七二號一樓","phone":"","audit_date":"2024-10-16","business_category":"餐飲業","inspection_result":"複查不合格","violation_reason":"複查不合格","source_type":"環境衛生查核違規","source_dataset":"新北市環境衛生查核","source_url":"https://fsmc.ntpc.gov.tw/DigitalMap/PublicWebsite","aggregate_reference_url":"","location_method":"來源網站座標","violation_count":1}},{"type":"Feature","geometry":{"type":"Point","coordinates":[121.427162,24.993522]},"properties":{"data_time":"2024-10-07","source_row_no":"113N008862","registration_no":"113N008862","name":"香格格燒臘快餐坊","city":"新北市","district":"樹林區","address":"新北市樹林區保安街一段二二之四號","phone":"","audit_date":"2024-10-07","business_category":"餐飲業","inspection_result":"複查不合格","violation_reason":"複查不合格","source_type":"環境衛生查核違規","source_dataset":"新北市環境衛生查核","source_url":"https://fsmc.ntpc.gov.tw/DigitalMap/PublicWebsite","aggregate_reference_url":"","location_method":"來源網站座標","violation_count":1}},{"type":"Feature","geometry":{"type":"Point","coordinates":[121.636125,25.066573]},"properties":{"data_time":"2024-09-27","source_row_no":"110N019869","registration_no":"110N019869","name":"豬腳將軍豬腳店","city":"新北市","district":"汐止區","address":"新北市汐止區福德一路一六零巷一號","phone":"","audit_date":"2024-09-27","business_category":"餐飲業","inspection_result":"複查不合格","violation_reason":"複查不合格","source_type":"環境衛生查核違規","source_dataset":"新北市環境衛生查核","source_url":"https://fsmc.ntpc.gov.tw/DigitalMap/PublicWebsite","aggregate_reference_url":"","location_method":"來源網站座標","violation_count":1}},{"type":"Feature","geometry":{"type":"Point","coordinates":[121.446673,25.066179]},"properties":{"data_time":"2024-09-20","source_row_no":"108N006348","registration_no":"108N006348","name":"塑達有限公司","city":"新北市","district":"五股區","address":"新北市五股區五權八路四號一樓","phone":"","audit_date":"2024-09-20","business_category":"其他一般食品製造業","inspection_result":"複查不合格","violation_reason":"複查不合格","source_type":"環境衛生查核違規","source_dataset":"新北市環境衛生查核","source_url":"https://fsmc.ntpc.gov.tw/DigitalMap/PublicWebsite","aggregate_reference_url":"","location_method":"來源網站座標","violation_count":1}},{"type":"Feature","geometry":{"type":"Point","coordinates":[121.662939,25.067335]},"properties":{"data_time":"2024-09-05","source_row_no":"113N007880","registration_no":"113N007880","name":"森茂小吃店(市招：粥大福汐止忠孝店)","city":"新北市","district":"汐止區","address":"新北市汐止區忠孝東路二五零號","phone":"","audit_date":"2024-09-05","business_category":"餐飲業","inspection_result":"複查不合格","violation_reason":"複查不合格","source_type":"環境衛生查核違規","source_dataset":"新北市環境衛生查核","source_url":"https://fsmc.ntpc.gov.tw/DigitalMap/PublicWebsite","aggregate_reference_url":"","location_method":"來源網站座標","violation_count":1}},{"type":"Feature","geometry":{"type":"Point","coordinates":[121.806535,25.133515]},"properties":{"data_time":"2024-09-03","source_row_no":"110N004440","registration_no":"110N004440","name":"炭井臭豆腐店","city":"新北市","district":"瑞芳區","address":"新北市瑞芳區建基路二段五九號一樓","phone":"","audit_date":"2024-09-03","business_category":"餐飲業","inspection_result":"複查不合格","violation_reason":"複查不合格","source_type":"環境衛生查核違規","source_dataset":"新北市環境衛生查核","source_url":"https://fsmc.ntpc.gov.tw/DigitalMap/PublicWebsite","aggregate_reference_url":"","location_method":"來源網站座標","violation_count":1}},{"type":"Feature","geometry":{"type":"Point","coordinates":[121.625366,25.057896]},"properties":{"data_time":"2024-08-30","source_row_no":"112N003162","registration_no":"112N003162","name":"鴻羽食品有限公司","city":"新北市","district":"汐止區","address":"新北市汐止區南陽街一八零巷五號一-二樓","phone":"","audit_date":"2024-08-30","business_category":"食品工廠","inspection_result":"複查不合格","violation_reason":"複查不合格","source_type":"環境衛生查核違規","source_dataset":"新北市環境衛生查核","source_url":"https://fsmc.ntpc.gov.tw/DigitalMap/PublicWebsite","aggregate_reference_url":"","location_method":"來源網站座標","violation_count":1}},{"type":"Feature","geometry":{"type":"Point","coordinates":[121.475019,25.012705]},"properties":{"data_time":"2024-08-28","source_row_no":"113N007859","registration_no":"113N007859","name":"南方澳餃子館 市招：閤家歡北方麵食館","city":"新北市","district":"板橋區","address":"新北市板橋區板新路一三號","phone":"","audit_date":"2024-08-28","business_category":"餐飲業","inspection_result":"複查不合格","violation_reason":"複查不合格","source_type":"環境衛生查核違規","source_dataset":"新北市環境衛生查核","source_url":"https://fsmc.ntpc.gov.tw/DigitalMap/PublicWebsite","aggregate_reference_url":"","location_method":"來源網站座標","violation_count":1}},{"type":"Feature","geometry":{"type":"Point","coordinates":[121.4496,25.033747]},"properties":{"data_time":"2024-08-27","source_row_no":"109N014648","registration_no":"109N014648","name":"飯卷著吃","city":"新北市","district":"新莊區","address":"新北市新莊區新泰路二二號","phone":"","audit_date":"2024-08-27","business_category":"餐飲業","inspection_result":"複查不合格","violation_reason":"複查不合格","source_type":"環境衛生查核違規","source_dataset":"新北市環境衛生查核","source_url":"https://fsmc.ntpc.gov.tw/DigitalMap/PublicWebsite","aggregate_reference_url":"","location_method":"來源網站座標","violation_count":1}},{"type":"Feature","geometry":{"type":"Point","coordinates":[121.459601,25.050264]},"properties":{"data_time":"2024-08-27","source_row_no":"106N008450","registration_no":"106N008450","name":"台灣善商股份有限公司幸福門市(すき家)","city":"新北市","district":"新莊區","address":"新北市新莊區思源路三四五號一樓","phone":"","audit_date":"2024-08-27","business_category":"餐飲業","inspection_result":"複查不合格","violation_reason":"複查不合格","source_type":"環境衛生查核違規","source_dataset":"新北市環境衛生查核","source_url":"https://fsmc.ntpc.gov.tw/DigitalMap/PublicWebsite","aggregate_reference_url":"","location_method":"來源網站座標","violation_count":1}},{"type":"Feature","geometry":{"type":"Point","coordinates":[121.5172,25.007505]},"properties":{"data_time":"2024-08-26","source_row_no":"101N012489","registration_no":"101N012489","name":"鎮福樓餐廳","city":"新北市","district":"永和區","address":"新北市永和區福和路二九四號一樓","phone":"","audit_date":"2024-08-26","business_category":"餐飲業","inspection_result":"複查不合格","violation_reason":"複查不合格","source_type":"環境衛生查核違規","source_dataset":"新北市環境衛生查核","source_url":"https://fsmc.ntpc.gov.tw/DigitalMap/PublicWebsite","aggregate_reference_url":"","location_method":"來源網站座標","violation_count":1}},{"type":"Feature","geometry":{"type":"Point","coordinates":[121.44754,25.037641]},"properties":{"data_time":"2024-08-21","source_row_no":"113N007559","registration_no":"113N007559","name":"鬧天滷企業社","city":"新北市","district":"新莊區","address":"新北市新莊區新泰路一七零號","phone":"","audit_date":"2024-08-21","business_category":"餐飲業","inspection_result":"複查不合格","violation_reason":"複查不合格","source_type":"環境衛生查核違規","source_dataset":"新北市環境衛生查核","source_url":"https://fsmc.ntpc.gov.tw/DigitalMap/PublicWebsite","aggregate_reference_url":"","location_method":"來源網站座標","violation_count":1}},{"type":"Feature","geometry":{"type":"Point","coordinates":[121.486781,25.002723]},"properties":{"data_time":"2024-08-08","source_row_no":"111N002544","registration_no":"111N002544","name":"禾稼有限公司","city":"新北市","district":"中和區","address":"新北市中和區建六路六七巷一四號","phone":"","audit_date":"2024-08-08","business_category":"食品工廠","inspection_result":"複查不合格","violation_reason":"複查不合格","source_type":"環境衛生查核違規","source_dataset":"新北市環境衛生查核","source_url":"https://fsmc.ntpc.gov.tw/DigitalMap/PublicWebsite","aggregate_reference_url":"","location_method":"來源網站座標","violation_count":1}},{"type":"Feature","geometry":{"type":"Point","coordinates":[121.797574,25.109508]},"properties":{"data_time":"2024-08-07","source_row_no":"113N007195","registration_no":"113N007195","name":"幸福時刻企業社(古厝甕仔雞)","city":"新北市","district":"瑞芳區","address":"新北市瑞芳區中山路二五一號","phone":"","audit_date":"2024-08-07","business_category":"餐飲業","inspection_result":"複查不合格","violation_reason":"複查不合格","source_type":"環境衛生查核違規","source_dataset":"新北市環境衛生查核","source_url":"https://fsmc.ntpc.gov.tw/DigitalMap/PublicWebsite","aggregate_reference_url":"","location_method":"來源網站座標","violation_count":1}},{"type":"Feature","geometry":{"type":"Point","coordinates":[121.418302,24.979738]},"properties":{"data_time":"2024-08-06","source_row_no":"106N006165","registration_no":"106N006165","name":"凱悅蛋糕麵包坊","city":"新北市","district":"樹林區","address":"新北市樹林區太元街四八號","phone":"","audit_date":"2024-08-06","business_category":"其他一般食品製造業","inspection_result":"複查不合格","violation_reason":"複查不合格","source_type":"環境衛生查核違規","source_dataset":"新北市環境衛生查核","source_url":"https://fsmc.ntpc.gov.tw/DigitalMap/PublicWebsite","aggregate_reference_url":"","location_method":"來源網站座標","violation_count":1}},{"type":"Feature","geometry":{"type":"Point","coordinates":[121.470703,24.986294]},"properties":{"data_time":"2024-07-30","source_row_no":"102N013012","registration_no":"102N013012","name":"吉品快餐店","city":"新北市","district":"土城區","address":"新北市土城區延吉街一三五號","phone":"","audit_date":"2024-07-30","business_category":"餐飲業","inspection_result":"複查不合格","violation_reason":"複查不合格","source_type":"環境衛生查核違規","source_dataset":"新北市環境衛生查核","source_url":"https://fsmc.ntpc.gov.tw/DigitalMap/PublicWebsite","aggregate_reference_url":"","location_method":"來源網站座標","violation_count":1}},{"type":"Feature","geometry":{"type":"Point","coordinates":[121.468013,24.998666]},"properties":{"data_time":"2024-07-22","source_row_no":"109N010794","registration_no":"109N010794","name":"邢記商行","city":"新北市","district":"中和區","address":"新北市中和區華順街一號","phone":"","audit_date":"2024-07-22","business_category":"其他一般食品製造業","inspection_result":"複查不合格","violation_reason":"複查不合格","source_type":"環境衛生查核違規","source_dataset":"新北市環境衛生查核","source_url":"https://fsmc.ntpc.gov.tw/DigitalMap/PublicWebsite","aggregate_reference_url":"","location_method":"來源網站座標","violation_count":1}},{"type":"Feature","geometry":{"type":"Point","coordinates":[121.487814,25.008991]},"properties":{"data_time":"2024-07-12","source_row_no":"113N005928","registration_no":"113N005928","name":"實蘊有限公司","city":"新北市","district":"中和區","address":"新北市中和區立德街九八巷四六號","phone":"","audit_date":"2024-07-12","business_category":"食品工廠","inspection_result":"複查不合格","violation_reason":"複查不合格","source_type":"環境衛生查核違規","source_dataset":"新北市環境衛生查核","source_url":"https://fsmc.ntpc.gov.tw/DigitalMap/PublicWebsite","aggregate_reference_url":"","location_method":"來源網站座標","violation_count":1}},{"type":"Feature","geometry":{"type":"Point","coordinates":[121.467534,25.025911]},"properties":{"data_time":"2024-07-11","source_row_no":"113N006574","registration_no":"113N006574","name":"八方雲集國際股份有限公司板橋光武店","city":"新北市","district":"板橋區","address":"新北市板橋區光武街三四號","phone":"","audit_date":"2024-07-11","business_category":"餐飲業","inspection_result":"複查不合格","violation_reason":"複查不合格","source_type":"環境衛生查核違規","source_dataset":"新北市環境衛生查核","source_url":"https://fsmc.ntpc.gov.tw/DigitalMap/PublicWebsite","aggregate_reference_url":"","location_method":"來源網站座標","violation_count":1}},{"type":"Feature","geometry":{"type":"Point","coordinates":[121.393144,25.077294]},"properties":{"data_time":"2024-07-11","source_row_no":"108N003096","registration_no":"108N003096","name":"昀品商行(市招:昀品牛排)","city":"新北市","district":"林口區","address":"新北市林口區中正路一三零號","phone":"","audit_date":"2024-07-11","business_category":"餐飲業","inspection_result":"複查不合格","violation_reason":"複查不合格","source_type":"環境衛生查核違規","source_dataset":"新北市環境衛生查核","source_url":"https://fsmc.ntpc.gov.tw/DigitalMap/PublicWebsite","aggregate_reference_url":"","location_method":"來源網站座標","violation_count":1}},{"type":"Feature","geometry":{"type":"Point","coordinates":[121.541891,24.983509]},"properties":{"data_time":"2024-07-09","source_row_no":"113N006592","registration_no":"113N006592","name":"家安豐康小吃店","city":"新北市","district":"新店區","address":"新北市新店區寶安街五二號一樓","phone":"","audit_date":"2024-07-09","business_category":"餐飲業","inspection_result":"複查不合格","violation_reason":"複查不合格","source_type":"環境衛生查核違規","source_dataset":"新北市環境衛生查核","source_url":"https://fsmc.ntpc.gov.tw/DigitalMap/PublicWebsite","aggregate_reference_url":"","location_method":"來源網站座標","violation_count":1}},{"type":"Feature","geometry":{"type":"Point","coordinates":[121.427501,24.98416]},"properties":{"data_time":"2024-07-02","source_row_no":"113N006425","registration_no":"113N006425","name":"鴻源茶鋪(市招：茶湯會樹林金門店)","city":"新北市","district":"板橋區","address":"新北市板橋區金門街三六零號","phone":"","audit_date":"2024-07-02","business_category":"餐飲業","inspection_result":"複查不合格","violation_reason":"複查不合格","source_type":"環境衛生查核違規","source_dataset":"新北市環境衛生查核","source_url":"https://fsmc.ntpc.gov.tw/DigitalMap/PublicWebsite","aggregate_reference_url":"","location_method":"來源網站座標","violation_count":1}},{"type":"Feature","geometry":{"type":"Point","coordinates":[121.475345,25.081936]},"properties":{"data_time":"2024-06-27","source_row_no":"110N004858","registration_no":"110N004858","name":"拿坡里披薩炸雞蘆洲分公司","city":"新北市","district":"蘆洲區","address":"新北市蘆洲區中山二路一二號","phone":"","audit_date":"2024-06-27","business_category":"餐飲業","inspection_result":"複查不合格","violation_reason":"複查不合格","source_type":"環境衛生查核違規","source_dataset":"新北市環境衛生查核","source_url":"https://fsmc.ntpc.gov.tw/DigitalMap/PublicWebsite","aggregate_reference_url":"","location_method":"來源網站座標","violation_count":1}},{"type":"Feature","geometry":{"type":"Point","coordinates":[121.46816,25.082659]},"properties":{"data_time":"2024-05-28","source_row_no":"110N007136","registration_no":"110N007136","name":"滿口香知高飯小吃店","city":"新北市","district":"蘆洲區","address":"新北市蘆洲區光華路六七號","phone":"","audit_date":"2024-05-28","business_category":"餐飲業","inspection_result":"複查不合格","violation_reason":"複查不合格","source_type":"環境衛生查核違規","source_dataset":"新北市環境衛生查核","source_url":"https://fsmc.ntpc.gov.tw/DigitalMap/PublicWebsite","aggregate_reference_url":"","location_method":"來源網站座標","violation_count":1}},{"type":"Feature","geometry":{"type":"Point","coordinates":[121.427617,25.005791]},"properties":{"data_time":"2024-05-23","source_row_no":"113N004568","registration_no":"113N004568","name":"穩睛國際有限公司","city":"新北市","district":"樹林區","address":"新北市樹林區俊英街一一六巷一號一樓","phone":"","audit_date":"2024-05-23","business_category":"食品工廠","inspection_result":"複查不合格","violation_reason":"複查不合格","source_type":"環境衛生查核違規","source_dataset":"新北市環境衛生查核","source_url":"https://fsmc.ntpc.gov.tw/DigitalMap/PublicWebsite","aggregate_reference_url":"","location_method":"來源網站座標","violation_count":1}},{"type":"Feature","geometry":{"type":"Point","coordinates":[121.477897,25.081695]},"properties":{"data_time":"2024-05-16","source_row_no":"113N004199","registration_no":"113N004199","name":"香草與鹽","city":"新北市","district":"蘆洲區","address":"新北市蘆洲區中山一路一零八巷一號","phone":"","audit_date":"2024-05-16","business_category":"餐飲業","inspection_result":"複查不合格","violation_reason":"複查不合格","source_type":"環境衛生查核違規","source_dataset":"新北市環境衛生查核","source_url":"https://fsmc.ntpc.gov.tw/DigitalMap/PublicWebsite","aggregate_reference_url":"","location_method":"來源網站座標","violation_count":1}},{"type":"Feature","geometry":{"type":"Point","coordinates":[121.471889,25.079385]},"properties":{"data_time":"2024-05-15","source_row_no":"112N006660","registration_no":"112N006660","name":"尚安精緻便當","city":"新北市","district":"蘆洲區","address":"新北市蘆洲區中山一路二八七號","phone":"","audit_date":"2024-05-15","business_category":"餐飲業","inspection_result":"複查不合格","violation_reason":"複查不合格","source_type":"環境衛生查核違規","source_dataset":"新北市環境衛生查核","source_url":"https://fsmc.ntpc.gov.tw/DigitalMap/PublicWebsite","aggregate_reference_url":"","location_method":"來源網站座標","violation_count":1}},{"type":"Feature","geometry":{"type":"Point","coordinates":[121.504335,25.005112]},"properties":{"data_time":"2024-05-09","source_row_no":"106N006571","registration_no":"106N006571","name":"牛丼飲食店","city":"新北市","district":"中和區","address":"新北市中和區中山路二段四零號一樓","phone":"","audit_date":"2024-05-09","business_category":"餐飲業","inspection_result":"複查不合格","violation_reason":"複查不合格","source_type":"環境衛生查核違規","source_dataset":"新北市環境衛生查核","source_url":"https://fsmc.ntpc.gov.tw/DigitalMap/PublicWebsite","aggregate_reference_url":"","location_method":"來源網站座標","violation_count":1}},{"type":"Feature","geometry":{"type":"Point","coordinates":[121.444408,24.978141]},"properties":{"data_time":"2024-05-07","source_row_no":"113N004558","registration_no":"113N004558","name":"寵藝餐飲企業社","city":"新北市","district":"土城區","address":"新北市土城區中央路二段六一巷五四號一樓","phone":"","audit_date":"2024-05-07","business_category":"餐飲業","inspection_result":"複查不合格","violation_reason":"複查不合格","source_type":"環境衛生查核違規","source_dataset":"新北市環境衛生查核","source_url":"https://fsmc.ntpc.gov.tw/DigitalMap/PublicWebsite","aggregate_reference_url":"","location_method":"來源網站座標","violation_count":1}},{"type":"Feature","geometry":{"type":"Point","coordinates":[121.375101,24.937544]},"properties":{"data_time":"2024-05-06","source_row_no":"113N004396","registration_no":"113N004396","name":"瑞麟美又美","city":"新北市","district":"三峽區","address":"新北市三峽區國光街二八號","phone":"","audit_date":"2024-05-06","business_category":"餐飲業","inspection_result":"複查不合格","violation_reason":"複查不合格","source_type":"環境衛生查核違規","source_dataset":"新北市環境衛生查核","source_url":"https://fsmc.ntpc.gov.tw/DigitalMap/PublicWebsite","aggregate_reference_url":"","location_method":"來源網站座標","violation_count":1}},{"type":"Feature","geometry":{"type":"Point","coordinates":[121.465337,24.988752]},"properties":{"data_time":"2024-05-01","source_row_no":"113N004221","registration_no":"113N004221","name":"吃自己小吃店","city":"新北市","district":"土城區","address":"新北市土城區延和路四八號一樓","phone":"","audit_date":"2024-05-01","business_category":"餐飲業","inspection_result":"複查不合格","violation_reason":"複查不合格","source_type":"環境衛生查核違規","source_dataset":"新北市環境衛生查核","source_url":"https://fsmc.ntpc.gov.tw/DigitalMap/PublicWebsite","aggregate_reference_url":"","location_method":"來源網站座標","violation_count":1}},{"type":"Feature","geometry":{"type":"Point","coordinates":[121.362792,24.936621]},"properties":{"data_time":"2024-05-01","source_row_no":"102N007674","registration_no":"102N007674","name":"五富食品行","city":"新北市","district":"三峽區","address":"新北市三峽區中山路二三一巷五之二號","phone":"","audit_date":"2024-05-01","business_category":"地下工廠","inspection_result":"複查不合格","violation_reason":"複查不合格","source_type":"環境衛生查核違規","source_dataset":"新北市環境衛生查核","source_url":"https://fsmc.ntpc.gov.tw/DigitalMap/PublicWebsite","aggregate_reference_url":"","location_method":"來源網站座標","violation_count":1}},{"type":"Feature","geometry":{"type":"Point","coordinates":[121.442799,24.974489]},"properties":{"data_time":"2024-04-24","source_row_no":"113N001054","registration_no":"113N001054","name":"劉帥螺絲粉","city":"新北市","district":"土城區","address":"新北市土城區和平路八號之一","phone":"","audit_date":"2024-04-24","business_category":"餐飲業","inspection_result":"複查不合格","violation_reason":"複查不合格","source_type":"環境衛生查核違規","source_dataset":"新北市環境衛生查核","source_url":"https://fsmc.ntpc.gov.tw/DigitalMap/PublicWebsite","aggregate_reference_url":"","location_method":"來源網站座標","violation_count":1}},{"type":"Feature","geometry":{"type":"Point","coordinates":[121.415888,25.157585]},"properties":{"data_time":"2024-04-23","source_row_no":"109N009955","registration_no":"109N009955","name":"鼎源企業社","city":"新北市","district":"八里區","address":"新北市八里區賢三街一二零之一號","phone":"","audit_date":"2024-04-23","business_category":"食品工廠","inspection_result":"複查不合格","violation_reason":"複查不合格","source_type":"環境衛生查核違規","source_dataset":"新北市環境衛生查核","source_url":"https://fsmc.ntpc.gov.tw/DigitalMap/PublicWebsite","aggregate_reference_url":"","location_method":"來源網站座標","violation_count":1}},{"type":"Feature","geometry":{"type":"Point","coordinates":[121.476332,25.066589]},"properties":{"data_time":"2024-04-22","source_row_no":"109N010914","registration_no":"109N010914","name":"民宅","city":"新北市","district":"三重區","address":"新北市三重區頂崁街二零六巷三零號一樓","phone":"","audit_date":"2024-04-22","business_category":"食品販賣業","inspection_result":"複查不合格","violation_reason":"複查不合格","source_type":"環境衛生查核違規","source_dataset":"新北市環境衛生查核","source_url":"https://fsmc.ntpc.gov.tw/DigitalMap/PublicWebsite","aggregate_reference_url":"","location_method":"來源網站座標","violation_count":1}},{"type":"Feature","geometry":{"type":"Point","coordinates":[121.483516,25.013047]},"properties":{"data_time":"2024-04-18","source_row_no":"110N012544","registration_no":"110N012544","name":"富皇食品有限公司","city":"新北市","district":"中和區","address":"新北市中和區中板路一八巷三弄二一號一.二樓","phone":"","audit_date":"2024-04-18","business_category":"食品工廠","inspection_result":"複查不合格","violation_reason":"複查不合格","source_type":"環境衛生查核違規","source_dataset":"新北市環境衛生查核","source_url":"https://fsmc.ntpc.gov.tw/DigitalMap/PublicWebsite","aggregate_reference_url":"","location_method":"來源網站座標","violation_count":1}},{"type":"Feature","geometry":{"type":"Point","coordinates":[121.421637,25.181258]},"properties":{"data_time":"2024-04-11","source_row_no":"106N008870","registration_no":"106N008870","name":"忠師傅餃子王料理店","city":"新北市","district":"淡水區","address":"新北市淡水區沙崙路二八號","phone":"","audit_date":"2024-04-11","business_category":"餐飲業","inspection_result":"複查不合格","violation_reason":"複查不合格","source_type":"環境衛生查核違規","source_dataset":"新北市環境衛生查核","source_url":"https://fsmc.ntpc.gov.tw/DigitalMap/PublicWebsite","aggregate_reference_url":"","location_method":"來源網站座標","violation_count":1}},{"type":"Feature","geometry":{"type":"Point","coordinates":[121.511275,25.007591]},"properties":{"data_time":"2024-04-10","source_row_no":"112N011573","registration_no":"112N011573","name":"元太興有限公司","city":"新北市","district":"永和區","address":"新北市永和區保平路五零巷八弄六號一樓","phone":"","audit_date":"2024-04-10","business_category":"食品販賣業","inspection_result":"複查不合格","violation_reason":"複查不合格","source_type":"環境衛生查核違規","source_dataset":"新北市環境衛生查核","source_url":"https://fsmc.ntpc.gov.tw/DigitalMap/PublicWebsite","aggregate_reference_url":"","location_method":"來源網站座標","violation_count":1}},{"type":"Feature","geometry":{"type":"Point","coordinates":[121.545516,24.969278]},"properties":{"data_time":"2024-04-08","source_row_no":"106N007619","registration_no":"106N007619","name":"吉川麵包坊","city":"新北市","district":"新店區","address":"新北市新店區中正路九號","phone":"","audit_date":"2024-04-08","business_category":"其他一般食品製造業","inspection_result":"複查不合格","violation_reason":"複查不合格","source_type":"環境衛生查核違規","source_dataset":"新北市環境衛生查核","source_url":"https://fsmc.ntpc.gov.tw/DigitalMap/PublicWebsite","aggregate_reference_url":"","location_method":"來源網站座標","violation_count":1}},{"type":"Feature","geometry":{"type":"Point","coordinates":[121.389376,25.142102]},"properties":{"data_time":"2024-04-03","source_row_no":"113N000986","registration_no":"113N000986","name":"阿娟小吃店","city":"新北市","district":"八里區","address":"新北市八里區中山路三段一三一號","phone":"","audit_date":"2024-04-03","business_category":"餐飲業","inspection_result":"複查不合格","violation_reason":"複查不合格","source_type":"環境衛生查核違規","source_dataset":"新北市環境衛生查核","source_url":"https://fsmc.ntpc.gov.tw/DigitalMap/PublicWebsite","aggregate_reference_url":"","location_method":"來源網站座標","violation_count":1}},{"type":"Feature","geometry":{"type":"Point","coordinates":[121.635183,25.222201]},"properties":{"data_time":"2024-04-02","source_row_no":"113N003774","registration_no":"113N003774","name":"生富小吃店","city":"新北市","district":"金山區","address":"新北市金山區中正路四零號","phone":"","audit_date":"2024-04-02","business_category":"餐飲業","inspection_result":"複查不合格","violation_reason":"複查不合格","source_type":"環境衛生查核違規","source_dataset":"新北市環境衛生查核","source_url":"https://fsmc.ntpc.gov.tw/DigitalMap/PublicWebsite","aggregate_reference_url":"","location_method":"來源網站座標","violation_count":1}},{"type":"Feature","geometry":{"type":"Point","coordinates":[121.468936,25.056806]},"properties":{"data_time":"2024-03-19","source_row_no":"103N013178","registration_no":"103N013178","name":"查理布朗有限公司","city":"新北市","district":"三重區","address":"新北市三重區中興北街一五六號一~四樓","phone":"","audit_date":"2024-03-19","business_category":"食品工廠","inspection_result":"複查不合格","violation_reason":"複查不合格","source_type":"環境衛生查核違規","source_dataset":"新北市環境衛生查核","source_url":"https://fsmc.ntpc.gov.tw/DigitalMap/PublicWebsite","aggregate_reference_url":"","location_method":"來源網站座標","violation_count":1}},{"type":"Feature","geometry":{"type":"Point","coordinates":[121.497143,25.072783]},"properties":{"data_time":"2024-03-07","source_row_no":"107N005653","registration_no":"107N005653","name":"金泰泰式料理","city":"新北市","district":"三重區","address":"新北市三重區龍門路八六號","phone":"","audit_date":"2024-03-07","business_category":"餐飲業","inspection_result":"複查不合格","violation_reason":"複查不合格","source_type":"環境衛生查核違規","source_dataset":"新北市環境衛生查核","source_url":"https://fsmc.ntpc.gov.tw/DigitalMap/PublicWebsite","aggregate_reference_url":"","location_method":"來源網站座標","violation_count":1}},{"type":"Feature","geometry":{"type":"Point","coordinates":[121.519587,25.01204]},"properties":{"data_time":"2024-03-06","source_row_no":"113N000898","registration_no":"113N000898","name":"欣聚有限公司","city":"新北市","district":"永和區","address":"新北市永和區竹林路一零零之一號一樓","phone":"","audit_date":"2024-03-06","business_category":"餐飲業","inspection_result":"複查不合格","violation_reason":"複查不合格","source_type":"環境衛生查核違規","source_dataset":"新北市環境衛生查核","source_url":"https://fsmc.ntpc.gov.tw/DigitalMap/PublicWebsite","aggregate_reference_url":"","location_method":"來源網站座標","violation_count":1}},{"type":"Feature","geometry":{"type":"Point","coordinates":[121.533616,24.982826]},"properties":{"data_time":"2024-02-27","source_row_no":"110N002824","registration_no":"110N002824","name":"柏萊時國際股份有限公司","city":"新北市","district":"新店區","address":"新北市新店區中正路四九三號五樓","phone":"","audit_date":"2024-02-27","business_category":"食品工廠","inspection_result":"複查不合格","violation_reason":"複查不合格","source_type":"環境衛生查核違規","source_dataset":"新北市環境衛生查核","source_url":"https://fsmc.ntpc.gov.tw/DigitalMap/PublicWebsite","aggregate_reference_url":"","location_method":"來源網站座標","violation_count":1}},{"type":"Feature","geometry":{"type":"Point","coordinates":[121.493754,25.00017]},"properties":{"data_time":"2024-02-26","source_row_no":"105N007141","registration_no":"105N007141","name":"恆茂盛實業有限公司","city":"新北市","district":"中和區","address":"新北市中和區中山路二段三二七巷一一弄一一號五樓","phone":"","audit_date":"2024-02-26","business_category":"食品工廠","inspection_result":"複查不合格","violation_reason":"複查不合格","source_type":"環境衛生查核違規","source_dataset":"新北市環境衛生查核","source_url":"https://fsmc.ntpc.gov.tw/DigitalMap/PublicWebsite","aggregate_reference_url":"","location_method":"來源網站座標","violation_count":1}},{"type":"Feature","geometry":{"type":"Point","coordinates":[121.399417,25.145321]},"properties":{"data_time":"2024-02-21","source_row_no":"102N013303","registration_no":"102N013303","name":"旺京小吃店","city":"新北市","district":"八里區","address":"新北市八里區中華路二段五一六號","phone":"","audit_date":"2024-02-21","business_category":"餐飲業","inspection_result":"複查不合格","violation_reason":"複查不合格","source_type":"環境衛生查核違規","source_dataset":"新北市環境衛生查核","source_url":"https://fsmc.ntpc.gov.tw/DigitalMap/PublicWebsite","aggregate_reference_url":"","location_method":"來源網站座標","violation_count":1}},{"type":"Feature","geometry":{"type":"Point","coordinates":[121.502906,25.256826]},"properties":{"data_time":"2024-02-06","source_row_no":"113N000727","registration_no":"113N000727","name":"華永照外燴企業社","city":"新北市","district":"三芝區","address":"新北市三芝區智成街四號","phone":"","audit_date":"2024-02-06","business_category":"餐飲業","inspection_result":"複查不合格","violation_reason":"複查不合格","source_type":"環境衛生查核違規","source_dataset":"新北市環境衛生查核","source_url":"https://fsmc.ntpc.gov.tw/DigitalMap/PublicWebsite","aggregate_reference_url":"","location_method":"來源網站座標","violation_count":1}},{"type":"Feature","geometry":{"type":"Point","coordinates":[121.417803,25.02695]},"properties":{"data_time":"2024-01-29","source_row_no":"110N019257","registration_no":"110N019257","name":"呆頭鵝鵝肉麵","city":"新北市","district":"新莊區","address":"新北市新莊區中正路七零零之二三號","phone":"","audit_date":"2024-01-29","business_category":"餐飲業","inspection_result":"複查不合格","violation_reason":"複查不合格","source_type":"環境衛生查核違規","source_dataset":"新北市環境衛生查核","source_url":"https://fsmc.ntpc.gov.tw/DigitalMap/PublicWebsite","aggregate_reference_url":"","location_method":"來源網站座標","violation_count":1}},{"type":"Feature","geometry":{"type":"Point","coordinates":[121.514304,25.006716]},"properties":{"data_time":"2024-01-22","source_row_no":"101N017851","registration_no":"101N017851","name":"佳佳香鍋貼水餃製造地","city":"新北市","district":"永和區","address":"新北市永和區秀朗路一段五三號","phone":"","audit_date":"2024-01-22","business_category":"食品工廠","inspection_result":"複查不合格","violation_reason":"複查不合格","source_type":"環境衛生查核違規","source_dataset":"新北市環境衛生查核","source_url":"https://fsmc.ntpc.gov.tw/DigitalMap/PublicWebsite","aggregate_reference_url":"","location_method":"來源網站座標","violation_count":1}},{"type":"Feature","geometry":{"type":"Point","coordinates":[121.470933,25.031165]},"properties":{"data_time":"2024-01-09","source_row_no":"109N013167","registration_no":"109N013167","name":"龍門客棧","city":"新北市","district":"板橋區","address":"新北市板橋區雙十路三段一五號","phone":"","audit_date":"2024-01-09","business_category":"餐飲業","inspection_result":"複查不合格","violation_reason":"複查不合格","source_type":"環境衛生查核違規","source_dataset":"新北市環境衛生查核","source_url":"https://fsmc.ntpc.gov.tw/DigitalMap/PublicWebsite","aggregate_reference_url":"","location_method":"來源網站座標","violation_count":1}},{"type":"Feature","geometry":{"type":"Point","coordinates":[121.492945,25.004523]},"properties":{"data_time":"2024-01-03","source_row_no":"112N011588","registration_no":"112N011588","name":"和正餐飲股份有限公司","city":"新北市","district":"中和區","address":"新北市中和區中山路二段三四零巷五七號一,二樓","phone":"","audit_date":"2024-01-03","business_category":"食品工廠","inspection_result":"複查不合格","violation_reason":"複查不合格","source_type":"環境衛生查核違規","source_dataset":"新北市環境衛生查核","source_url":"https://fsmc.ntpc.gov.tw/DigitalMap/PublicWebsite","aggregate_reference_url":"","location_method":"來源網站座標","violation_count":1}},{"type":"Feature","geometry":{"type":"Point","coordinates":[121.472209,25.002815]},"properties":{"data_time":"2023-12-26","source_row_no":"112N011625","registration_no":"112N011625","name":"世瑋小吃店","city":"新北市","district":"中和區","address":"新北市中和區莒光路八二號一樓","phone":"","audit_date":"2023-12-26","business_category":"餐飲業","inspection_result":"複查不合格","violation_reason":"複查不合格","source_type":"環境衛生查核違規","source_dataset":"新北市環境衛生查核","source_url":"https://fsmc.ntpc.gov.tw/DigitalMap/PublicWebsite","aggregate_reference_url":"","location_method":"來源網站座標","violation_count":1}},{"type":"Feature","geometry":{"type":"Point","coordinates":[121.512948,25.007697]},"properties":{"data_time":"2023-12-06","source_row_no":"106N008573","registration_no":"106N008573","name":"湘之饌餐飲","city":"新北市","district":"永和區","address":"新北市永和區保平路六號","phone":"","audit_date":"2023-12-06","business_category":"餐飲業","inspection_result":"複查不合格","violation_reason":"複查不合格","source_type":"環境衛生查核違規","source_dataset":"新北市環境衛生查核","source_url":"https://fsmc.ntpc.gov.tw/DigitalMap/PublicWebsite","aggregate_reference_url":"","location_method":"來源網站座標","violation_count":1}},{"type":"Feature","geometry":{"type":"Point","coordinates":[121.47392,25.028976]},"properties":{"data_time":"2023-12-01","source_row_no":"107N004451","registration_no":"107N004451","name":"錢都涮涮鍋店","city":"新北市","district":"板橋區","address":"新北市板橋區雙十路二段一二八號一樓","phone":"","audit_date":"2023-12-01","business_category":"餐飲業","inspection_result":"複查不合格","violation_reason":"複查不合格","source_type":"環境衛生查核違規","source_dataset":"新北市環境衛生查核","source_url":"https://fsmc.ntpc.gov.tw/DigitalMap/PublicWebsite","aggregate_reference_url":"","location_method":"來源網站座標","violation_count":1}},{"type":"Feature","geometry":{"type":"Point","coordinates":[121.499609,25.001214]},"properties":{"data_time":"2023-10-26","source_row_no":"109N016846","registration_no":"109N016846","name":"大鑫雞腿王店","city":"新北市","district":"中和區","address":"新北市中和區中和路四零巷五號一樓","phone":"","audit_date":"2023-10-26","business_category":"餐飲業","inspection_result":"複查不合格","violation_reason":"複查不合格","source_type":"環境衛生查核違規","source_dataset":"新北市環境衛生查核","source_url":"https://fsmc.ntpc.gov.tw/DigitalMap/PublicWebsite","aggregate_reference_url":"","location_method":"來源網站座標","violation_count":1}},{"type":"Feature","geometry":{"type":"Point","coordinates":[121.399916,25.014113]},"properties":{"data_time":"2023-10-25","source_row_no":"112N008795","registration_no":"112N008795","name":"泰御股份有限公司","city":"新北市","district":"樹林區","address":"新北市樹林區工興街八號","phone":"","audit_date":"2023-10-25","business_category":"食品工廠","inspection_result":"複查不合格","violation_reason":"複查不合格","source_type":"環境衛生查核違規","source_dataset":"新北市環境衛生查核","source_url":"https://fsmc.ntpc.gov.tw/DigitalMap/PublicWebsite","aggregate_reference_url":"","location_method":"來源網站座標","violation_count":1}},{"type":"Feature","geometry":{"type":"Point","coordinates":[121.329677,24.969491]},"properties":{"data_time":"2023-10-17","source_row_no":"112N000116","registration_no":"112N000116","name":"大磬企業股份有限公司","city":"新北市","district":"鶯歌區","address":"新北市鶯歌區鶯桃路六五八巷一六號","phone":"","audit_date":"2023-10-17","business_category":"食品工廠","inspection_result":"複查不合格","violation_reason":"複查不合格","source_type":"環境衛生查核違規","source_dataset":"新北市環境衛生查核","source_url":"https://fsmc.ntpc.gov.tw/DigitalMap/PublicWebsite","aggregate_reference_url":"","location_method":"來源網站座標","violation_count":1}},{"type":"Feature","geometry":{"type":"Point","coordinates":[121.503168,25.256591]},"properties":{"data_time":"2023-10-16","source_row_no":"111N002866","registration_no":"111N002866","name":"林蜂肉粽","city":"新北市","district":"三芝區","address":"新北市三芝區智成街一九號","phone":"","audit_date":"2023-10-16","business_category":"食品工廠","inspection_result":"複查不合格","violation_reason":"複查不合格","source_type":"環境衛生查核違規","source_dataset":"新北市環境衛生查核","source_url":"https://fsmc.ntpc.gov.tw/DigitalMap/PublicWebsite","aggregate_reference_url":"","location_method":"來源網站座標","violation_count":1}},{"type":"Feature","geometry":{"type":"Point","coordinates":[121.430263,25.029462]},"properties":{"data_time":"2023-10-11","source_row_no":"105N010413","registration_no":"105N010413","name":"濟生股份有限公司","city":"新北市","district":"新莊區","address":"新北市新莊區福營路二二七巷二三號","phone":"","audit_date":"2023-10-11","business_category":"其他一般食品製造業","inspection_result":"複查不合格","violation_reason":"複查不合格","source_type":"環境衛生查核違規","source_dataset":"新北市環境衛生查核","source_url":"https://fsmc.ntpc.gov.tw/DigitalMap/PublicWebsite","aggregate_reference_url":"","location_method":"來源網站座標","violation_count":1}},{"type":"Feature","geometry":{"type":"Point","coordinates":[121.613341,25.001307]},"properties":{"data_time":"2023-10-05","source_row_no":"111N010055","registration_no":"111N010055","name":"阿珠芋圓","city":"新北市","district":"深坑區","address":"新北市深坑區深坑街一三四號","phone":"","audit_date":"2023-10-05","business_category":"餐飲業","inspection_result":"複查不合格","violation_reason":"複查不合格","source_type":"環境衛生查核違規","source_dataset":"新北市環境衛生查核","source_url":"https://fsmc.ntpc.gov.tw/DigitalMap/PublicWebsite","aggregate_reference_url":"","location_method":"來源網站座標","violation_count":1}},{"type":"Feature","geometry":{"type":"Point","coordinates":[121.429729,25.178575]},"properties":{"data_time":"2023-10-02","source_row_no":"112N007801","registration_no":"112N007801","name":"禮萊國際酒店股份有限公司淡水營業所","city":"新北市","district":"淡水區","address":"新北市淡水區中正路一段六巷三二號","phone":"","audit_date":"2023-10-02","business_category":"餐飲業","inspection_result":"複查不合格","violation_reason":"複查不合格","source_type":"環境衛生查核違規","source_dataset":"新北市環境衛生查核","source_url":"https://fsmc.ntpc.gov.tw/DigitalMap/PublicWebsite","aggregate_reference_url":"","location_method":"來源網站座標","violation_count":1}},{"type":"Feature","geometry":{"type":"Point","coordinates":[121.514236,24.996008]},"properties":{"data_time":"2023-09-28","source_row_no":"112N007926","registration_no":"112N007926","name":"搶鮮食堂","city":"新北市","district":"永和區","address":"新北市永和區中正路三三號一樓","phone":"","audit_date":"2023-09-28","business_category":"餐飲業","inspection_result":"複查不合格","violation_reason":"複查不合格","source_type":"環境衛生查核違規","source_dataset":"新北市環境衛生查核","source_url":"https://fsmc.ntpc.gov.tw/DigitalMap/PublicWebsite","aggregate_reference_url":"","location_method":"來源網站座標","violation_count":1}},{"type":"Feature","geometry":{"type":"Point","coordinates":[121.461764,25.044357]},"properties":{"data_time":"2023-09-25","source_row_no":"112N007804","registration_no":"112N007804","name":"名記豆腐有限公司新莊廠","city":"新北市","district":"新莊區","address":"新北市新莊區復興路三段五零號一樓","phone":"","audit_date":"2023-09-25","business_category":"食品工廠","inspection_result":"複查不合格","violation_reason":"複查不合格","source_type":"環境衛生查核違規","source_dataset":"新北市環境衛生查核","source_url":"https://fsmc.ntpc.gov.tw/DigitalMap/PublicWebsite","aggregate_reference_url":"","location_method":"來源網站座標","violation_count":1}},{"type":"Feature","geometry":{"type":"Point","coordinates":[121.512504,24.989041]},"properties":{"data_time":"2023-08-29","source_row_no":"108N010282","registration_no":"108N010282","name":"市招:台南擔仔麵","city":"新北市","district":"中和區","address":"新北市中和區景新街四一零巷五號一樓","phone":"","audit_date":"2023-08-29","business_category":"餐飲業","inspection_result":"複查不合格","violation_reason":"複查不合格","source_type":"環境衛生查核違規","source_dataset":"新北市環境衛生查核","source_url":"https://fsmc.ntpc.gov.tw/DigitalMap/PublicWebsite","aggregate_reference_url":"","location_method":"來源網站座標","violation_count":1}},{"type":"Feature","geometry":{"type":"Point","coordinates":[121.512617,24.989074]},"properties":{"data_time":"2023-08-28","source_row_no":"108N011443","registration_no":"108N011443","name":"四海遊龍食品股份有限公司-景新門市","city":"新北市","district":"中和區","address":"新北市中和區景新街四一零巷一號","phone":"","audit_date":"2023-08-28","business_category":"餐飲業","inspection_result":"複查不合格","violation_reason":"複查不合格","source_type":"環境衛生查核違規","source_dataset":"新北市環境衛生查核","source_url":"https://fsmc.ntpc.gov.tw/DigitalMap/PublicWebsite","aggregate_reference_url":"","location_method":"來源網站座標","violation_count":1}},{"type":"Feature","geometry":{"type":"Point","coordinates":[121.510654,24.988961]},"properties":{"data_time":"2023-08-18","source_row_no":"109N013490","registration_no":"109N013490","name":"廚神小吃店","city":"新北市","district":"中和區","address":"新北市中和區仁愛街一六號一樓","phone":"","audit_date":"2023-08-18","business_category":"餐飲業","inspection_result":"複查不合格","violation_reason":"複查不合格","source_type":"環境衛生查核違規","source_dataset":"新北市環境衛生查核","source_url":"https://fsmc.ntpc.gov.tw/DigitalMap/PublicWebsite","aggregate_reference_url":"","location_method":"來源網站座標","violation_count":1}},{"type":"Feature","geometry":{"type":"Point","coordinates":[121.487902,25.000877]},"properties":{"data_time":"2023-08-17","source_row_no":"110N010142","registration_no":"110N010142","name":"金鑽牛有限公司","city":"新北市","district":"中和區","address":"新北市中和區建一路九二號","phone":"","audit_date":"2023-08-17","business_category":"餐飲業","inspection_result":"複查不合格","violation_reason":"複查不合格","source_type":"環境衛生查核違規","source_dataset":"新北市環境衛生查核","source_url":"https://fsmc.ntpc.gov.tw/DigitalMap/PublicWebsite","aggregate_reference_url":"","location_method":"來源網站座標","violation_count":1}},{"type":"Feature","geometry":{"type":"Point","coordinates":[121.435097,25.086396]},"properties":{"data_time":"2023-08-16","source_row_no":"108N004420","registration_no":"108N004420","name":"天天美麗媽小吃店","city":"新北市","district":"五股區","address":"新北市五股區工商路一四六之二號","phone":"","audit_date":"2023-08-16","business_category":"餐飲業","inspection_result":"複查不合格","violation_reason":"複查不合格","source_type":"環境衛生查核違規","source_dataset":"新北市環境衛生查核","source_url":"https://fsmc.ntpc.gov.tw/DigitalMap/PublicWebsite","aggregate_reference_url":"","location_method":"來源網站座標","violation_count":1}},{"type":"Feature","geometry":{"type":"Point","coordinates":[121.477792,25.027245]},"properties":{"data_time":"2023-08-16","source_row_no":"112N007186","registration_no":"112N007186","name":"老獅開飯","city":"新北市","district":"板橋區","address":"新北市板橋區大同街三五號","phone":"","audit_date":"2023-08-16","business_category":"餐飲業","inspection_result":"複查不合格","violation_reason":"複查不合格","source_type":"環境衛生查核違規","source_dataset":"新北市環境衛生查核","source_url":"https://fsmc.ntpc.gov.tw/DigitalMap/PublicWebsite","aggregate_reference_url":"","location_method":"來源網站座標","violation_count":1}},{"type":"Feature","geometry":{"type":"Point","coordinates":[121.513404,24.995689]},"properties":{"data_time":"2023-08-11","source_row_no":"110N014596","registration_no":"110N014596","name":"胖胖鍋小吃店","city":"新北市","district":"中和區","address":"新北市中和區宜安路一四號","phone":"","audit_date":"2023-08-11","business_category":"餐飲業","inspection_result":"複查不合格","violation_reason":"複查不合格","source_type":"環境衛生查核違規","source_dataset":"新北市環境衛生查核","source_url":"https://fsmc.ntpc.gov.tw/DigitalMap/PublicWebsite","aggregate_reference_url":"","location_method":"來源網站座標","violation_count":1}},{"type":"Feature","geometry":{"type":"Point","coordinates":[121.388952,25.080434]},"properties":{"data_time":"2023-08-08","source_row_no":"110N000639","registration_no":"110N000639","name":"合利盛商行","city":"新北市","district":"林口區","address":"新北市林口區竹林路二六五之一號","phone":"","audit_date":"2023-08-08","business_category":"食品販賣業","inspection_result":"複查不合格","violation_reason":"複查不合格","source_type":"環境衛生查核違規","source_dataset":"新北市環境衛生查核","source_url":"https://fsmc.ntpc.gov.tw/DigitalMap/PublicWebsite","aggregate_reference_url":"","location_method":"來源網站座標","violation_count":1}},{"type":"Feature","geometry":{"type":"Point","coordinates":[121.47438,25.005979]},"properties":{"data_time":"2023-08-08","source_row_no":"112N007069","registration_no":"112N007069","name":"沐沐龍亭商號","city":"新北市","district":"中和區","address":"新北市中和區中山路三段一二五號","phone":"","audit_date":"2023-08-08","business_category":"餐飲業","inspection_result":"複查不合格","violation_reason":"複查不合格","source_type":"環境衛生查核違規","source_dataset":"新北市環境衛生查核","source_url":"https://fsmc.ntpc.gov.tw/DigitalMap/PublicWebsite","aggregate_reference_url":"","location_method":"來源網站座標","violation_count":1}},{"type":"Feature","geometry":{"type":"Point","coordinates":[121.507067,25.004144]},"properties":{"data_time":"2023-07-19","source_row_no":"112N005196","registration_no":"112N005196","name":"哥弟食品行","city":"新北市","district":"中和區","address":"新北市中和區保平路二六五號","phone":"","audit_date":"2023-07-19","business_category":"食品工廠","inspection_result":"複查不合格","violation_reason":"複查不合格","source_type":"環境衛生查核違規","source_dataset":"新北市環境衛生查核","source_url":"https://fsmc.ntpc.gov.tw/DigitalMap/PublicWebsite","aggregate_reference_url":"","location_method":"來源網站座標","violation_count":1}},{"type":"Feature","geometry":{"type":"Point","coordinates":[121.613381,25.001319]},"properties":{"data_time":"2023-07-14","source_row_no":"112N005274","registration_no":"112N005274","name":"深坑阿珠芋圓","city":"新北市","district":"深坑區","address":"新北市深坑區深坑街一三二號","phone":"","audit_date":"2023-07-14","business_category":"餐飲業","inspection_result":"複查不合格","violation_reason":"複查不合格","source_type":"環境衛生查核違規","source_dataset":"新北市環境衛生查核","source_url":"https://fsmc.ntpc.gov.tw/DigitalMap/PublicWebsite","aggregate_reference_url":"","location_method":"來源網站座標","violation_count":1}},{"type":"Feature","geometry":{"type":"Point","coordinates":[121.488285,24.998249]},"properties":{"data_time":"2023-07-14","source_row_no":"103N008126","registration_no":"103N008126","name":"中山牛肉麵","city":"新北市","district":"中和區","address":"新北市中和區建一路一八三號","phone":"","audit_date":"2023-07-14","business_category":"餐飲業","inspection_result":"複查不合格","violation_reason":"複查不合格","source_type":"環境衛生查核違規","source_dataset":"新北市環境衛生查核","source_url":"https://fsmc.ntpc.gov.tw/DigitalMap/PublicWebsite","aggregate_reference_url":"","location_method":"來源網站座標","violation_count":1}},{"type":"Feature","geometry":{"type":"Point","coordinates":[121.480648,25.009141]},"properties":{"data_time":"2023-06-20","source_row_no":"102N005626","registration_no":"102N005626","name":"吉翔食品有限公司","city":"新北市","district":"中和區","address":"新北市中和區員山路五零六巷一七號一-二樓","phone":"","audit_date":"2023-06-20","business_category":"食品販賣業","inspection_result":"複查不合格","violation_reason":"複查不合格","source_type":"環境衛生查核違規","source_dataset":"新北市環境衛生查核","source_url":"https://fsmc.ntpc.gov.tw/DigitalMap/PublicWebsite","aggregate_reference_url":"","location_method":"來源網站座標","violation_count":1}},{"type":"Feature","geometry":{"type":"Point","coordinates":[121.511577,24.991205]},"properties":{"data_time":"2023-06-15","source_row_no":"110N008996","registration_no":"110N008996","name":"泰信鑫小吃店","city":"新北市","district":"中和區","address":"新北市中和區興南路一段七號","phone":"","audit_date":"2023-06-15","business_category":"餐飲業","inspection_result":"複查不合格","violation_reason":"複查不合格","source_type":"環境衛生查核違規","source_dataset":"新北市環境衛生查核","source_url":"https://fsmc.ntpc.gov.tw/DigitalMap/PublicWebsite","aggregate_reference_url":"","location_method":"來源網站座標","violation_count":1}},{"type":"Feature","geometry":{"type":"Point","coordinates":[121.484908,25.063938]},"properties":{"data_time":"2023-06-13","source_row_no":"101N015595","registration_no":"101N015595","name":"東泰小吃店","city":"新北市","district":"三重區","address":"新北市三重區三民街一三一號","phone":"","audit_date":"2023-06-13","business_category":"餐飲業","inspection_result":"複查不合格","violation_reason":"複查不合格","source_type":"環境衛生查核違規","source_dataset":"新北市環境衛生查核","source_url":"https://fsmc.ntpc.gov.tw/DigitalMap/PublicWebsite","aggregate_reference_url":"","location_method":"來源網站座標","violation_count":1}},{"type":"Feature","geometry":{"type":"Point","coordinates":[121.512805,25.002618]},"properties":{"data_time":"2023-06-09","source_row_no":"112N005096","registration_no":"112N005096","name":"初戀企業社","city":"新北市","district":"中和區","address":"新北市中和區中安街四六號一樓","phone":"","audit_date":"2023-06-09","business_category":"食品販賣業","inspection_result":"複查不合格","violation_reason":"複查不合格","source_type":"環境衛生查核違規","source_dataset":"新北市環境衛生查核","source_url":"https://fsmc.ntpc.gov.tw/DigitalMap/PublicWebsite","aggregate_reference_url":"","location_method":"來源網站座標","violation_count":1}},{"type":"Feature","geometry":{"type":"Point","coordinates":[121.481119,25.00838]},"properties":{"data_time":"2023-06-05","source_row_no":"102N008951","registration_no":"102N008951","name":"巧莉食品有限公司","city":"新北市","district":"中和區","address":"新北市中和區新民街九六號","phone":"","audit_date":"2023-06-05","business_category":"食品工廠","inspection_result":"複查不合格","violation_reason":"複查不合格","source_type":"環境衛生查核違規","source_dataset":"新北市環境衛生查核","source_url":"https://fsmc.ntpc.gov.tw/DigitalMap/PublicWebsite","aggregate_reference_url":"","location_method":"來源網站座標","violation_count":1}},{"type":"Feature","geometry":{"type":"Point","coordinates":[121.492492,25.076562]},"properties":{"data_time":"2023-06-01","source_row_no":"112N004177","registration_no":"112N004177","name":"無市招中央廚房","city":"新北市","district":"三重區","address":"新北市三重區仁政街四四巷八號","phone":"","audit_date":"2023-06-01","business_category":"餐飲業","inspection_result":"複查不合格","violation_reason":"複查不合格","source_type":"環境衛生查核違規","source_dataset":"新北市環境衛生查核","source_url":"https://fsmc.ntpc.gov.tw/DigitalMap/PublicWebsite","aggregate_reference_url":"","location_method":"來源網站座標","violation_count":1}},{"type":"Feature","geometry":{"type":"Point","coordinates":[121.5081,24.984153]},"properties":{"data_time":"2023-05-23","source_row_no":"104N006047","registration_no":"104N006047","name":"祥鈺港式茶樓","city":"新北市","district":"中和區","address":"新北市中和區華新街六五號一樓","phone":"","audit_date":"2023-05-23","business_category":"餐飲業","inspection_result":"複查不合格","violation_reason":"複查不合格","source_type":"環境衛生查核違規","source_dataset":"新北市環境衛生查核","source_url":"https://fsmc.ntpc.gov.tw/DigitalMap/PublicWebsite","aggregate_reference_url":"","location_method":"來源網站座標","violation_count":1}},{"type":"Feature","geometry":{"type":"Point","coordinates":[121.414754,24.978369]},"properties":{"data_time":"2023-05-22","source_row_no":"110N003722","registration_no":"110N003722","name":"藍海饌食品有限公司","city":"新北市","district":"樹林區","address":"新北市樹林區太順街一一四巷三號","phone":"","audit_date":"2023-05-22","business_category":"食品工廠","inspection_result":"複查不合格","violation_reason":"複查不合格","source_type":"環境衛生查核違規","source_dataset":"新北市環境衛生查核","source_url":"https://fsmc.ntpc.gov.tw/DigitalMap/PublicWebsite","aggregate_reference_url":"","location_method":"來源網站座標","violation_count":1}}]}