{
  "type": "FeatureCollection",
  "features": [
    {"type":"Feature","geometry":{"type":"Point","coordinates":[121.9206,25.0199]},"properties":{"source_row_no":1,"name":"貢寮淨水場","english_name":"Gongliao","city":"新北市","district":"貢寮區","address":"新北市貢寮區下雙溪街20號","data_time":"2026/04/24","qualified":"Y","ph":7.3,"turbidity_ntu":0.4,"free_residual_chlorine_mg_l":0.7,"total_hardness_mg_l":25.1,"total_dissolved_solids_mg_l":75.0,"coliform_cfu_100ml":"<1","source_dataset":"臺灣自來水公司平均水質","source_url":"https://www.water.gov.tw/ch/WaterQuality/Detail/1991?nodeId=4631","location_method":"固定淨水場座標"}},
    {"type":"Feature","geometry":{"type":"Point","coordinates":[121.5497,25.2921]},"properties":{"source_row_no":2,"name":"老梅淨水場","english_name":"Laomei","city":"新北市","district":"石門區","address":"新北市石門區老梅里七股33之2號","data_time":"2026/04/24","qualified":"Y","ph":7.7,"turbidity_ntu":0.45,"free_residual_chlorine_mg_l":0.56,"total_hardness_mg_l":24.4,"total_dissolved_solids_mg_l":66.6,"coliform_cfu_100ml":"<1","source_dataset":"臺灣自來水公司平均水質","source_url":"https://www.water.gov.tw/ch/WaterQuality/Detail/1990?nodeId=4631","location_method":"固定淨水場座標"}},
    {"type":"Feature","geometry":{"type":"Point","coordinates":[121.6125,25.2236]},"properties":{"source_row_no":3,"name":"林莊淨水場","english_name":"Linjhuang","city":"新北市","district":"金山區","address":"新北市金山區重合里林口28-2號","data_time":"2026/04/24","qualified":"Y","ph":7.8,"turbidity_ntu":0.55,"free_residual_chlorine_mg_l":0.71,"total_hardness_mg_l":29.4,"total_dissolved_solids_mg_l":76.2,"coliform_cfu_100ml":"<1","source_dataset":"臺灣自來水公司平均水質","source_url":"https://www.water.gov.tw/ch/WaterQuality/Detail/1989?nodeId=4631","location_method":"固定淨水場座標"}},
    {"type":"Feature","geometry":{"type":"Point","coordinates":[121.7118,24.9365]},"properties":{"source_row_no":4,"name":"坪林淨水場","english_name":"Pinglin","city":"新北市","district":"坪林區","address":"新北市坪林區坪林里國中路3號","data_time":"2026/04/24","qualified":"Y","ph":7.6,"turbidity_ntu":0.25,"free_residual_chlorine_mg_l":0.64,"total_hardness_mg_l":23.6,"total_dissolved_solids_mg_l":65.2,"coliform_cfu_100ml":"<1","source_dataset":"臺灣自來水公司平均水質","source_url":"https://www.water.gov.tw/ch/WaterQuality/Detail/1988?nodeId=4631","location_method":"固定淨水場座標"}},
    {"type":"Feature","geometry":{"type":"Point","coordinates":[121.8076,25.1055]},"properties":{"source_row_no":5,"name":"員山淨水場","english_name":"Yuanshan","city":"新北市","district":"瑞芳區","address":"新北市瑞芳區員山路19-1號","data_time":"2026/04/24","qualified":"Y","ph":7.7,"turbidity_ntu":0.5,"free_residual_chlorine_mg_l":0.63,"total_hardness_mg_l":31.6,"total_dissolved_solids_mg_l":91.0,"coliform_cfu_100ml":"<1","source_dataset":"臺灣自來水公司平均水質","source_url":"https://www.water.gov.tw/ch/WaterQuality/Detail/1987?nodeId=4631","location_method":"固定淨水場座標"}},
    {"type":"Feature","geometry":{"type":"Point","coordinates":[121.3766,24.9389]},"properties":{"source_row_no":6,"name":"板新淨水場","english_name":"Bansin","city":"新北市","district":"三峽區","address":"新北市三峽區復興路551號","data_time":"2026/04/24","qualified":"Y","ph":7.3,"turbidity_ntu":0.2,"free_residual_chlorine_mg_l":0.7,"total_hardness_mg_l":69.7,"total_dissolved_solids_mg_l":127.0,"coliform_cfu_100ml":"<1","source_dataset":"臺灣自來水公司平均水質","source_url":"https://www.water.gov.tw/ch/WaterQuality/Detail/1986?nodeId=4631","location_method":"固定淨水場座標"}}
  ]
}
