{
  "type": "FeatureCollection",
  "features": [
    {"type":"Feature","geometry":{"type":"Point","coordinates":[121.532,25.014]},"properties":{"source_row_no":1,"name":"公館淨水場","city":"臺北市","district":"中正區","water_sources":"青潭水源","data_time":"114年度","qualified":"年度均值","ph":7.2,"turbidity_ntu":0.1,"free_residual_chlorine_mg_l":0.55,"total_hardness_mg_l":28.1,"total_dissolved_solids_mg_l":63.0,"coliform_cfu_100ml":"<1","source_dataset":"臺北自來水水質檢驗(淨水場清水水質)","source_url":"https://data.taipei/dataset/detail?id=9626c65d-8fe7-45bb-bbe2-7439bed81010","location_method":"固定淨水場座標"}},
    {"type":"Feature","geometry":{"type":"Point","coordinates":[121.531,24.952]},"properties":{"source_row_no":2,"name":"直潭淨水場","city":"臺北市","district":"新店區","water_sources":"直潭水源","data_time":"114年度","qualified":"年度均值","ph":7.2,"turbidity_ntu":0.1,"free_residual_chlorine_mg_l":0.52,"total_hardness_mg_l":29.4,"total_dissolved_solids_mg_l":59.0,"coliform_cfu_100ml":"<1","source_dataset":"臺北自來水水質檢驗(淨水場清水水質)","source_url":"https://data.taipei/dataset/detail?id=9626c65d-8fe7-45bb-bbe2-7439bed81010","location_method":"固定淨水場座標"}},
    {"type":"Feature","geometry":{"type":"Point","coordinates":[121.546,25.015]},"properties":{"source_row_no":3,"name":"長興淨水場","city":"臺北市","district":"文山區","water_sources":"青潭水源","data_time":"114年度","qualified":"年度均值","ph":7.3,"turbidity_ntu":0.2,"free_residual_chlorine_mg_l":0.55,"total_hardness_mg_l":27.6,"total_dissolved_solids_mg_l":55.0,"coliform_cfu_100ml":"<1","source_dataset":"臺北自來水水質檢驗(淨水場清水水質)","source_url":"https://data.taipei/dataset/detail?id=9626c65d-8fe7-45bb-bbe2-7439bed81010","location_method":"固定淨水場座標"}},
    {"type":"Feature","geometry":{"type":"Point","coordinates":[121.544,25.154]},"properties":{"source_row_no":4,"name":"陽明淨水場","city":"臺北市","district":"北投區","water_sources":"三角埔、頂北投水源、鹿角坑水源","data_time":"114年度","qualified":"年度均值","ph":7.33,"turbidity_ntu":0.32,"free_residual_chlorine_mg_l":0.58,"total_hardness_mg_l":89.8,"total_dissolved_solids_mg_l":185.7,"coliform_cfu_100ml":"<1","source_dataset":"臺北自來水水質檢驗(淨水場清水水質)","source_url":"https://data.taipei/dataset/detail?id=9626c65d-8fe7-45bb-bbe2-7439bed81010","location_method":"固定淨水場座標"}},
    {"type":"Feature","geometry":{"type":"Point","coordinates":[121.572,25.101]},"properties":{"source_row_no":5,"name":"雙溪淨水場","city":"臺北市","district":"士林區","water_sources":"雙溪水源、士林水源","data_time":"114年度","qualified":"年度均值","ph":7.15,"turbidity_ntu":0.48,"free_residual_chlorine_mg_l":0.54,"total_hardness_mg_l":58.2,"total_dissolved_solids_mg_l":125.5,"coliform_cfu_100ml":"<1","source_dataset":"臺北自來水水質檢驗(淨水場清水水質)","source_url":"https://data.taipei/dataset/detail?id=9626c65d-8fe7-45bb-bbe2-7439bed81010","location_method":"固定淨水場座標"}}
  ]
}
